state,city,zipcode
Bacs-Kiskun,Kecskemet,6000
Bacs-Kiskun,Kecskemet,6008
Bacs-Kiskun,Szentkiraly,6031
Bacs-Kiskun,Nyarlorinc,6032
Bacs-Kiskun,Varosfold,6033
Bacs-Kiskun,Helvecia,6034
Bacs-Kiskun,Balloszog,6035
Bacs-Kiskun,Kerekegyhaza,6041
Bacs-Kiskun,Fulophaza,6042
Bacs-Kiskun,Kunbaracs,6043
Bacs-Kiskun,Kecskemet,6044
Bacs-Kiskun,Ladanybene,6045
Bacs-Kiskun,Lajosmizse,6050
Bacs-Kiskun,Felsolajos,6055
Bacs-Kiskun,Tiszakecske,6060
Bacs-Kiskun,Tiszakecske,6062
Bacs-Kiskun,Tiszaug,6064
Bacs-Kiskun,Lakitelek,6065
Bacs-Kiskun,Tiszaalpar,6066
Bacs-Kiskun,Tiszaalpar,6067
Bacs-Kiskun,Izsak,6070
Bacs-Kiskun,Pahi,6075
Bacs-Kiskun,agasegyhaza,6076
Bacs-Kiskun,Orgovany,6077
Bacs-Kiskun,Jakabszallas,6078
Bacs-Kiskun,Szabadszallas,6080
Bacs-Kiskun,Fulopszallas,6085
Bacs-Kiskun,Szalkszentmarton,6086
Bacs-Kiskun,Dunavecse,6087
Bacs-Kiskun,Apostag,6088
Bacs-Kiskun,Kunszentmiklos,6090
Bacs-Kiskun,Kunpeszer,6096
Bacs-Kiskun,Kunadacs,6097
Bacs-Kiskun,Tass,6098
Bacs-Kiskun,Kiskunfelegyhaza,6100
Bacs-Kiskun,Gater,6111
Bacs-Kiskun,Palmonostora,6112
Bacs-Kiskun,Petofiszallas,6113
Bacs-Kiskun,Bugac,6114
Bacs-Kiskun,Bugacpusztahaza,6114
Bacs-Kiskun,Kunszallas,6115
Bacs-Kiskun,Fulopjakab,6116
Bacs-Kiskun,Kiskunmajsa,6120
Bacs-Kiskun,Szank,6131
Bacs-Kiskun,Moricgat,6132
Bacs-Kiskun,Jaszszentlaszlo,6133
Bacs-Kiskun,Kompoc,6134
Bacs-Kiskun,Csolyospalos,6135
Bacs-Kiskun,Harkakotony,6136
Bacs-Kiskun,Kiskoros,6200
Bacs-Kiskun,Kaskantyu,6211
Bacs-Kiskun,Akaszto,6221
Bacs-Kiskun,Csengod,6222
Bacs-Kiskun,Soltszentimre,6223
Bacs-Kiskun,Tabdi,6224
Bacs-Kiskun,Soltvadkert,6230
Bacs-Kiskun,Bocsa,6235
Bacs-Kiskun,Tazlar,6236
Bacs-Kiskun,Kecel,6237
Bacs-Kiskun,Imrehegy,6238
Bacs-Kiskun,Csaszartoltes,6239
Bacs-Kiskun,Kalocsa,6300
Bacs-Kiskun,oregcserto,6311
Bacs-Kiskun,Solt,6320
Bacs-Kiskun,ujsolt,6321
Bacs-Kiskun,Dunaegyhaza,6323
Bacs-Kiskun,Dunatetetlen,6325
Bacs-Kiskun,Harta,6326
Bacs-Kiskun,Harta,6327
Bacs-Kiskun,Dunapataj,6328
Bacs-Kiskun,Fokto,6331
Bacs-Kiskun,Uszod,6332
Bacs-Kiskun,Dunaszentbenedek,6333
Bacs-Kiskun,Gederlak,6334
Bacs-Kiskun,Ordas,6335
Bacs-Kiskun,Szakmar,6336
Bacs-Kiskun,ujtelek,6337
Bacs-Kiskun,Homokmegy,6341
Bacs-Kiskun,Dragszel,6342
Bacs-Kiskun,Miske,6343
Bacs-Kiskun,Hajos,6344
Bacs-Kiskun,Nemesnadudvar,6345
Bacs-Kiskun,Sukosd,6346
Bacs-Kiskun,ersekcsanad,6347
Bacs-Kiskun,ersekhalma,6348
Bacs-Kiskun,Batya,6351
Bacs-Kiskun,Fajsz,6352
Bacs-Kiskun,Dusnok,6353
Bacs-Kiskun,Kiskunhalas,6400
Bacs-Kiskun,Zsana,6411
Bacs-Kiskun,Balotaszallas,6412
Bacs-Kiskun,Kunfeherto,6413
Bacs-Kiskun,Pirto,6414
Bacs-Kiskun,Kisszallas,6421
Bacs-Kiskun,Tompa,6422
Bacs-Kiskun,Kelebia,6423
Bacs-Kiskun,Csikeria,6424
Bacs-Kiskun,Bacsszolos,6425
Bacs-Kiskun,Bacsalmas,6430
Bacs-Kiskun,Kunbaja,6435
Bacs-Kiskun,Janoshalma,6440
Bacs-Kiskun,Keleshalom,6444
Bacs-Kiskun,Borota,6445
Bacs-Kiskun,Rem,6446
Bacs-Kiskun,Felsoszentivan,6447
Bacs-Kiskun,Csavoly,6448
Bacs-Kiskun,Melykut,6449
Bacs-Kiskun,Tatahaza,6451
Bacs-Kiskun,Matetelke,6452
Bacs-Kiskun,Bacsbokod,6453
Bacs-Kiskun,Bacsborsod,6454
Bacs-Kiskun,Katymar,6455
Bacs-Kiskun,Madaras,6456
Bacs-Kiskun,Baja,6500
Bacs-Kiskun,Baja,6503
Bacs-Kiskun,Bacsszentgyorgy,6511
Bacs-Kiskun,Szeremle,6512
Bacs-Kiskun,Dunafalva,6513
Bacs-Kiskun,Vaskut,6521
Bacs-Kiskun,Gara,6522
Bacs-Kiskun,Csatalja,6523
Bacs-Kiskun,Davod,6524
Bacs-Kiskun,Hercegszanto,6525
Bacs-Kiskun,Nagybaracska,6527
Bacs-Kiskun,Batmonostor,6528
Baranya,Szarasz,7188
Baranya,Komlo,7300
Baranya,Manfa,7304
Baranya,Mecsekpoloske,7305
Baranya,Liget,7331
Baranya,Magyaregregy,7332
Baranya,Karasz,7333
Baranya,Vekeny,7333
Baranya,Kobleny,7334
Baranya,Szalatnak,7334
Baranya,Magocs,7342
Baranya,Nagyhajmas,7343
Baranya,Mekenyes,7344
Baranya,Alsomocsolad,7345
Baranya,Bikal,7346
Baranya,Egyhazaskozar,7347
Baranya,Hegyhatmaroc,7348
Baranya,Tofu,7348
Baranya,Szaszvar,7349
Baranya,Maza,7351
Baranya,Felsoegerszeg,7370
Baranya,Mezod,7370
Baranya,Oroszlo,7370
Baranya,Pale,7370
Baranya,Sasd,7370
Baranya,Varga,7370
Baranya,Vazsnok,7370
Baranya,ag,7381
Baranya,Kisvaszar,7381
Baranya,Tekes,7381
Baranya,Baranyaszentgyorgy,7383
Baranya,Szagy,7383
Baranya,Tormas,7383
Baranya,Baranyajeno,7384
Baranya,Godre,7385
Baranya,Godre,7386
Baranya,Kisbeszterce,7391
Baranya,Kishajmas,7391
Baranya,Mindszentgodisa,7391
Baranya,Bakoca,7393
Baranya,Bodolyaber,7394
Baranya,Magyarhertelend,7394
Baranya,Magyarszek,7396
Baranya,Pecs,7600
Baranya,Pecs,7621
Baranya,Pecs,7622
Baranya,Pecs,7623
Baranya,Pecs,7624
Baranya,Pecs,7625
Baranya,Pecs,7626
Baranya,Pecs,7627
Baranya,Pecs,7628
Baranya,Pecs,7629
Baranya,Pecs,7630
Baranya,Pecs,7631
Baranya,Pecs,7632
Baranya,Pecs,7633
Baranya,Pecs,7634
Baranya,Pecs,7635
Baranya,Pecs,7636
Baranya,Kokeny,7639
Baranya,Pecs,7639
Baranya,Erzsebet,7661
Baranya,Katoly,7661
Baranya,Kekesd,7661
Baranya,Szello,7661
Baranya,Mariakemend,7663
Baranya,Berkesd,7664
Baranya,Pereked,7664
Baranya,Szilagy,7664
Baranya,Pogany,7666
Baranya,Gyod,7668
Baranya,Keszu,7668
Baranya,Pecs,7668
Baranya,Aranyosgadany,7671
Baranya,Bicserd,7671
Baranya,Zok,7671
Baranya,Boda,7672
Baranya,Cserkut,7673
Baranya,Kovagoszolos,7673
Baranya,Bakonya,7675
Baranya,Kovagotottos,7675
Baranya,Orfu,7677
Baranya,Abaliget,7678
Baranya,Husztot,7678
Baranya,Kovacsszenaja,7678
Baranya,Hetvehely,7681
Baranya,Okorvolgy,7681
Baranya,Szentkatalin,7681
Baranya,Bukkosd,7682
Baranya,Cserdi,7683
Baranya,Dinnyeberki,7683
Baranya,Helesfa,7683
Baranya,Pecs,7691
Baranya,Pecs,7693
Baranya,Hosszuheteny,7694
Baranya,Mecseknadasd,7695
Baranya,obanya,7695
Baranya,ofalu,7695
Baranya,Hidas,7696
Baranya,Mohacs,7700
Baranya,Bar,7711
Baranya,Dunaszekcso,7712
Baranya,Mohacs,7714
Baranya,Mohacs,7715
Baranya,Homorud,7716
Baranya,Kolked,7717
Baranya,Udvar,7718
Baranya,Apatvarasd,7720
Baranya,Lovaszheteny,7720
Baranya,Martonfa,7720
Baranya,Pecsvarad,7720
Baranya,Zengovarkony,7720
Baranya,Erdosmecske,7723
Baranya,Feked,7724
Baranya,Szebeny,7725
Baranya,Vemend,7726
Baranya,Palotabozsok,7727
Baranya,Gorcsonydoboka,7728
Baranya,Somberek,7728
Baranya,Nagypall,7731
Baranya,Fazekasboda,7732
Baranya,Geresdlak,7733
Baranya,Maraza,7733
Baranya,Erdosmarok,7735
Baranya,Himeshaza,7735
Baranya,Szur,7735
Baranya,Szekelyszabar,7737
Baranya,Nagykozar,7741
Baranya,Bogad,7742
Baranya,Romonya,7743
Baranya,Ellend,7744
Baranya,Hassagy,7745
Baranya,Olasz,7745
Baranya,Belvardgyula,7747
Baranya,Birjan,7747
Baranya,Monyorod,7751
Baranya,Szederkeny,7751
Baranya,Versend,7752
Baranya,Szajk,7753
Baranya,Boly,7754
Baranya,Tottos,7755
Baranya,Borjad,7756
Baranya,Kisbudmer,7756
Baranya,Nagybudmer,7756
Baranya,Pocsa,7756
Baranya,Babarc,7757
Baranya,Liptod,7757
Baranya,Kisnyarad,7759
Baranya,Lanycsok,7759
Baranya,Kozarmisleny,7761
Baranya,Lothard,7761
Baranya,Magyarsarlos,7761
Baranya,Pecsudvard,7762
Baranya,ata,7763
Baranya,Egerag,7763
Baranya,Kisherend,7763
Baranya,Szemely,7763
Baranya,Szoked,7763
Baranya,Kiskassa,7766
Baranya,Pecsdevecser,7766
Baranya,Peterd,7766
Baranya,ujpetre,7766
Baranya,Kistotfalu,7768
Baranya,Vokany,7768
Baranya,Palkonya,7771
Baranya,Ivanbattyan,7772
Baranya,Villanykovesd,7772
Baranya,Kisjakabfalva,7773
Baranya,Villany,7773
Baranya,Marok,7774
Baranya,Illocska,7775
Baranya,Kislippo,7775
Baranya,Lapancsa,7775
Baranya,Magyarboly,7775
Baranya,Ivandarda,7781
Baranya,Lippo,7781
Baranya,Sarok,7781
Baranya,Bezedek,7782
Baranya,Majs,7783
Baranya,Nagynyarad,7784
Baranya,Satorhely,7785
Baranya,Kisharsany,7800
Baranya,Nagytotfalu,7800
Baranya,Siklos,7800
Baranya,Bisse,7811
Baranya,Bosta,7811
Baranya,Csarnota,7811
Baranya,Szalanta,7811
Baranya,Szilvas,7811
Baranya,Turony,7811
Baranya,Gare,7812
Baranya,Szava,7813
Baranya,Babarcszolos,7814
Baranya,Kisder,7814
Baranya,ocsard,7814
Baranya,Siklosbodony,7814
Baranya,Harkany,7815
Baranya,Diosviszlo,7817
Baranya,Marfa,7817
Baranya,Radfalva,7817
Baranya,Nagyharsany,7822
Baranya,Kistapolca,7823
Baranya,Siklosnagyfalu,7823
Baranya,Egyhazasharaszti,7824
Baranya,Old,7825
Baranya,Alsoszentmarton,7826
Baranya,Beremend,7827
Baranya,Kasad,7827
Baranya,Pellerd,7831
Baranya,Gorcsony,7833
Baranya,Regenye,7833
Baranya,Szoke,7833
Baranya,Baksa,7834
Baranya,Tengeri,7834
Baranya,Teseny,7834
Baranya,Bogadmindszent,7836
Baranya,ozdfalu,7836
Baranya,Hegyszentmarton,7837
Baranya,Besence,7838
Baranya,Hirics,7838
Baranya,Luzsok,7838
Baranya,Nagycsany,7838
Baranya,Paprad,7838
Baranya,Pisko,7838
Baranya,Vajszlo,7838
Baranya,Vejti,7838
Baranya,Kemse,7839
Baranya,Zalata,7839
Baranya,Adorjas,7841
Baranya,Baranyahidveg,7841
Baranya,Kisszentmarton,7841
Baranya,Koros,7841
Baranya,Samod,7841
Baranya,Cun,7843
Baranya,Dravapiski,7843
Baranya,Kemes,7843
Baranya,Szaporca,7843
Baranya,Tesenfa,7843
Baranya,Dravacsepely,7846
Baranya,Dravaszerdahely,7847
Baranya,Ipacsfa,7847
Baranya,Kovacshida,7847
Baranya,Dravacsehi,7849
Baranya,Dravapalkonya,7850
Baranya,Dravaszabolcs,7851
Baranya,Gordisa,7853
Baranya,Matty,7854
Baranya,Botykapeterd,7900
Baranya,Cserto,7900
Baranya,Szigetvar,7900
Baranya,Nagypeterd,7912
Baranya,Nagyvaty,7912
Baranya,Nyugotszenterzsebet,7912
Baranya,Szentdenes,7913
Baranya,Banfa,7914
Baranya,Katadfa,7914
Baranya,Rozsafa,7914
Baranya,Dencshaza,7915
Baranya,Szentegat,7915
Baranya,Somogyhatvan,7921
Baranya,Somogyapati,7922
Baranya,Basal,7923
Baranya,Patapoklosi,7923
Baranya,Somogyviszlo,7924
Baranya,Magyarlukafa,7925
Baranya,Somogyharsagy,7925
Baranya,Vasarosbec,7926
Baranya,Almaskeresztur,7932
Baranya,Mozsgo,7932
Baranya,Szuliman,7932
Baranya,Almamellek,7934
Baranya,Csebeny,7935
Baranya,Horvathertelend,7935
Baranya,Ibafa,7935
Baranya,Szentlaszlo,7936
Baranya,Boldogasszonyfa,7937
Baranya,Csonkamindszent,7940
Baranya,Kacsota,7940
Baranya,Szentlorinc,7940
Baranya,Gerde,7951
Baranya,Pecsbagota,7951
Baranya,Szabadszentkiraly,7951
Baranya,Veleny,7951
Baranya,Kiralyegyhaza,7953
Baranya,Gilvanfa,7954
Baranya,Gyongyfa,7954
Baranya,Kisasszonyfa,7954
Baranya,Magyarmecske,7954
Baranya,Magyartelek,7954
Baranya,Okorag,7957
Baranya,Kakics,7958
Baranya,Dravaivanyi,7960
Baranya,Dravasztara,7960
Baranya,Marocsa,7960
Baranya,Sellye,7960
Baranya,Sosvertike,7960
Baranya,Sumony,7960
Baranya,Csanyoszro,7964
Baranya,Bogdasa,7966
Baranya,Dravafok,7967
Baranya,Dravakeresztur,7967
Baranya,Markoc,7967
Baranya,Felsoszentmarton,7968
Baranya,Hobol,7971
Baranya,Gyongyosmellek,7972
Baranya,Burus,7973
Baranya,Endroc,7973
Baranya,Teklafalu,7973
Baranya,Varad,7973
Baranya,Ketujfalu,7975
Baranya,Szoreny,7976
Baranya,Zador,7976
Baranya,Pettend,7980
Baranya,Kistamasi,7981
Baranya,Merenye,7981
Baranya,Molvany,7981
Baranya,Nemeske,7981
Baranya,Totszentgyorgy,7981
Baranya,Kisdobsza,7985
Baranya,Nagydobsza,7985
Bekes,Gyomaendrod,5500
Bekes,Gyomaendrod,5502
Bekes,Devavanya,5510
Bekes,Ecsegfalva,5515
Bekes,Korosladany,5516
Bekes,Szeghalom,5520
Bekes,Fuzesgyarmat,5525
Bekes,Kerteszsziget,5526
Bekes,Bucsa,5527
Bekes,Veszto,5530
Bekes,Okany,5534
Bekes,Korosujfalu,5536
Bekes,Zsadany,5537
Bekes,Biharugra,5538
Bekes,Korosnagyharsany,5539
Bekes,Szarvas,5540
Bekes,Csabacsud,5551
Bekes,Kardos,5552
Bekes,Kondoros,5553
Bekes,Hunya,5555
Bekes,ormenykut,5556
Bekes,Bekesszentandras,5561
Bekes,Bekescsaba,5600
Bekes,Csabaszabadi,5609
Bekes,Csardaszallas,5621
Bekes,Korostarcsa,5622
Bekes,Bekescsaba,5623
Bekes,Doboz,5624
Bekes,Bekes,5630
Bekes,Tarhos,5641
Bekes,Belmegyer,5643
Bekes,Mezobereny,5650
Bekes,ujkigyos,5661
Bekes,Csanadapaca,5662
Bekes,Medgyesbodzas,5663
Bekes,Medgyesbodzas,5664
Bekes,Pusztaottlaka,5665
Bekes,Medgyesegyhaza,5666
Bekes,Magyarbanhegyes,5667
Bekes,Nagybanhegyes,5668
Bekes,Bekescsaba,5671
Bekes,Murony,5672
Bekes,Kamut,5673
Bekes,Ketsoprony,5674
Bekes,Telekgerendas,5675
Bekes,Gyula,5700
Bekes,Gyula,5711
Bekes,Szabadkigyos,5712
Bekes,Sarkad,5720
Bekes,Kotegyan,5725
Bekes,Mehkerek,5726
Bekes,ujszalonta,5727
Bekes,Sarkadkeresztur,5731
Bekes,Mezogyan,5732
Bekes,Geszt,5734
Bekes,Ketegyhaza,5741
Bekes,Elek,5742
Bekes,Lokoshaza,5743
Bekes,Kevermes,5744
Bekes,Dombiratos,5745
Bekes,Kunagota,5746
Bekes,Almaskamaras,5747
Bekes,Nagykamaras,5751
Bekes,Medgyesegyhaza,5752
Bekes,Mezokovacshaza,5800
Bekes,Vegegyhaza,5811
Bekes,Mezohegyes,5820
Bekes,Battonya,5830
Bekes,Dombegyhaz,5836
Bekes,Kisdombegyhaz,5837
Bekes,Magyardombegyhaz,5838
Bekes,Oroshaza,5900
Bekes,Oroshaza,5903
Bekes,Oroshaza,5904
Bekes,Oroshaza,5905
Bekes,Pusztafoldvar,5919
Bekes,Csorvas,5920
Bekes,Gerendas,5925
Bekes,Nagyszenas,5931
Bekes,Gadoros,5932
Bekes,Totkomlos,5940
Bekes,Kardoskut,5945
Bekes,Bekessamson,5946
Bekes,Kaszaper,5948
Borsod-Abauj-Zemplen,Mezokovesd,3400
Borsod-Abauj-Zemplen,Szomolya,3411
Borsod-Abauj-Zemplen,Bogacs,3412
Borsod-Abauj-Zemplen,Cserepfalu,3413
Borsod-Abauj-Zemplen,Bukkzserc,3414
Borsod-Abauj-Zemplen,Tard,3416
Borsod-Abauj-Zemplen,Cserepvaralja,3417
Borsod-Abauj-Zemplen,Szentistvan,3418
Borsod-Abauj-Zemplen,Mezonyarad,3421
Borsod-Abauj-Zemplen,Bukkabrany,3422
Borsod-Abauj-Zemplen,Tibolddaroc,3423
Borsod-Abauj-Zemplen,Kacs,3424
Borsod-Abauj-Zemplen,Saly,3425
Borsod-Abauj-Zemplen,Borsodgeszt,3426
Borsod-Abauj-Zemplen,Vatta,3431
Borsod-Abauj-Zemplen,Emod,3432
Borsod-Abauj-Zemplen,Nyekladhaza,3433
Borsod-Abauj-Zemplen,Malyi,3434
Borsod-Abauj-Zemplen,Mezokeresztes,3441
Borsod-Abauj-Zemplen,Csincse,3442
Borsod-Abauj-Zemplen,Mezonagymihaly,3443
Borsod-Abauj-Zemplen,Gelej,3444
Borsod-Abauj-Zemplen,Mezocsat,3450
Borsod-Abauj-Zemplen,Tiszakeszi,3458
Borsod-Abauj-Zemplen,Igrici,3459
Borsod-Abauj-Zemplen,Egerlovo,3461
Borsod-Abauj-Zemplen,Borsodivanka,3462
Borsod-Abauj-Zemplen,Negyes,3463
Borsod-Abauj-Zemplen,Tiszavalk,3464
Borsod-Abauj-Zemplen,Tiszababolna,3465
Borsod-Abauj-Zemplen,Tiszadorogma,3466
Borsod-Abauj-Zemplen,arokto,3467
Borsod-Abauj-Zemplen,Miskolc,3500
Borsod-Abauj-Zemplen,Miskolc,3501
Borsod-Abauj-Zemplen,Miskolc,3508
Borsod-Abauj-Zemplen,Miskolc,3515
Borsod-Abauj-Zemplen,Miskolc,3516
Borsod-Abauj-Zemplen,Miskolc,3517
Borsod-Abauj-Zemplen,Miskolc,3518
Borsod-Abauj-Zemplen,Miskolc,3519
Borsod-Abauj-Zemplen,Miskolc,3521
Borsod-Abauj-Zemplen,Miskolc,3524
Borsod-Abauj-Zemplen,Miskolc,3525
Borsod-Abauj-Zemplen,Miskolc,3526
Borsod-Abauj-Zemplen,Miskolc,3527
Borsod-Abauj-Zemplen,Miskolc,3528
Borsod-Abauj-Zemplen,Miskolc,3529
Borsod-Abauj-Zemplen,Miskolc,3530
Borsod-Abauj-Zemplen,Miskolc,3531
Borsod-Abauj-Zemplen,Miskolc,3532
Borsod-Abauj-Zemplen,Miskolc,3533
Borsod-Abauj-Zemplen,Miskolc,3534
Borsod-Abauj-Zemplen,Miskolc,3535
Borsod-Abauj-Zemplen,onod,3551
Borsod-Abauj-Zemplen,Muhi,3552
Borsod-Abauj-Zemplen,Kistokaj,3553
Borsod-Abauj-Zemplen,Bukkaranyos,3554
Borsod-Abauj-Zemplen,Harsany,3555
Borsod-Abauj-Zemplen,Kisgyor,3556
Borsod-Abauj-Zemplen,Bukkszentkereszt,3557
Borsod-Abauj-Zemplen,Miskolc,3558
Borsod-Abauj-Zemplen,Repashuta,3559
Borsod-Abauj-Zemplen,Felsozsolca,3561
Borsod-Abauj-Zemplen,Onga,3562
Borsod-Abauj-Zemplen,Hernadkak,3563
Borsod-Abauj-Zemplen,Hernadnemeti,3564
Borsod-Abauj-Zemplen,Tiszaluc,3565
Borsod-Abauj-Zemplen,Alsozsolca,3571
Borsod-Abauj-Zemplen,Sajolad,3572
Borsod-Abauj-Zemplen,Sajopetri,3573
Borsod-Abauj-Zemplen,Bocs,3574
Borsod-Abauj-Zemplen,Berzek,3575
Borsod-Abauj-Zemplen,Sajohidveg,3576
Borsod-Abauj-Zemplen,Korom,3577
Borsod-Abauj-Zemplen,Girincs,3578
Borsod-Abauj-Zemplen,Kiscsecs,3578
Borsod-Abauj-Zemplen,Kesznyeten,3579
Borsod-Abauj-Zemplen,Tiszaujvaros,3580
Borsod-Abauj-Zemplen,Sajooros,3586
Borsod-Abauj-Zemplen,Tiszapalkonya,3587
Borsod-Abauj-Zemplen,Hejokurt,3588
Borsod-Abauj-Zemplen,Tiszatarjan,3589
Borsod-Abauj-Zemplen,Oszlar,3591
Borsod-Abauj-Zemplen,Nemesbikk,3592
Borsod-Abauj-Zemplen,Hejobaba,3593
Borsod-Abauj-Zemplen,Hejopapi,3594
Borsod-Abauj-Zemplen,Hejoszalonta,3595
Borsod-Abauj-Zemplen,Szakald,3596
Borsod-Abauj-Zemplen,Hejokeresztur,3597
Borsod-Abauj-Zemplen,Nagycsecs,3598
Borsod-Abauj-Zemplen,Sajoszoged,3599
Borsod-Abauj-Zemplen,ozd,3600
Borsod-Abauj-Zemplen,ozd,3603
Borsod-Abauj-Zemplen,ozd,3604
Borsod-Abauj-Zemplen,Farkaslyuk,3608
Borsod-Abauj-Zemplen,ozd,3621
Borsod-Abauj-Zemplen,Uppony,3622
Borsod-Abauj-Zemplen,Borsodszentgyorgy,3623
Borsod-Abauj-Zemplen,ozd,3625
Borsod-Abauj-Zemplen,Hangony,3626
Borsod-Abauj-Zemplen,Domahaza,3627
Borsod-Abauj-Zemplen,Kissikator,3627
Borsod-Abauj-Zemplen,Putnok,3630
Borsod-Abauj-Zemplen,Dubicsany,3635
Borsod-Abauj-Zemplen,Sajogalgoc,3636
Borsod-Abauj-Zemplen,Vadna,3636
Borsod-Abauj-Zemplen,Nagybarca,3641
Borsod-Abauj-Zemplen,Banhorvati,3642
Borsod-Abauj-Zemplen,Dedestapolcsany,3643
Borsod-Abauj-Zemplen,Tardona,3644
Borsod-Abauj-Zemplen,Malyinka,3645
Borsod-Abauj-Zemplen,Nekezseny,3646
Borsod-Abauj-Zemplen,Csokvaomany,3647
Borsod-Abauj-Zemplen,Bukkmogyorosd,3648
Borsod-Abauj-Zemplen,Csernely,3648
Borsod-Abauj-Zemplen,Lenarddaroc,3648
Borsod-Abauj-Zemplen,ozd,3651
Borsod-Abauj-Zemplen,Sajonemeti,3652
Borsod-Abauj-Zemplen,Sajopuspoki,3653
Borsod-Abauj-Zemplen,Banreve,3654
Borsod-Abauj-Zemplen,Het,3655
Borsod-Abauj-Zemplen,Sajomercse,3656
Borsod-Abauj-Zemplen,Sajovelezd,3656
Borsod-Abauj-Zemplen,Kirald,3657
Borsod-Abauj-Zemplen,Borsodbota,3658
Borsod-Abauj-Zemplen,Sata,3659
Borsod-Abauj-Zemplen,ozd,3661
Borsod-Abauj-Zemplen,ozd,3662
Borsod-Abauj-Zemplen,Arlo,3663
Borsod-Abauj-Zemplen,Jardanhaza,3664
Borsod-Abauj-Zemplen,Borsodnadasd,3671
Borsod-Abauj-Zemplen,Borsodnadasd,3672
Borsod-Abauj-Zemplen,Kazincbarcika,3700
Borsod-Abauj-Zemplen,Berente,3704
Borsod-Abauj-Zemplen,Szirmabesenyo,3711
Borsod-Abauj-Zemplen,Sajosenye,3712
Borsod-Abauj-Zemplen,Sajovamos,3712
Borsod-Abauj-Zemplen,Arnot,3713
Borsod-Abauj-Zemplen,Sajopalfala,3714
Borsod-Abauj-Zemplen,Gesztely,3715
Borsod-Abauj-Zemplen,Sostofalva,3716
Borsod-Abauj-Zemplen,ujcsanalos,3716
Borsod-Abauj-Zemplen,Alsodobsza,3717
Borsod-Abauj-Zemplen,Megyaszo,3718
Borsod-Abauj-Zemplen,Sajoivanka,3720
Borsod-Abauj-Zemplen,Sajokaza,3720
Borsod-Abauj-Zemplen,Doveny,3721
Borsod-Abauj-Zemplen,Felsonyarad,3721
Borsod-Abauj-Zemplen,Jakfalva,3721
Borsod-Abauj-Zemplen,Felsokelecseny,3722
Borsod-Abauj-Zemplen,Zubogy,3723
Borsod-Abauj-Zemplen,Ragaly,3724
Borsod-Abauj-Zemplen,Trizs,3724
Borsod-Abauj-Zemplen,Imola,3725
Borsod-Abauj-Zemplen,Alsoszuha,3726
Borsod-Abauj-Zemplen,Szuhafo,3726
Borsod-Abauj-Zemplen,Zadorfalva,3726
Borsod-Abauj-Zemplen,Gomorszolos,3728
Borsod-Abauj-Zemplen,Kelemer,3728
Borsod-Abauj-Zemplen,Serenyfalva,3729
Borsod-Abauj-Zemplen,Szuhakallo,3731
Borsod-Abauj-Zemplen,Kurityan,3732
Borsod-Abauj-Zemplen,Rudabanya,3733
Borsod-Abauj-Zemplen,Szuhogy,3734
Borsod-Abauj-Zemplen,Alsotelekes,3735
Borsod-Abauj-Zemplen,Felsotelekes,3735
Borsod-Abauj-Zemplen,Kano,3735
Borsod-Abauj-Zemplen,Izsofalva,3741
Borsod-Abauj-Zemplen,Rudolftelep,3742
Borsod-Abauj-Zemplen,Ormosbanya,3743
Borsod-Abauj-Zemplen,Mucsony,3744
Borsod-Abauj-Zemplen,Szendrolad,3751
Borsod-Abauj-Zemplen,Galvacs,3752
Borsod-Abauj-Zemplen,Szendro,3752
Borsod-Abauj-Zemplen,Abod,3753
Borsod-Abauj-Zemplen,Meszes,3754
Borsod-Abauj-Zemplen,Szalonna,3754
Borsod-Abauj-Zemplen,Martonyi,3755
Borsod-Abauj-Zemplen,Perkupa,3756
Borsod-Abauj-Zemplen,Varboc,3756
Borsod-Abauj-Zemplen,egerszog,3757
Borsod-Abauj-Zemplen,Szolosardo,3757
Borsod-Abauj-Zemplen,Teresztenye,3757
Borsod-Abauj-Zemplen,Josvafo,3758
Borsod-Abauj-Zemplen,Aggtelek,3759
Borsod-Abauj-Zemplen,Szin,3761
Borsod-Abauj-Zemplen,Szinpetri,3761
Borsod-Abauj-Zemplen,Tornakapolna,3761
Borsod-Abauj-Zemplen,Szogliget,3762
Borsod-Abauj-Zemplen,Bodvaszilas,3763
Borsod-Abauj-Zemplen,Bodvarako,3764
Borsod-Abauj-Zemplen,Komjati,3765
Borsod-Abauj-Zemplen,Tornabarakony,3765
Borsod-Abauj-Zemplen,Tornaszentandras,3765
Borsod-Abauj-Zemplen,Tornanadaska,3767
Borsod-Abauj-Zemplen,Becskehaza,3768
Borsod-Abauj-Zemplen,Bodvalenke,3768
Borsod-Abauj-Zemplen,Hidvegardo,3768
Borsod-Abauj-Zemplen,Tornaszentjakab,3769
Borsod-Abauj-Zemplen,Sajoszentpeter,3770
Borsod-Abauj-Zemplen,Sajokapolna,3773
Borsod-Abauj-Zemplen,Sajolaszlofalva,3773
Borsod-Abauj-Zemplen,Kondo,3775
Borsod-Abauj-Zemplen,Radostyan,3776
Borsod-Abauj-Zemplen,Parasznya,3777
Borsod-Abauj-Zemplen,Varbo,3778
Borsod-Abauj-Zemplen,Alacska,3779
Borsod-Abauj-Zemplen,Balajt,3780
Borsod-Abauj-Zemplen,Damak,3780
Borsod-Abauj-Zemplen,Edeleny,3780
Borsod-Abauj-Zemplen,Ladbesenyo,3780
Borsod-Abauj-Zemplen,Edeleny,3783
Borsod-Abauj-Zemplen,Hegymeg,3786
Borsod-Abauj-Zemplen,Irota,3786
Borsod-Abauj-Zemplen,Lak,3786
Borsod-Abauj-Zemplen,Szakacsi,3786
Borsod-Abauj-Zemplen,Tomor,3787
Borsod-Abauj-Zemplen,Sajokeresztur,3791
Borsod-Abauj-Zemplen,Sajobabony,3792
Borsod-Abauj-Zemplen,Sajoecseg,3793
Borsod-Abauj-Zemplen,Boldva,3794
Borsod-Abauj-Zemplen,Ziliz,3794
Borsod-Abauj-Zemplen,Hangacs,3795
Borsod-Abauj-Zemplen,Nyomar,3795
Borsod-Abauj-Zemplen,Borsodszirak,3796
Borsod-Abauj-Zemplen,Szikszo,3800
Borsod-Abauj-Zemplen,Abaujszolnok,3809
Borsod-Abauj-Zemplen,Nyesta,3809
Borsod-Abauj-Zemplen,Selyeb,3809
Borsod-Abauj-Zemplen,Alsovadasz,3811
Borsod-Abauj-Zemplen,Homrogd,3812
Borsod-Abauj-Zemplen,Monaj,3812
Borsod-Abauj-Zemplen,Kupa,3813
Borsod-Abauj-Zemplen,Felsovadasz,3814
Borsod-Abauj-Zemplen,Abaujlak,3815
Borsod-Abauj-Zemplen,Gadna,3815
Borsod-Abauj-Zemplen,Gagyvendegi,3816
Borsod-Abauj-Zemplen,Gagybator,3817
Borsod-Abauj-Zemplen,Buttos,3821
Borsod-Abauj-Zemplen,Kany,3821
Borsod-Abauj-Zemplen,Keresztete,3821
Borsod-Abauj-Zemplen,Krasznokvajda,3821
Borsod-Abauj-Zemplen,Pamleny,3821
Borsod-Abauj-Zemplen,Perecse,3821
Borsod-Abauj-Zemplen,Szaszfa,3821
Borsod-Abauj-Zemplen,Debrete,3825
Borsod-Abauj-Zemplen,Rakaca,3825
Borsod-Abauj-Zemplen,Viszlo,3825
Borsod-Abauj-Zemplen,Rakacaszend,3826
Borsod-Abauj-Zemplen,Kazsmark,3831
Borsod-Abauj-Zemplen,Leh,3832
Borsod-Abauj-Zemplen,Rasonysapberencs,3833
Borsod-Abauj-Zemplen,Beret,3834
Borsod-Abauj-Zemplen,Detek,3834
Borsod-Abauj-Zemplen,Baktakek,3836
Borsod-Abauj-Zemplen,Alsogagy,3837
Borsod-Abauj-Zemplen,Csenyete,3837
Borsod-Abauj-Zemplen,Felsogagy,3837
Borsod-Abauj-Zemplen,Gagyapati,3837
Borsod-Abauj-Zemplen,Aszalo,3841
Borsod-Abauj-Zemplen,Halmaj,3842
Borsod-Abauj-Zemplen,Kiskinizs,3843
Borsod-Abauj-Zemplen,Nagykinizs,3844
Borsod-Abauj-Zemplen,Szentistvanbaksa,3844
Borsod-Abauj-Zemplen,Hernadkercs,3846
Borsod-Abauj-Zemplen,Felsodobsza,3847
Borsod-Abauj-Zemplen,Csobad,3848
Borsod-Abauj-Zemplen,Forro,3849
Borsod-Abauj-Zemplen,Inancs,3851
Borsod-Abauj-Zemplen,Hernadszentandras,3852
Borsod-Abauj-Zemplen,Hernadbud,3853
Borsod-Abauj-Zemplen,Pere,3853
Borsod-Abauj-Zemplen,Gibart,3854
Borsod-Abauj-Zemplen,Fancsal,3855
Borsod-Abauj-Zemplen,Encs,3860
Borsod-Abauj-Zemplen,Szalaszend,3863
Borsod-Abauj-Zemplen,Fulokercs,3864
Borsod-Abauj-Zemplen,Faj,3865
Borsod-Abauj-Zemplen,Litka,3866
Borsod-Abauj-Zemplen,Szemere,3866
Borsod-Abauj-Zemplen,Mera,3871
Borsod-Abauj-Zemplen,Novajidrany,3872
Borsod-Abauj-Zemplen,Garadna,3873
Borsod-Abauj-Zemplen,Hernadpetri,3874
Borsod-Abauj-Zemplen,Hernadvecse,3874
Borsod-Abauj-Zemplen,Pusztaradvany,3874
Borsod-Abauj-Zemplen,Hernadszurdok,3875
Borsod-Abauj-Zemplen,Hidasnemeti,3876
Borsod-Abauj-Zemplen,Tornyosnemeti,3877
Borsod-Abauj-Zemplen,Abaujszanto,3881
Borsod-Abauj-Zemplen,Basko,3881
Borsod-Abauj-Zemplen,Sima,3881
Borsod-Abauj-Zemplen,Abaujalpar,3882
Borsod-Abauj-Zemplen,Abaujker,3882
Borsod-Abauj-Zemplen,Boldogkoujfalu,3884
Borsod-Abauj-Zemplen,Arka,3885
Borsod-Abauj-Zemplen,Boldogkovaralja,3885
Borsod-Abauj-Zemplen,Korlat,3886
Borsod-Abauj-Zemplen,Hernadcece,3887
Borsod-Abauj-Zemplen,Vizsoly,3888
Borsod-Abauj-Zemplen,Vilmany,3891
Borsod-Abauj-Zemplen,Hejce,3892
Borsod-Abauj-Zemplen,Fony,3893
Borsod-Abauj-Zemplen,Mogyoroska,3893
Borsod-Abauj-Zemplen,Regec,3893
Borsod-Abauj-Zemplen,Goncruszka,3894
Borsod-Abauj-Zemplen,Gonc,3895
Borsod-Abauj-Zemplen,Telkibanya,3896
Borsod-Abauj-Zemplen,Zsujta,3897
Borsod-Abauj-Zemplen,Abaujvar,3898
Borsod-Abauj-Zemplen,Panyok,3898
Borsod-Abauj-Zemplen,Keked,3899
Borsod-Abauj-Zemplen,Szerencs,3900
Borsod-Abauj-Zemplen,Szerencs,3902
Borsod-Abauj-Zemplen,Bekecs,3903
Borsod-Abauj-Zemplen,Legyesbenye,3904
Borsod-Abauj-Zemplen,Monok,3905
Borsod-Abauj-Zemplen,Golop,3906
Borsod-Abauj-Zemplen,Tallya,3907
Borsod-Abauj-Zemplen,Ratka,3908
Borsod-Abauj-Zemplen,Mad,3909
Borsod-Abauj-Zemplen,Tokaj,3910
Borsod-Abauj-Zemplen,Tarcal,3915
Borsod-Abauj-Zemplen,Bodrogkeresztur,3916
Borsod-Abauj-Zemplen,Bodrogkisfalud,3917
Borsod-Abauj-Zemplen,Szegi,3918
Borsod-Abauj-Zemplen,Szegilong,3918
Borsod-Abauj-Zemplen,Taktaszada,3921
Borsod-Abauj-Zemplen,Taktaharkany,3922
Borsod-Abauj-Zemplen,Gesztely,3923
Borsod-Abauj-Zemplen,Taktakenez,3924
Borsod-Abauj-Zemplen,Prugy,3925
Borsod-Abauj-Zemplen,Taktabaj,3926
Borsod-Abauj-Zemplen,Csobaj,3927
Borsod-Abauj-Zemplen,Tiszatardos,3928
Borsod-Abauj-Zemplen,Tiszaladany,3929
Borsod-Abauj-Zemplen,Mezozombor,3931
Borsod-Abauj-Zemplen,Erdobenye,3932
Borsod-Abauj-Zemplen,Olaszliszka,3933
Borsod-Abauj-Zemplen,Tolcsva,3934
Borsod-Abauj-Zemplen,Erdohorvati,3935
Borsod-Abauj-Zemplen,Haromhuta,3936
Borsod-Abauj-Zemplen,Komloska,3937
Borsod-Abauj-Zemplen,Vamosujfalu,3941
Borsod-Abauj-Zemplen,Sarazsadany,3942
Borsod-Abauj-Zemplen,Bodrogolaszi,3943
Borsod-Abauj-Zemplen,Satoraljaujhely,3944
Borsod-Abauj-Zemplen,Satoraljaujhely,3945
Borsod-Abauj-Zemplen,Sarospatak,3950
Borsod-Abauj-Zemplen,Gyorgytarlo,3954
Borsod-Abauj-Zemplen,Kenezlo,3955
Borsod-Abauj-Zemplen,Viss,3956
Borsod-Abauj-Zemplen,Zalkod,3957
Borsod-Abauj-Zemplen,Hercegkut,3958
Borsod-Abauj-Zemplen,Makkoshotyka,3959
Borsod-Abauj-Zemplen,Vajdacska,3961
Borsod-Abauj-Zemplen,Karos,3962
Borsod-Abauj-Zemplen,Karcsa,3963
Borsod-Abauj-Zemplen,Pacin,3964
Borsod-Abauj-Zemplen,Kisrozvagy,3965
Borsod-Abauj-Zemplen,Nagyrozvagy,3965
Borsod-Abauj-Zemplen,Lacacseke,3967
Borsod-Abauj-Zemplen,Tiszakarad,3971
Borsod-Abauj-Zemplen,Tiszacsermely,3972
Borsod-Abauj-Zemplen,Cigand,3973
Borsod-Abauj-Zemplen,Ricse,3974
Borsod-Abauj-Zemplen,Semjen,3974
Borsod-Abauj-Zemplen,Revleanyvar,3976
Borsod-Abauj-Zemplen,Zemplenagard,3977
Borsod-Abauj-Zemplen,Damoc,3978
Borsod-Abauj-Zemplen,Satoraljaujhely,3980
Borsod-Abauj-Zemplen,Alsoberecki,3985
Borsod-Abauj-Zemplen,Felsoberecki,3985
Borsod-Abauj-Zemplen,Bodroghalom,3987
Borsod-Abauj-Zemplen,Satoraljaujhely,3988
Borsod-Abauj-Zemplen,Alsoregmec,3989
Borsod-Abauj-Zemplen,Felsoregmec,3989
Borsod-Abauj-Zemplen,Mikohaza,3989
Borsod-Abauj-Zemplen,Vilyvitany,3991
Borsod-Abauj-Zemplen,Kovacsvagas,3992
Borsod-Abauj-Zemplen,Vagashuta,3992
Borsod-Abauj-Zemplen,Fuzerradvany,3993
Borsod-Abauj-Zemplen,Bozsva,3994
Borsod-Abauj-Zemplen,Filkehaza,3994
Borsod-Abauj-Zemplen,Fuzerkajata,3994
Borsod-Abauj-Zemplen,Kishuta,3994
Borsod-Abauj-Zemplen,Nagyhuta,3994
Borsod-Abauj-Zemplen,Palhaza,3994
Borsod-Abauj-Zemplen,Pusztafalu,3995
Borsod-Abauj-Zemplen,Fuzer,3996
Borsod-Abauj-Zemplen,Fuzerkomlos,3997
Borsod-Abauj-Zemplen,Nyiri,3998
Borsod-Abauj-Zemplen,Hollohaza,3999
Budapest,Budapest,1007
Budapest,Budapest,1011
Budapest,Budapest,1012
Budapest,Budapest,1013
Budapest,Budapest,1014
Budapest,Budapest,1015
Budapest,Budapest,1016
Budapest,Budapest,1021
Budapest,Budapest,1022
Budapest,Budapest,1023
Budapest,Budapest,1024
Budapest,Budapest,1025
Budapest,Budapest,1026
Budapest,Budapest,1027
Budapest,Budapest,1028
Budapest,Budapest,1029
Budapest,Budapest,1031
Budapest,Budapest,1032
Budapest,Budapest,1033
Budapest,Budapest,1034
Budapest,Budapest,1035
Budapest,Budapest,1036
Budapest,Budapest,1037
Budapest,Budapest,1038
Budapest,Budapest,1039
Budapest,Budapest,1041
Budapest,Budapest,1042
Budapest,Budapest,1043
Budapest,Budapest,1044
Budapest,Budapest,1045
Budapest,Budapest,1046
Budapest,Budapest,1047
Budapest,Budapest,1048
Budapest,Budapest,1051
Budapest,Budapest,1052
Budapest,Budapest,1053
Budapest,Budapest,1054
Budapest,Budapest,1055
Budapest,Budapest,1056
Budapest,Budapest,1061
Budapest,Budapest,1062
Budapest,Budapest,1063
Budapest,Budapest,1064
Budapest,Budapest,1065
Budapest,Budapest,1066
Budapest,Budapest,1067
Budapest,Budapest,1068
Budapest,Budapest,1071
Budapest,Budapest,1072
Budapest,Budapest,1073
Budapest,Budapest,1074
Budapest,Budapest,1075
Budapest,Budapest,1076
Budapest,Budapest,1077
Budapest,Budapest,1078
Budapest,Budapest,1081
Budapest,Budapest,1082
Budapest,Budapest,1083
Budapest,Budapest,1084
Budapest,Budapest,1085
Budapest,Budapest,1086
Budapest,Budapest,1087
Budapest,Budapest,1088
Budapest,Budapest,1089
Budapest,Budapest,1091
Budapest,Budapest,1092
Budapest,Budapest,1093
Budapest,Budapest,1094
Budapest,Budapest,1095
Budapest,Budapest,1096
Budapest,Budapest,1097
Budapest,Budapest,1098
Budapest,Budapest,1101
Budapest,Budapest,1102
Budapest,Budapest,1103
Budapest,Budapest,1104
Budapest,Budapest,1105
Budapest,Budapest,1106
Budapest,Budapest,1107
Budapest,Budapest,1108
Budapest,Budapest,1111
Budapest,Budapest,1112
Budapest,Budapest,1113
Budapest,Budapest,1114
Budapest,Budapest,1115
Budapest,Budapest,1116
Budapest,Budapest,1117
Budapest,Budapest,1118
Budapest,Budapest,1119
Budapest,Budapest,1121
Budapest,Budapest,1122
Budapest,Budapest,1123
Budapest,Budapest,1124
Budapest,Budapest,1125
Budapest,Budapest,1126
Budapest,Budapest,1131
Budapest,Budapest,1132
Budapest,Budapest,1133
Budapest,Budapest,1134
Budapest,Budapest,1135
Budapest,Budapest,1136
Budapest,Budapest,1137
Budapest,Budapest,1138
Budapest,Budapest,1139
Budapest,Budapest,1141
Budapest,Budapest,1142
Budapest,Budapest,1143
Budapest,Budapest,1144
Budapest,Budapest,1145
Budapest,Budapest,1146
Budapest,Budapest,1147
Budapest,Budapest,1148
Budapest,Budapest,1149
Budapest,Budapest,1151
Budapest,Budapest,1152
Budapest,Budapest,1153
Budapest,Budapest,1154
Budapest,Budapest,1155
Budapest,Budapest,1156
Budapest,Budapest,1157
Budapest,Budapest,1158
Budapest,Budapest,1161
Budapest,Budapest,1162
Budapest,Budapest,1163
Budapest,Budapest,1164
Budapest,Budapest,1165
Budapest,Budapest,1171
Budapest,Budapest,1172
Budapest,Budapest,1173
Budapest,Budapest,1174
Budapest,Budapest,1181
Budapest,Budapest,1182
Budapest,Budapest,1183
Budapest,Budapest,1184
Budapest,Budapest,1185
Budapest,Budapest,1186
Budapest,Budapest,1188
Budapest,Budapest,1191
Budapest,Budapest,1192
Budapest,Budapest,1193
Budapest,Budapest,1194
Budapest,Budapest,1195
Budapest,Budapest,1196
Budapest,Budapest,1201
Budapest,Budapest,1202
Budapest,Budapest,1203
Budapest,Budapest,1204
Budapest,Budapest,1205
Budapest,Budapest,1211
Budapest,Budapest,1212
Budapest,Budapest,1213
Budapest,Budapest,1214
Budapest,Budapest,1215
Budapest,Budapest,1221
Budapest,Budapest,1222
Budapest,Budapest,1223
Budapest,Budapest,1224
Budapest,Budapest,1225
Budapest,Budapest,1237
Budapest,Budapest,1238
Budapest,Budapest,1239
Csongrad,Szentes,6600
Csongrad,Nagytoke,6612
Csongrad,Derekegyhaz,6621
Csongrad,Nagymagocs,6622
Csongrad,arpadhalom,6623
Csongrad,Eperjes,6624
Csongrad,Fabiansebestyen,6625
Csongrad,Mindszent,6630
Csongrad,Szegvar,6635
Csongrad,Martely,6636
Csongrad,Csongrad,6640
Csongrad,Felgyo,6645
Csongrad,Tomorkeny,6646
Csongrad,Csanytelek,6647
Csongrad,Csongrad,6648
Csongrad,Szeged,6700
Csongrad,Szeged,6710
Csongrad,Szeged,6720
Csongrad,Szeged,6721
Csongrad,Szeged,6722
Csongrad,Szeged,6723
Csongrad,Szeged,6724
Csongrad,Szeged,6725
Csongrad,Szeged,6726
Csongrad,Szeged,6727
Csongrad,Szeged,6728
Csongrad,Szeged,6729
Csongrad,Algyo,6750
Csongrad,Szeged,6753
Csongrad,ujszentivan,6754
Csongrad,Kubekhaza,6755
Csongrad,Tiszasziget,6756
Csongrad,Szeged,6757
Csongrad,Roszke,6758
Csongrad,Kistelek,6760
Csongrad,Sandorfalva,6762
Csongrad,Szatymaz,6763
Csongrad,Balastya,6764
Csongrad,Csengele,6765
Csongrad,Doc,6766
Csongrad,opusztaszer,6767
Csongrad,Baks,6768
Csongrad,Pusztaszer,6769
Csongrad,Szeged,6771
Csongrad,Deszk,6772
Csongrad,Klarafalva,6773
Csongrad,Ferencszallas,6774
Csongrad,Kiszombor,6775
Csongrad,Domaszek,6781
Csongrad,Morahalom,6782
Csongrad,asotthalom,6783
Csongrad,ottomos,6784
Csongrad,Pusztamerges,6785
Csongrad,Ruzsa,6786
Csongrad,Zakanyszek,6787
Csongrad,Szeged,6791
Csongrad,Zsombo,6792
Csongrad,Forraskut,6793
Csongrad,ulles,6794
Csongrad,Bordany,6795
Csongrad,Hodmezovasarhely,6800
Csongrad,Hodmezovasarhely,6805
Csongrad,Hodmezovasarhely,6806
Csongrad,Szekkutas,6821
Csongrad,Mako,6900
Csongrad,Mako,6903
Csongrad,Kiralyhegyes,6911
Csongrad,Kovegy,6912
Csongrad,Csanadpalota,6913
Csongrad,Pitvaros,6914
Csongrad,Csanadalberti,6915
Csongrad,Ambrozfalva,6916
Csongrad,Nagyer,6917
Csongrad,Maroslele,6921
Csongrad,Foldeak,6922
Csongrad,ofoldeak,6923
Csongrad,Apatfalva,6931
Csongrad,Magyarcsanad,6932
Csongrad,Nagylak,6933
Fejer,Bicske,2060
Fejer,obarok,2063
Fejer,Csabdi,2064
Fejer,Many,2065
Fejer,Szar,2066
Fejer,ujbarok,2066
Fejer,Szarliget,2067
Fejer,Etyek,2091
Fejer,Dunaujvaros,2400
Fejer,Dunaujvaros,2407
Fejer,Nagyvenyim,2421
Fejer,Mezofalva,2422
Fejer,Daruszentmiklos,2423
Fejer,Eloszallas,2424
Fejer,Nagykaracsony,2425
Fejer,Baracs,2426
Fejer,Baracs,2427
Fejer,Kisapostag,2428
Fejer,Perkata,2431
Fejer,Szabadegyhaza,2432
Fejer,Sarosd,2433
Fejer,Hantos,2434
Fejer,Nagylok,2435
Fejer,Ercsi,2451
Fejer,Ercsi,2453
Fejer,Ivancsa,2454
Fejer,Beloiannisz,2455
Fejer,Besnyo,2456
Fejer,Adony,2457
Fejer,Kulcs,2458
Fejer,Racalmas,2459
Fejer,Martonvasar,2462
Fejer,Tordas,2463
Fejer,Gyuro,2464
Fejer,Rackeresztur,2465
Fejer,Baracska,2471
Fejer,Kajaszo,2472
Fejer,Val,2473
Fejer,Kapolnasnyek,2475
Fejer,Pazmand,2476
Fejer,Vereb,2477
Fejer,Velence,2481
Fejer,Gardony,2483
Fejer,Gardony,2484
Fejer,Gardony,2485
Fejer,Pusztaszabolcs,2490
Fejer,Sarbogard,7000
Fejer,Sarbogard,7003
Fejer,Alap,7011
Fejer,Alsoszentivan,7012
Fejer,Cece,7013
Fejer,Saregres,7014
Fejer,Igar,7015
Fejer,Mezoszilas,7017
Fejer,Sarbogard,7018
Fejer,Sarbogard,7019
Fejer,Vajta,7041
Fejer,Szekesfehervar,8000
Fejer,Szekesfehervar,8019
Fejer,Csor,8041
Fejer,Moha,8042
Fejer,Iszkaszentgyorgy,8043
Fejer,Kincsesbanya,8044
Fejer,Isztimer,8045
Fejer,Bakonykuti,8046
Fejer,Sarkeresztes,8051
Fejer,Fehervarcsurgo,8052
Fejer,Bodajk,8053
Fejer,Balinka,8054
Fejer,Balinka,8055
Fejer,Bakonycsernye,8056
Fejer,Mor,8060
Fejer,Nagyveleg,8065
Fejer,Pusztavam,8066
Fejer,Magyaralmas,8071
Fejer,Sored,8072
Fejer,Csakbereny,8073
Fejer,Csokako,8074
Fejer,Bodmer,8080
Fejer,Zamoly,8081
Fejer,Gant,8082
Fejer,Csakvar,8083
Fejer,Vertesboglar,8085
Fejer,Felcsut,8086
Fejer,Alcsutdoboz,8087
Fejer,Tabajd,8088
Fejer,Vertesacsa,8089
Fejer,Patka,8092
Fejer,Lovasbereny,8093
Fejer,Pakozd,8095
Fejer,Sukoro,8096
Fejer,Nadap,8097
Fejer,Seregelyes,8111
Fejer,Zichyujfalu,8112
Fejer,Tac,8121
Fejer,Csosz,8122
Fejer,Soponya,8123
Fejer,Kaloz,8124
Fejer,Sarkeresztur,8125
Fejer,Sarszentagota,8126
Fejer,Aba,8127
Fejer,Enying,8130
Fejer,Enying,8131
Fejer,Lepseny,8132
Fejer,Mezoszentgyorgy,8133
Fejer,Matyasdomb,8134
Fejer,Deg,8135
Fejer,Lajoskomarom,8136
Fejer,Mezokomarom,8137
Fejer,Szabadhidveg,8138
Fejer,urhida,8142
Fejer,Sarszentmihaly,8143
Fejer,Sarkeszi,8144
Fejer,Nadasdladany,8145
Fejer,Jeno,8146
Fejer,Szabadbattyan,8151
Fejer,Koszarhegy,8152
Fejer,Polgardi,8154
Fejer,Kislang,8156
Fejer,Fule,8157
Gyor-Moson-Sopron,Gyor,9000
Gyor-Moson-Sopron,Gyor,9011
Gyor-Moson-Sopron,Gyor,9012
Gyor-Moson-Sopron,Gyor,9019
Gyor-Moson-Sopron,Gyor,9021
Gyor-Moson-Sopron,Gyor,9022
Gyor-Moson-Sopron,Gyor,9023
Gyor-Moson-Sopron,Gyor,9024
Gyor-Moson-Sopron,Gyor,9025
Gyor-Moson-Sopron,Gyor,9026
Gyor-Moson-Sopron,Gyor,9027
Gyor-Moson-Sopron,Gyor,9028
Gyor-Moson-Sopron,Gyor,9029
Gyor-Moson-Sopron,Gyor,9030
Gyor-Moson-Sopron,Vamosszabadi,9061
Gyor-Moson-Sopron,Kisbajcs,9062
Gyor-Moson-Sopron,Venek,9062
Gyor-Moson-Sopron,Nagybajcs,9063
Gyor-Moson-Sopron,Vamosszabadi,9064
Gyor-Moson-Sopron,Gonyu,9071
Gyor-Moson-Sopron,Nagyszentjanos,9072
Gyor-Moson-Sopron,Bony,9073
Gyor-Moson-Sopron,Retalap,9074
Gyor-Moson-Sopron,Gyorujbarat,9081
Gyor-Moson-Sopron,Nyul,9082
Gyor-Moson-Sopron,ecs,9083
Gyor-Moson-Sopron,Gyorsag,9084
Gyor-Moson-Sopron,Pazmandfalu,9085
Gyor-Moson-Sopron,Toltestava,9086
Gyor-Moson-Sopron,Bakonypeterd,9088
Gyor-Moson-Sopron,Lazi,9089
Gyor-Moson-Sopron,Pannonhalma,9090
Gyor-Moson-Sopron,Ravazd,9091
Gyor-Moson-Sopron,Tarjanpuszta,9092
Gyor-Moson-Sopron,Gyorasszonyfa,9093
Gyor-Moson-Sopron,Tapszentmiklos,9094
Gyor-Moson-Sopron,Tap,9095
Gyor-Moson-Sopron,Nyalka,9096
Gyor-Moson-Sopron,Mezoors,9097
Gyor-Moson-Sopron,Per,9098
Gyor-Moson-Sopron,Per,9099
Gyor-Moson-Sopron,Tet,9100
Gyor-Moson-Sopron,Tenyo,9111
Gyor-Moson-Sopron,Sokoropatka,9112
Gyor-Moson-Sopron,Koronco,9113
Gyor-Moson-Sopron,Gyorszemere,9121
Gyor-Moson-Sopron,Felpec,9122
Gyor-Moson-Sopron,Kajarpec,9123
Gyor-Moson-Sopron,Gyomore,9124
Gyor-Moson-Sopron,Szerecseny,9125
Gyor-Moson-Sopron,Gyarmat,9126
Gyor-Moson-Sopron,Csikvand,9127
Gyor-Moson-Sopron,Morichida,9131
Gyor-Moson-Sopron,arpas,9132
Gyor-Moson-Sopron,Kisbabot,9133
Gyor-Moson-Sopron,Rabaszentmiklos,9133
Gyor-Moson-Sopron,Bodonhely,9134
Gyor-Moson-Sopron,Rabaszentmihaly,9135
Gyor-Moson-Sopron,Merges,9136
Gyor-Moson-Sopron,Rabacsecseny,9136
Gyor-Moson-Sopron,Ikreny,9141
Gyor-Moson-Sopron,Rabapatona,9142
Gyor-Moson-Sopron,Enese,9143
Gyor-Moson-Sopron,Kony,9144
Gyor-Moson-Sopron,Bagyogszovat,9145
Gyor-Moson-Sopron,Rabapordany,9146
Gyor-Moson-Sopron,Dor,9147
Gyor-Moson-Sopron,Abda,9151
Gyor-Moson-Sopron,Borcs,9152
Gyor-Moson-Sopron,otteveny,9153
Gyor-Moson-Sopron,Mosonszentmiklos,9154
Gyor-Moson-Sopron,Lebeny,9155
Gyor-Moson-Sopron,Gyorsovenyhaz,9161
Gyor-Moson-Sopron,Bezi,9162
Gyor-Moson-Sopron,Feherto,9163
Gyor-Moson-Sopron,Markotabodoge,9164
Gyor-Moson-Sopron,Cakohaza,9165
Gyor-Moson-Sopron,Rabcakapi,9165
Gyor-Moson-Sopron,Tarnokreti,9165
Gyor-Moson-Sopron,Bosarkany,9167
Gyor-Moson-Sopron,Janossomorja,9167
Gyor-Moson-Sopron,Acsalag,9168
Gyor-Moson-Sopron,Csorna,9168
Gyor-Moson-Sopron,Barbacs,9169
Gyor-Moson-Sopron,Magloca,9169
Gyor-Moson-Sopron,Gyorujfalu,9171
Gyor-Moson-Sopron,Gyorzamoly,9172
Gyor-Moson-Sopron,Gyorladamer,9173
Gyor-Moson-Sopron,Dunaszeg,9174
Gyor-Moson-Sopron,Dunaszentpal,9175
Gyor-Moson-Sopron,Mecser,9176
Gyor-Moson-Sopron,asvanyraro,9177
Gyor-Moson-Sopron,Hedervar,9178
Gyor-Moson-Sopron,Kimle,9181
Gyor-Moson-Sopron,Karolyhaza,9182
Gyor-Moson-Sopron,Mosonszentmiklos,9183
Gyor-Moson-Sopron,Kunsziget,9184
Gyor-Moson-Sopron,Mosonmagyarovar,9200
Gyor-Moson-Sopron,Feketeerdo,9211
Gyor-Moson-Sopron,Level,9221
Gyor-Moson-Sopron,Hegyeshalom,9222
Gyor-Moson-Sopron,Bezenye,9223
Gyor-Moson-Sopron,Rajka,9224
Gyor-Moson-Sopron,Dunakiliti,9225
Gyor-Moson-Sopron,Dunasziget,9226
Gyor-Moson-Sopron,Halaszi,9228
Gyor-Moson-Sopron,Mariakalnok,9231
Gyor-Moson-Sopron,Darnozseli,9232
Gyor-Moson-Sopron,Lipot,9233
Gyor-Moson-Sopron,Kisbodak,9234
Gyor-Moson-Sopron,Dunaremete,9235
Gyor-Moson-Sopron,Puski,9235
Gyor-Moson-Sopron,Janossomorja,9241
Gyor-Moson-Sopron,Janossomorja,9242
Gyor-Moson-Sopron,Janossomorja,9243
Gyor-Moson-Sopron,Varbalog,9243
Gyor-Moson-Sopron,ujronafo,9244
Gyor-Moson-Sopron,Mosonszolnok,9245
Gyor-Moson-Sopron,Mosonudvar,9246
Gyor-Moson-Sopron,Csorna,9300
Gyor-Moson-Sopron,Pasztori,9311
Gyor-Moson-Sopron,Szilsarkany,9312
Gyor-Moson-Sopron,Rabacsanak,9313
Gyor-Moson-Sopron,Egyed,9314
Gyor-Moson-Sopron,Sobor,9315
Gyor-Moson-Sopron,Rabaszentandras,9316
Gyor-Moson-Sopron,Szany,9317
Gyor-Moson-Sopron,Farad,9321
Gyor-Moson-Sopron,Rabatamasi,9322
Gyor-Moson-Sopron,Jobahaza,9323
Gyor-Moson-Sopron,Bogyoszlo,9324
Gyor-Moson-Sopron,Potyond,9324
Gyor-Moson-Sopron,Sopronnemeti,9325
Gyor-Moson-Sopron,Szil,9326
Gyor-Moson-Sopron,Rabasebes,9327
Gyor-Moson-Sopron,Vag,9327
Gyor-Moson-Sopron,Kapuvar,9330
Gyor-Moson-Sopron,Kapuvar,9339
Gyor-Moson-Sopron,Kisfalud,9341
Gyor-Moson-Sopron,Mihalyi,9342
Gyor-Moson-Sopron,Beled,9343
Gyor-Moson-Sopron,Edve,9343
Gyor-Moson-Sopron,Vasarosfalu,9343
Gyor-Moson-Sopron,Rabakecol,9344
Gyor-Moson-Sopron,Pali,9345
Gyor-Moson-Sopron,Magyarkeresztur,9346
Gyor-Moson-Sopron,Vadosfa,9346
Gyor-Moson-Sopron,Zsebehaza,9346
Gyor-Moson-Sopron,Babot,9351
Gyor-Moson-Sopron,Veszkeny,9352
Gyor-Moson-Sopron,Szarfold,9353
Gyor-Moson-Sopron,Osli,9354
Gyor-Moson-Sopron,Hovej,9361
Gyor-Moson-Sopron,Himod,9362
Gyor-Moson-Sopron,Gyoro,9363
Gyor-Moson-Sopron,Cirak,9364
Gyor-Moson-Sopron,Denesfa,9365
Gyor-Moson-Sopron,Vitnyed,9371
Gyor-Moson-Sopron,Csapod,9372
Gyor-Moson-Sopron,Pusztacsalad,9373
Gyor-Moson-Sopron,Ivan,9374
Gyor-Moson-Sopron,Csafordjanosfa,9375
Gyor-Moson-Sopron,Cser,9375
Gyor-Moson-Sopron,Repceszemere,9375
Gyor-Moson-Sopron,Sopron,9400
Gyor-Moson-Sopron,Sopron,9407
Gyor-Moson-Sopron,Sopron,9408
Gyor-Moson-Sopron,Fertorakos,9421
Gyor-Moson-Sopron,Harka,9422
Gyor-Moson-Sopron,agfalva,9423
Gyor-Moson-Sopron,Fertod,9431
Gyor-Moson-Sopron,Fertod,9433
Gyor-Moson-Sopron,Sarrod,9434
Gyor-Moson-Sopron,Sarrod,9435
Gyor-Moson-Sopron,Fertoszeplak,9436
Gyor-Moson-Sopron,Hegyko,9437
Gyor-Moson-Sopron,Sarrod,9438
Gyor-Moson-Sopron,Agyagosszergeny,9441
Gyor-Moson-Sopron,Fertoendred,9442
Gyor-Moson-Sopron,Petohaza,9443
Gyor-Moson-Sopron,Fertoszentmiklos,9444
Gyor-Moson-Sopron,Ebergoc,9451
Gyor-Moson-Sopron,Rojtokmuzsaj,9451
Gyor-Moson-Sopron,Lovo,9461
Gyor-Moson-Sopron,Volcsej,9462
Gyor-Moson-Sopron,Sopronhorpacs,9463
Gyor-Moson-Sopron,Und,9464
Gyor-Moson-Sopron,Nemesker,9471
Gyor-Moson-Sopron,ujker,9472
Gyor-Moson-Sopron,Egyhazasfalu,9473
Gyor-Moson-Sopron,Gyaloka,9474
Gyor-Moson-Sopron,Szakony,9474
Gyor-Moson-Sopron,Repcevis,9475
Gyor-Moson-Sopron,Zsira,9476
Gyor-Moson-Sopron,Pinnye,9481
Gyor-Moson-Sopron,Nagylozs,9482
Gyor-Moson-Sopron,Sopronkovesd,9483
Gyor-Moson-Sopron,Pereszteg,9484
Gyor-Moson-Sopron,Nagycenk,9485
Gyor-Moson-Sopron,Hidegseg,9491
Gyor-Moson-Sopron,Fertohomok,9492
Gyor-Moson-Sopron,Fertoboz,9493
Gyor-Moson-Sopron,Sopron,9494
Gyor-Moson-Sopron,Kophaza,9495
Hajdu-Bihar,Debrecen,4000
Hajdu-Bihar,Debrecen,4002
Hajdu-Bihar,Debrecen,4024
Hajdu-Bihar,Debrecen,4025
Hajdu-Bihar,Debrecen,4026
Hajdu-Bihar,Debrecen,4027
Hajdu-Bihar,Debrecen,4028
Hajdu-Bihar,Debrecen,4029
Hajdu-Bihar,Debrecen,4030
Hajdu-Bihar,Debrecen,4031
Hajdu-Bihar,Debrecen,4032
Hajdu-Bihar,Debrecen,4033
Hajdu-Bihar,Debrecen,4034
Hajdu-Bihar,Debrecen,4042
Hajdu-Bihar,Balmazujvaros,4060
Hajdu-Bihar,Debrecen,4063
Hajdu-Bihar,Nagyhegyes,4064
Hajdu-Bihar,ujszentmargita,4065
Hajdu-Bihar,Tiszacsege,4066
Hajdu-Bihar,Egyek,4067
Hajdu-Bihar,Egyek,4069
Hajdu-Bihar,Hortobagy,4071
Hajdu-Bihar,Hajduboszormeny,4074
Hajdu-Bihar,Gorbehaza,4075
Hajdu-Bihar,Debrecen,4078
Hajdu-Bihar,Debrecen,4079
Hajdu-Bihar,Hajdunanas,4080
Hajdu-Bihar,Hajdunanas,4085
Hajdu-Bihar,Hajduboszormeny,4086
Hajdu-Bihar,Hajdudorog,4087
Hajdu-Bihar,Polgar,4090
Hajdu-Bihar,Folyas,4095
Hajdu-Bihar,ujtikos,4096
Hajdu-Bihar,Tiszagyulahaza,4097
Hajdu-Bihar,Berettyoujfalu,4100
Hajdu-Bihar,Biharkeresztes,4110
Hajdu-Bihar,Bojt,4114
Hajdu-Bihar,artand,4115
Hajdu-Bihar,Berekboszormeny,4116
Hajdu-Bihar,Told,4117
Hajdu-Bihar,Mezopeterd,4118
Hajdu-Bihar,Vancsod,4119
Hajdu-Bihar,Szentpeterszeg,4121
Hajdu-Bihar,Gaborjan,4122
Hajdu-Bihar,Hencida,4123
Hajdu-Bihar,Esztar,4124
Hajdu-Bihar,Pocsaj,4125
Hajdu-Bihar,Kismarja,4126
Hajdu-Bihar,Nagykereki,4127
Hajdu-Bihar,Bedo,4128
Hajdu-Bihar,Derecske,4130
Hajdu-Bihar,Tepe,4132
Hajdu-Bihar,Konyar,4133
Hajdu-Bihar,Mezosas,4134
Hajdu-Bihar,Korosszegapati,4135
Hajdu-Bihar,Korosszakal,4136
Hajdu-Bihar,Magyarhomorog,4137
Hajdu-Bihar,Komadi,4138
Hajdu-Bihar,Furta,4141
Hajdu-Bihar,Zsaka,4142
Hajdu-Bihar,Vekerd,4143
Hajdu-Bihar,Darvas,4144
Hajdu-Bihar,Csokmo,4145
Hajdu-Bihar,ujiraz,4146
Hajdu-Bihar,Puspokladany,4150
Hajdu-Bihar,Barand,4161
Hajdu-Bihar,Szerep,4162
Hajdu-Bihar,Szerep,4163
Hajdu-Bihar,Bakonszeg,4164
Hajdu-Bihar,Sarretudvari,4171
Hajdu-Bihar,Biharnagybajom,4172
Hajdu-Bihar,Nagyrabe,4173
Hajdu-Bihar,Bihartorda,4174
Hajdu-Bihar,Bihardancshaza,4175
Hajdu-Bihar,Sap,4176
Hajdu-Bihar,Foldes,4177
Hajdu-Bihar,Nadudvar,4181
Hajdu-Bihar,Kaba,4183
Hajdu-Bihar,Tetetlen,4184
Hajdu-Bihar,Hajduszoboszlo,4200
Hajdu-Bihar,Ebes,4211
Hajdu-Bihar,Hajduszovat,4212
Hajdu-Bihar,Hajduboszormeny,4220
Hajdu-Bihar,Hajduboszormeny,4224
Hajdu-Bihar,Debrecen,4225
Hajdu-Bihar,Bocskaikert,4241
Hajdu-Bihar,Hajduhadhaz,4242
Hajdu-Bihar,Teglas,4243
Hajdu-Bihar,Hajdusamson,4251
Hajdu-Bihar,Nyiradony,4252
Hajdu-Bihar,Nyiradony,4253
Hajdu-Bihar,Nyiradony,4254
Hajdu-Bihar,Nyiracsad,4262
Hajdu-Bihar,Nyirmartonfalva,4263
Hajdu-Bihar,Nyirabrany,4264
Hajdu-Bihar,Fulop,4266
Hajdu-Bihar,Mikepercs,4271
Hajdu-Bihar,Sarand,4272
Hajdu-Bihar,Hajdubagos,4273
Hajdu-Bihar,Hosszupalyi,4274
Hajdu-Bihar,Monostorpalyi,4275
Hajdu-Bihar,Letavertes,4281
Hajdu-Bihar,Letavertes,4283
Hajdu-Bihar,Kokad,4284
Hajdu-Bihar,almosd,4285
Hajdu-Bihar,Bagamer,4286
Hajdu-Bihar,Vamospercs,4287
Hajdu-Bihar,ujleta,4288
Heves,Hatvan,3000
Heves,Kerekharaszt,3009
Heves,Hered,3011
Heves,Nagykokenyes,3012
Heves,Ecsed,3013
Heves,Hort,3014
Heves,Csany,3015
Heves,Boldog,3016
Heves,Lorinci,3021
Heves,Lorinci,3022
Heves,Petofibanya,3023
Heves,Lorinci,3024
Heves,Zagyvaszanto,3031
Heves,Apc,3032
Heves,Rozsaszentmarton,3033
Heves,Szucsi,3034
Heves,Gyongyospata,3035
Heves,Gyongyostarjan,3036
Heves,Gyongyos,3200
Heves,Gyongyosoroszi,3211
Heves,Gyongyoshalasz,3212
Heves,Atkar,3213
Heves,Nagyrede,3214
Heves,Gyongyos,3221
Heves,Gyongyossolymos,3231
Heves,Gyongyos,3232
Heves,Gyongyos,3233
Heves,Matraszentimre,3234
Heves,Matraszentimre,3235
Heves,Parad,3240
Heves,Paradsasvar,3242
Heves,Bodony,3243
Heves,Parad,3244
Heves,Recsk,3245
Heves,Matraderecske,3246
Heves,Matraballa,3247
Heves,Ivad,3248
Heves,Petervasara,3250
Heves,Erdokovesd,3252
Heves,Istenmezeje,3253
Heves,Varaszo,3254
Heves,Fedemes,3255
Heves,Kisfuzes,3256
Heves,Bukkszenterzsebet,3257
Heves,Tarnalelesz,3258
Heves,Szentdomonkos,3259
Heves,Abasar,3261
Heves,Palosvorosmart,3261
Heves,Markaz,3262
Heves,Domoszlo,3263
Heves,Kisnana,3264
Heves,Vecs,3265
Heves,Visonta,3271
Heves,Visonta,3272
Heves,Halmajugra,3273
Heves,Ludas,3274
Heves,Detk,3275
Heves,Karacsond,3281
Heves,Nagyfuged,3282
Heves,Tarnazsadany,3283
Heves,Tarnamera,3284
Heves,Vamosgyork,3291
Heves,Adacs,3292
Heves,Visznek,3293
Heves,Tarnaors,3294
Heves,Erk,3295
Heves,Zarank,3296
Heves,Eger,3300
Heves,Egerbakta,3321
Heves,Hevesaranyos,3322
Heves,Szarvasko,3323
Heves,Felsotarkany,3324
Heves,Noszvaj,3325
Heves,Ostoros,3326
Heves,Novaj,3327
Heves,Egerszolat,3328
Heves,Tarnaszentmaria,3331
Heves,Sirok,3332
Heves,Terpes,3333
Heves,Szajla,3334
Heves,Bukkszek,3335
Heves,Bator,3336
Heves,Egerbocs,3337
Heves,Egercsehi,3341
Heves,Szucs,3341
Heves,Bekolce,3343
Heves,Mikofalva,3344
Heves,Monosbel,3345
Heves,Belapatfalva,3346
Heves,Bukkszentmarton,3346
Heves,Balaton,3347
Heves,Szilvasvarad,3348
Heves,Nagyvisnyo,3349
Heves,Kal,3350
Heves,Verpelet,3351
Heves,Feldebro,3352
Heves,Aldebro,3353
Heves,Tofalu,3354
Heves,Kapolna,3355
Heves,Kompolt,3356
Heves,Nagyut,3357
Heves,Erdotelek,3358
Heves,Tenk,3359
Heves,Heves,3360
Heves,Boconad,3368
Heves,Tarnabod,3369
Heves,atany,3371
Heves,Komlo,3372
Heves,Besenyotelek,3373
Heves,Dormand,3374
Heves,Mezotarkany,3375
Heves,Szihalom,3377
Heves,Mezoszemere,3378
Heves,Egerfarmos,3379
Heves,Pely,3381
Heves,Tarnaszentmiklos,3382
Heves,Hevesvezekeny,3383
Heves,Kiskore,3384
Heves,Tiszanana,3385
Heves,Sarud,3386
Heves,ujlorincfalva,3387
Heves,Poroszlo,3388
Heves,Fuzesabony,3390
Heves,Egerszalok,3394
Heves,Demjen,3395
Heves,Kerecsend,3396
Heves,Maklar,3397
Heves,Nagytalya,3398
Heves,Andornaktalya,3399
Jasz-Nagykun-Szolnok,Szolnok,5000
Jasz-Nagykun-Szolnok,Szolnok,5008
Jasz-Nagykun-Szolnok,Zagyvarekas,5051
Jasz-Nagykun-Szolnok,ujszasz,5052
Jasz-Nagykun-Szolnok,Szaszberek,5053
Jasz-Nagykun-Szolnok,Jaszalsoszentgyorgy,5054
Jasz-Nagykun-Szolnok,Jaszladany,5055
Jasz-Nagykun-Szolnok,Tiszasuly,5061
Jasz-Nagykun-Szolnok,Kotelek,5062
Jasz-Nagykun-Szolnok,Hunyadfalva,5063
Jasz-Nagykun-Szolnok,Csataszog,5064
Jasz-Nagykun-Szolnok,Nagykoru,5065
Jasz-Nagykun-Szolnok,Besenyszog,5071
Jasz-Nagykun-Szolnok,Szajol,5081
Jasz-Nagykun-Szolnok,Tiszatenyo,5082
Jasz-Nagykun-Szolnok,Kengyel,5083
Jasz-Nagykun-Szolnok,Rakocziujfalu,5084
Jasz-Nagykun-Szolnok,Rakoczifalva,5085
Jasz-Nagykun-Szolnok,Toszeg,5091
Jasz-Nagykun-Szolnok,Tiszavarkony,5092
Jasz-Nagykun-Szolnok,Vezseny,5093
Jasz-Nagykun-Szolnok,Tiszajeno,5094
Jasz-Nagykun-Szolnok,Tiszavarkony,5095
Jasz-Nagykun-Szolnok,Jaszbereny,5100
Jasz-Nagykun-Szolnok,Jaszfelsoszentgyorgy,5111
Jasz-Nagykun-Szolnok,Jaszjakohalma,5121
Jasz-Nagykun-Szolnok,Jaszdozsa,5122
Jasz-Nagykun-Szolnok,Jaszarokszallas,5123
Jasz-Nagykun-Szolnok,Jaszago,5124
Jasz-Nagykun-Szolnok,Pusztamonostor,5125
Jasz-Nagykun-Szolnok,Jaszfenyszaru,5126
Jasz-Nagykun-Szolnok,Jaszapati,5130
Jasz-Nagykun-Szolnok,Jaszivany,5135
Jasz-Nagykun-Szolnok,Jaszszentandras,5136
Jasz-Nagykun-Szolnok,Jaszkiser,5137
Jasz-Nagykun-Szolnok,Jasztelek,5141
Jasz-Nagykun-Szolnok,Alattyan,5142
Jasz-Nagykun-Szolnok,Janoshida,5143
Jasz-Nagykun-Szolnok,Jaszboldoghaza,5144
Jasz-Nagykun-Szolnok,Jaszbereny,5152
Jasz-Nagykun-Szolnok,Torokszentmiklos,5200
Jasz-Nagykun-Szolnok,Tiszapuspoki,5211
Jasz-Nagykun-Szolnok,Torokszentmiklos,5212
Jasz-Nagykun-Szolnok,Fegyvernek,5213
Jasz-Nagykun-Szolnok,ormenyes,5222
Jasz-Nagykun-Szolnok,Fegyvernek,5231
Jasz-Nagykun-Szolnok,Tiszabo,5232
Jasz-Nagykun-Szolnok,Tiszagyenda,5233
Jasz-Nagykun-Szolnok,Tiszaroff,5234
Jasz-Nagykun-Szolnok,Tiszabura,5235
Jasz-Nagykun-Szolnok,Abadszalok,5241
Jasz-Nagykun-Szolnok,Tiszaderzs,5243
Jasz-Nagykun-Szolnok,Tiszaszolos,5244
Jasz-Nagykun-Szolnok,Karcag,5300
Jasz-Nagykun-Szolnok,Berekfurdo,5309
Jasz-Nagykun-Szolnok,Kisujszallas,5310
Jasz-Nagykun-Szolnok,Kunmadaras,5321
Jasz-Nagykun-Szolnok,Tiszaszentimre,5322
Jasz-Nagykun-Szolnok,Tiszaszentimre,5323
Jasz-Nagykun-Szolnok,Tomajmonostora,5324
Jasz-Nagykun-Szolnok,Kenderes,5331
Jasz-Nagykun-Szolnok,Kunhegyes,5340
Jasz-Nagykun-Szolnok,Kenderes,5349
Jasz-Nagykun-Szolnok,Tiszafured,5350
Jasz-Nagykun-Szolnok,Tiszafured,5358
Jasz-Nagykun-Szolnok,Tiszafured,5359
Jasz-Nagykun-Szolnok,Tiszaigar,5361
Jasz-Nagykun-Szolnok,Tiszaors,5362
Jasz-Nagykun-Szolnok,Nagyivan,5363
Jasz-Nagykun-Szolnok,Mezotur,5400
Jasz-Nagykun-Szolnok,Ketpo,5411
Jasz-Nagykun-Szolnok,Kuncsorba,5412
Jasz-Nagykun-Szolnok,Turkeve,5420
Jasz-Nagykun-Szolnok,Tiszafoldvar,5430
Jasz-Nagykun-Szolnok,Martfu,5435
Jasz-Nagykun-Szolnok,Kunszentmarton,5440
Jasz-Nagykun-Szolnok,Kunszentmarton,5449
Jasz-Nagykun-Szolnok,ocsod,5451
Jasz-Nagykun-Szolnok,Mesterszallas,5452
Jasz-Nagykun-Szolnok,Mezohek,5453
Jasz-Nagykun-Szolnok,Tiszafoldvar,5461
Jasz-Nagykun-Szolnok,Cibakhaza,5462
Jasz-Nagykun-Szolnok,Nagyrev,5463
Jasz-Nagykun-Szolnok,Tiszainoka,5464
Jasz-Nagykun-Szolnok,Cserkeszolo,5465
Jasz-Nagykun-Szolnok,Tiszakurt,5471
Jasz-Nagykun-Szolnok,Tiszasas,5474
Jasz-Nagykun-Szolnok,Csepa,5475
Jasz-Nagykun-Szolnok,Szeleveny,5476
Komarom-Esztergom,Domos,2027
Komarom-Esztergom,Pilismarot,2028
Komarom-Esztergom,Esztergom,2500
Komarom-Esztergom,Esztergom,2508
Komarom-Esztergom,Esztergom,2509
Komarom-Esztergom,Dorog,2510
Komarom-Esztergom,Kesztolc,2517
Komarom-Esztergom,Leanyvar,2518
Komarom-Esztergom,Piliscsev,2519
Komarom-Esztergom,Csolnok,2521
Komarom-Esztergom,Dag,2522
Komarom-Esztergom,Sarisap,2523
Komarom-Esztergom,Nagysap,2524
Komarom-Esztergom,Bajna,2525
Komarom-Esztergom,Epol,2526
Komarom-Esztergom,Mariahalom,2527
Komarom-Esztergom,uny,2528
Komarom-Esztergom,Annavolgy,2529
Komarom-Esztergom,Tokod,2531
Komarom-Esztergom,Tokodaltaro,2532
Komarom-Esztergom,Bajot,2533
Komarom-Esztergom,Tat,2534
Komarom-Esztergom,Mogyorosbanya,2535
Komarom-Esztergom,Nyergesujfalu,2536
Komarom-Esztergom,Labatlan,2541
Komarom-Esztergom,Sutto,2543
Komarom-Esztergom,Neszmely,2544
Komarom-Esztergom,Dunaalmas,2545
Komarom-Esztergom,Tatabanya,2800
Komarom-Esztergom,Gyermely,2821
Komarom-Esztergom,Szomor,2822
Komarom-Esztergom,Vertessomlo,2823
Komarom-Esztergom,Vargesztes,2824
Komarom-Esztergom,Tarjan,2831
Komarom-Esztergom,Hereg,2832
Komarom-Esztergom,Vertestolna,2833
Komarom-Esztergom,Tardos,2834
Komarom-Esztergom,Tata,2835
Komarom-Esztergom,Baj,2836
Komarom-Esztergom,Vertesszolos,2837
Komarom-Esztergom,Oroszlany,2840
Komarom-Esztergom,Kornye,2851
Komarom-Esztergom,Kecsked,2852
Komarom-Esztergom,Komlod,2853
Komarom-Esztergom,Dad,2854
Komarom-Esztergom,Bokod,2855
Komarom-Esztergom,Szakszend,2856
Komarom-Esztergom,Csaszar,2858
Komarom-Esztergom,Verteskethely,2859
Komarom-Esztergom,Bakonysarkany,2861
Komarom-Esztergom,Aka,2862
Komarom-Esztergom,Kisber,2870
Komarom-Esztergom,Kisber,2879
Komarom-Esztergom,aszar,2881
Komarom-Esztergom,Kerekteleki,2882
Komarom-Esztergom,Barsonyos,2883
Komarom-Esztergom,Bakonyszombathely,2884
Komarom-Esztergom,Bakonybank,2885
Komarom-Esztergom,Rede,2886
Komarom-Esztergom,acsteszer,2887
Komarom-Esztergom,Csatka,2888
Komarom-Esztergom,Sur,2889
Komarom-Esztergom,Tata,2890
Komarom-Esztergom,Szomod,2896
Komarom-Esztergom,Dunaszentmiklos,2897
Komarom-Esztergom,Kocs,2898
Komarom-Esztergom,Naszaly,2899
Komarom-Esztergom,Komarom,2900
Komarom-Esztergom,Komarom,2903
Komarom-Esztergom,Mocsa,2911
Komarom-Esztergom,Komarom,2921
Komarom-Esztergom,Almasfuzito,2931
Komarom-Esztergom,acs,2941
Komarom-Esztergom,Nagyigmand,2942
Komarom-Esztergom,Babolna,2943
Komarom-Esztergom,Tarkany,2943
Komarom-Esztergom,Bana,2944
Komarom-Esztergom,Tarkany,2945
Komarom-Esztergom,Csep,2946
Komarom-Esztergom,Ete,2947
Komarom-Esztergom,Kisigmand,2948
Komarom-Esztergom,Csem,2949
Pest,Szentendre,2000
Pest,Pilisszentlaszlo,2009
Pest,Budakalasz,2011
Pest,Pomaz,2013
Pest,Csobanka,2014
Pest,Szigetmonostor,2015
Pest,Leanyfalu,2016
Pest,Pocsmegyer,2017
Pest,Tahitotfalu,2021
Pest,Tahitotfalu,2022
Pest,Dunabogdany,2023
Pest,Kisoroszi,2024
Pest,Visegrad,2025
Pest,Visegrad,2026
Pest,erd,2030
Pest,Soskut,2038
Pest,Pusztazamor,2039
Pest,Budaors,2040
Pest,Torokbalint,2045
Pest,Diosd,2049
Pest,Biatorbagy,2051
Pest,Herceghalom,2053
Pest,Paty,2071
Pest,Zsambek,2072
Pest,Tok,2073
Pest,Perbal,2074
Pest,Pilisjaszfalu,2080
Pest,Piliscsaba,2081
Pest,Solymar,2083
Pest,Pilisszentivan,2084
Pest,Pilisvorosvar,2085
Pest,Tinnye,2086
Pest,Telki,2089
Pest,Remeteszolos,2090
Pest,Budakeszi,2092
Pest,Budajeno,2093
Pest,Nagykovacsi,2094
Pest,Pilisszanto,2095
Pest,urom,2096
Pest,Pilisborosjeno,2097
Pest,Pilisszentkereszt,2098
Pest,Pilisszentkereszt,2099
Pest,Godollo,2100
Pest,Szada,2111
Pest,Veresegyhaz,2112
Pest,Erdokertes,2113
Pest,Valko,2114
Pest,Vacszentlaszlo,2115
Pest,Zsambok,2116
Pest,Isaszeg,2117
Pest,Dany,2118
Pest,Pecel,2119
Pest,Dunakeszi,2120
Pest,God,2131
Pest,God,2132
Pest,Szodliget,2133
Pest,Szod,2134
Pest,Csorog,2135
Pest,Csomor,2141
Pest,Nagytarcsa,2142
Pest,Kistarcsa,2143
Pest,Kerepes,2144
Pest,Kerepes,2145
Pest,Mogyorod,2146
Pest,Fot,2151
Pest,Csomad,2161
Pest,orbottyan,2162
Pest,Vacratot,2163
Pest,Vachartyan,2164
Pest,Kisnemedi,2165
Pest,Puspokszilagy,2166
Pest,Vacduka,2167
Pest,Aszod,2170
Pest,Kartal,2173
Pest,Verseg,2174
Pest,Iklad,2181
Pest,Domony,2182
Pest,Galgamacsa,2183
Pest,Vacegres,2184
Pest,Vackisujfalu,2185
Pest,Bag,2191
Pest,Hevizgyork,2192
Pest,Galgaheviz,2193
Pest,Tura,2194
Pest,Monor,2200
Pest,Peteri,2209
Pest,Vasad,2211
Pest,Csevharaszt,2212
Pest,Monorierdo,2213
Pest,Pand,2214
Pest,Kava,2215
Pest,Benye,2216
Pest,Gomba,2217
Pest,Vecses,2220
Pest,ullo,2225
Pest,Gyomro,2230
Pest,Ecser,2233
Pest,Maglod,2234
Pest,Mende,2235
Pest,Sulysap,2241
Pest,Sulysap,2242
Pest,Koka,2243
Pest,uri,2244
Pest,Tapioszecso,2251
Pest,Toalmas,2252
Pest,Tapiosag,2253
Pest,Szentmartonkata,2254
Pest,Szentlorinckata,2255
Pest,Rackeve,2300
Pest,Lorev,2309
Pest,Szigetszentmiklos,2310
Pest,Halasztelek,2314
Pest,Szigethalom,2315
Pest,Tokol,2316
Pest,Szigetcsep,2317
Pest,Szigetszentmarton,2318
Pest,Szigetujfalu,2319
Pest,Szigetbecse,2321
Pest,Makad,2322
Pest,Dunaharaszti,2330
Pest,Taksony,2335
Pest,Dunavarsany,2336
Pest,Delegyhaza,2337
Pest,aporka,2338
Pest,Majoshaza,2339
Pest,Kiskunlachaza,2340
Pest,Domsod,2344
Pest,Apaj,2345
Pest,Bugyi,2347
Pest,Alsonemedi,2351
Pest,Gyal,2360
Pest,Felsopakony,2363
Pest,ocsa,2364
Pest,Inarcs,2365
Pest,Kakucs,2366
Pest,ujhartyan,2367
Pest,Dabas,2370
Pest,Dabas,2371
Pest,Dabas,2373
Pest,Tatarszentgyorgy,2375
Pest,Hernad,2376
Pest,orkeny,2377
Pest,Pusztavacs,2378
Pest,Taborfalva,2381
Pest,Szazhalombatta,2440
Pest,Tarnok,2461
Pest,Vac,2600
Pest,Kosd,2612
Pest,Rad,2613
Pest,Penc,2614
Pest,Csovar,2615
Pest,Veroce,2621
Pest,Kismaros,2623
Pest,Szokolya,2624
Pest,Kospallag,2625
Pest,Nagymaros,2626
Pest,Zebegeny,2627
Pest,Szob,2628
Pest,Marianosztra,2629
Pest,Ipolydamasd,2631
Pest,Letkes,2632
Pest,Ipolytolgyes,2633
Pest,Nagyborzsony,2634
Pest,Vamosmikola,2635
Pest,Tesa,2636
Pest,Perocseny,2637
Pest,Kemence,2638
Pest,Bernecebarati,2639
Pest,Galgagyork,2681
Pest,Puspokhatvan,2682
Pest,Acsa,2683
Pest,Cegled,2700
Pest,Tapioszentmarton,2711
Pest,Nyarsapat,2712
Pest,Csemo,2713
Pest,Pilis,2721
Pest,Nyaregyhaza,2723
Pest,ujlengyel,2724
Pest,Albertirsa,2730
Pest,Danszentmiklos,2735
Pest,Mikebuda,2736
Pest,Cegledbercel,2737
Pest,Cegled,2738
Pest,Abony,2740
Pest,Korostetetlen,2745
Pest,Jaszkarajeno,2746
Pest,Tortel,2747
Pest,Nagykoros,2750
Pest,Kocser,2755
Pest,Nagykata,2760
Pest,Tapiobicske,2764
Pest,Farmos,2765
Pest,Tapioszele,2766
Pest,Tapiogyorgye,2767
Pest,ujszilvas,2768
Pest,Tapioszolos,2769
Somogy,Csoma,7253
Somogy,Szabadi,7253
Somogy,Nagyberki,7255
Somogy,Kercseliget,7256
Somogy,Mosdos,7257
Somogy,Bate,7258
Somogy,Kaposkeresztur,7258
Somogy,Kaposhomok,7261
Somogy,Taszar,7261
Somogy,Fono,7271
Somogy,Golle,7272
Somogy,Bussu,7273
Somogy,Kazsok,7274
Somogy,Igal,7275
Somogy,Gadacs,7276
Somogy,Somogyszil,7276
Somogy,Kisgyalan,7279
Somogy,Bonnya,7281
Somogy,Fiad,7282
Somogy,Kisbarapati,7282
Somogy,Somogyacsa,7283
Somogy,Somogydorocske,7284
Somogy,Kara,7285
Somogy,Szorosad,7285
Somogy,Torokkoppany,7285
Somogy,Kaposvar,7400
Somogy,Zselickislak,7400
Somogy,Juta,7431
Somogy,Csombard,7432
Somogy,Hetes,7432
Somogy,Mezocsokonya,7434
Somogy,Somogysard,7435
Somogy,ujvarfalva,7436
Somogy,Bodrog,7439
Somogy,Magyaregres,7441
Somogy,Varda,7442
Somogy,Alsobogat,7443
Somogy,Edde,7443
Somogy,Somogyjad,7443
Somogy,Osztopan,7444
Somogy,Kaposvar,7451
Somogy,Somogyaszalo,7452
Somogy,Mernye,7453
Somogy,Somodor,7454
Somogy,Somogygeszti,7455
Somogy,Felsomocsolad,7456
Somogy,Ecseny,7457
Somogy,Polany,7458
Somogy,Orci,7461
Somogy,Magyaratad,7463
Somogy,Patalom,7463
Somogy,Raksi,7464
Somogy,Szentgalosker,7465
Somogy,Zimany,7471
Somogy,Cserenfa,7472
Somogy,Szentbalazs,7472
Somogy,Galosfa,7473
Somogy,Hajmas,7473
Somogy,Kaposgyarmat,7473
Somogy,Simonfa,7474
Somogy,Zselicszentpal,7474
Somogy,Boszenfa,7475
Somogy,Kaposszerdahely,7476
Somogy,Patca,7477
Somogy,Szenna,7477
Somogy,Szilvasszentmarton,7477
Somogy,Zselickisfalud,7477
Somogy,Bardudvarnok,7478
Somogy,Santos,7479
Somogy,Nagyatad,7500
Somogy,otvoskonyi,7511
Somogy,Mike,7512
Somogy,Rinyaszentkiraly,7513
Somogy,Tarany,7514
Somogy,Somogyudvarhely,7515
Somogy,Berzence,7516
Somogy,Bolhas,7517
Somogy,Kaposmero,7521
Somogy,Kaposujlak,7522
Somogy,Kaposfo,7523
Somogy,Kisasszond,7523
Somogy,Kiskorpad,7524
Somogy,Jako,7525
Somogy,Csokoly,7526
Somogy,Gige,7527
Somogy,Rinyakovacsi,7527
Somogy,Kadarkut,7530
Somogy,Kokut,7530
Somogy,Hencse,7532
Somogy,Hedrehely,7533
Somogy,Visnye,7533
Somogy,Lad,7535
Somogy,Patosfa,7536
Somogy,Homokszentgyorgy,7537
Somogy,Kalmancsa,7538
Somogy,Szulok,7539
Somogy,Kutas,7541
Somogy,Kisbajom,7542
Somogy,Beleg,7543
Somogy,Szabas,7544
Somogy,Nagykorpad,7545
Somogy,Labod,7551
Somogy,Rinyabesenyo,7552
Somogy,Gorgeteg,7553
Somogy,Csokonyavisonta,7555
Somogy,Rinyaujlak,7556
Somogy,Barcs,7557
Somogy,Nagybajom,7561
Somogy,Palmajor,7561
Somogy,Segesd,7562
Somogy,Somogyszob,7563
Somogy,Kaszo,7564
Somogy,Barcs,7570
Somogy,Komlosd,7582
Somogy,Peterhida,7582
Somogy,Babocsa,7584
Somogy,Rinyaujnep,7584
Somogy,Somogyaracs,7584
Somogy,Bakhaza,7585
Somogy,Haromfa,7585
Somogy,Bolho,7586
Somogy,Heresznye,7587
Somogy,Vizvar,7588
Somogy,Belavar,7589
Somogy,Lakocsa,7918
Somogy,Szentborbas,7918
Somogy,Totujfalu,7918
Somogy,Dravagardony,7977
Somogy,Kastelyosdombo,7977
Somogy,Potony,7977
Somogy,Dravatamasi,7979
Somogy,Istvandi,7987
Somogy,Darany,7988
Somogy,Siofok,8600
Somogy,Nyim,8612
Somogy,Balatonendred,8613
Somogy,Balvanyos,8614
Somogy,Koroshegy,8617
Somogy,Kereki,8618
Somogy,Pusztaszemes,8619
Somogy,Zamardi,8621
Somogy,Szantod,8622
Somogy,Balatonfoldvar,8623
Somogy,Balatonszarszo,8624
Somogy,Szolad,8625
Somogy,Teleki,8626
Somogy,Kotcse,8627
Somogy,Nagycsepely,8628
Somogy,Balatonboglar,8630
Somogy,Ordacsehi,8635
Somogy,Balatonszemes,8636
Somogy,Balatonoszod,8637
Somogy,Balatonlelle,8638
Somogy,Fonyod,8640
Somogy,Balatonfenyves,8646
Somogy,Balatonmariafurdo,8647
Somogy,Balatonkeresztur,8648
Somogy,Balatonbereny,8649
Somogy,Balatonszabadi,8651
Somogy,Siojut,8652
Somogy,adand,8653
Somogy,Sagvar,8654
Somogy,Som,8655
Somogy,Nagybereny,8656
Somogy,Babonymegyer,8658
Somogy,Lulla,8660
Somogy,Sersekszolos,8660
Somogy,Tab,8660
Somogy,Torvaj,8660
Somogy,Zala,8660
Somogy,Bedegker,8666
Somogy,Somogyegres,8666
Somogy,Kanya,8667
Somogy,Tengod,8668
Somogy,Miklosi,8669
Somogy,Kapoly,8671
Somogy,Zics,8672
Somogy,Somogymeggyes,8673
Somogy,Nagocs,8674
Somogy,Andocs,8675
Somogy,Karad,8676
Somogy,Latrany,8681
Somogy,Visz,8681
Somogy,Somogytur,8683
Somogy,Somogybabod,8684
Somogy,Gamas,8685
Somogy,Balatonboglar,8691
Somogy,Gyugy,8692
Somogy,Szolosgyorok,8692
Somogy,Kisbereny,8693
Somogy,Lengyeltoti,8693
Somogy,Hacs,8694
Somogy,Buzsak,8695
Somogy,Taska,8696
Somogy,oreglak,8697
Somogy,Pamuk,8698
Somogy,Somogyvar,8698
Somogy,Somogyvamos,8699
Somogy,Csomend,8700
Somogy,Marcali,8700
Somogy,Somogyszentpal,8705
Somogy,Nikla,8706
Somogy,Libickozma,8707
Somogy,Pusztakovacsi,8707
Somogy,Somogyfajsz,8708
Somogy,Marcali,8709
Somogy,Balatonszentgyorgy,8710
Somogy,Vors,8711
Somogy,Balatonujlak,8712
Somogy,Kethely,8713
Somogy,Keleviz,8714
Somogy,Marcali,8714
Somogy,Gadany,8716
Somogy,Hosszuviz,8716
Somogy,Mesztegnyo,8716
Somogy,Nemeskisfalud,8717
Somogy,Szenyer,8717
Somogy,Tapsony,8718
Somogy,Bohonye,8719
Somogy,Vese,8721
Somogy,Nemesded,8722
Somogy,Varaszlo,8723
Somogy,Inke,8724
Somogy,Iharosbereny,8725
Somogy,Iharos,8726
Somogy,Somogycsicso,8726
Somogy,Poganyszentpeter,8728
Somogy,Hollad,8731
Somogy,Tikos,8731
Somogy,Fonyed,8732
Somogy,Savoly,8732
Somogy,Szegerdo,8732
Somogy,Somogysamson,8733
Somogy,Somogyzsitfa,8734
Somogy,Csakany,8735
Somogy,Szokedencs,8736
Somogy,Somogysimonyi,8737
Somogy,Nemesvid,8738
Somogy,Nagyszakacsi,8739
Somogy,Csurgo,8840
Somogy,Csurgonagymarton,8840
Somogy,Szenta,8849
Somogy,Gyekenyes,8851
Somogy,Zakany,8852
Somogy,Zakanyfalu,8853
Somogy,ortilos,8854
Somogy,Porrog,8858
Somogy,Porrogszentkiraly,8858
Somogy,Porrogszentpal,8858
Somogy,Somogybukkosd,8858
Szabolcs-Szatmar-Bereg,Bokony,4231
Szabolcs-Szatmar-Bereg,Gesztered,4232
Szabolcs-Szatmar-Bereg,Balkany,4233
Szabolcs-Szatmar-Bereg,Szakoly,4234
Szabolcs-Szatmar-Bereg,Biri,4235
Szabolcs-Szatmar-Bereg,ujfeherto,4244
Szabolcs-Szatmar-Bereg,erpatak,4245
Szabolcs-Szatmar-Bereg,Nyiregyhaza,4246
Szabolcs-Szatmar-Bereg,Peneszlek,4267
Szabolcs-Szatmar-Bereg,Nyirbator,4300
Szabolcs-Szatmar-Bereg,Nyirgyulaj,4311
Szabolcs-Szatmar-Bereg,Nagykallo,4320
Szabolcs-Szatmar-Bereg,Kallosemjen,4324
Szabolcs-Szatmar-Bereg,Kisleta,4325
Szabolcs-Szatmar-Bereg,Mariapocs,4326
Szabolcs-Szatmar-Bereg,Pocspetri,4327
Szabolcs-Szatmar-Bereg,Nyircsaszari,4331
Szabolcs-Szatmar-Bereg,Nyirderzs,4332
Szabolcs-Szatmar-Bereg,Nyirkata,4333
Szabolcs-Szatmar-Bereg,Hodasz,4334
Szabolcs-Szatmar-Bereg,Kantorjanosi,4335
Szabolcs-Szatmar-Bereg,or,4336
Szabolcs-Szatmar-Bereg,Jarmi,4337
Szabolcs-Szatmar-Bereg,Papos,4338
Szabolcs-Szatmar-Bereg,Nyirvasvari,4341
Szabolcs-Szatmar-Bereg,Terem,4342
Szabolcs-Szatmar-Bereg,Batorliget,4343
Szabolcs-Szatmar-Bereg,Vallaj,4351
Szabolcs-Szatmar-Bereg,Merk,4352
Szabolcs-Szatmar-Bereg,Tiborszallas,4353
Szabolcs-Szatmar-Bereg,Fabianhaza,4354
Szabolcs-Szatmar-Bereg,Nagyecsed,4355
Szabolcs-Szatmar-Bereg,Nyircsaholy,4356
Szabolcs-Szatmar-Bereg,Nyirbogat,4361
Szabolcs-Szatmar-Bereg,Nyirgelse,4362
Szabolcs-Szatmar-Bereg,Nyirmihalydi,4363
Szabolcs-Szatmar-Bereg,Nyirlugos,4371
Szabolcs-Szatmar-Bereg,Nyirbeltek,4372
Szabolcs-Szatmar-Bereg,omboly,4373
Szabolcs-Szatmar-Bereg,Encsencs,4374
Szabolcs-Szatmar-Bereg,Piricse,4375
Szabolcs-Szatmar-Bereg,Nyirpilis,4376
Szabolcs-Szatmar-Bereg,Nyiregyhaza,4400
Szabolcs-Szatmar-Bereg,Nyiregyhaza,4405
Szabolcs-Szatmar-Bereg,Nyiregyhaza,4431
Szabolcs-Szatmar-Bereg,Nyiregyhaza,4432
Szabolcs-Szatmar-Bereg,Nyiregyhaza,4433
Szabolcs-Szatmar-Bereg,Kalmanhaza,4434
Szabolcs-Szatmar-Bereg,Tiszavasvari,4440
Szabolcs-Szatmar-Bereg,Szorgalmatos,4441
Szabolcs-Szatmar-Bereg,Nagycserkesz,4445
Szabolcs-Szatmar-Bereg,Tiszaeszlar,4446
Szabolcs-Szatmar-Bereg,Tiszalok,4447
Szabolcs-Szatmar-Bereg,Tiszalok,4450
Szabolcs-Szatmar-Bereg,Tiszadada,4455
Szabolcs-Szatmar-Bereg,Tiszadob,4456
Szabolcs-Szatmar-Bereg,Nyirtelek,4461
Szabolcs-Szatmar-Bereg,Tiszanagyfalu,4463
Szabolcs-Szatmar-Bereg,Tiszaeszlar,4464
Szabolcs-Szatmar-Bereg,Rakamaz,4465
Szabolcs-Szatmar-Bereg,Timar,4466
Szabolcs-Szatmar-Bereg,Szabolcs,4467
Szabolcs-Szatmar-Bereg,Balsa,4468
Szabolcs-Szatmar-Bereg,Gavavencsello,4471
Szabolcs-Szatmar-Bereg,Gavavencsello,4472
Szabolcs-Szatmar-Bereg,Tiszabercel,4474
Szabolcs-Szatmar-Bereg,Paszab,4475
Szabolcs-Szatmar-Bereg,Nyiregyhaza,4481
Szabolcs-Szatmar-Bereg,Kotaj,4482
Szabolcs-Szatmar-Bereg,Buj,4483
Szabolcs-Szatmar-Bereg,Ibrany,4484
Szabolcs-Szatmar-Bereg,Nagyhalasz,4485
Szabolcs-Szatmar-Bereg,Tiszatelek,4486
Szabolcs-Szatmar-Bereg,Tiszatelek,4487
Szabolcs-Szatmar-Bereg,Beszterec,4488
Szabolcs-Szatmar-Bereg,ujdombrad,4491
Szabolcs-Szatmar-Bereg,Dombrad,4492
Szabolcs-Szatmar-Bereg,Tiszakanyar,4493
Szabolcs-Szatmar-Bereg,Kekcse,4494
Szabolcs-Szatmar-Bereg,Doge,4495
Szabolcs-Szatmar-Bereg,Szabolcsveresmart,4496
Szabolcs-Szatmar-Bereg,Kemecse,4501
Szabolcs-Szatmar-Bereg,Vasmegyer,4502
Szabolcs-Szatmar-Bereg,Tiszarad,4503
Szabolcs-Szatmar-Bereg,Nyirbogdany,4511
Szabolcs-Szatmar-Bereg,Kek,4515
Szabolcs-Szatmar-Bereg,Demecser,4516
Szabolcs-Szatmar-Bereg,Gegeny,4517
Szabolcs-Szatmar-Bereg,Berkesz,4521
Szabolcs-Szatmar-Bereg,Nyirtass,4522
Szabolcs-Szatmar-Bereg,Patroha,4523
Szabolcs-Szatmar-Bereg,Ajak,4524
Szabolcs-Szatmar-Bereg,Retkozberencs,4525
Szabolcs-Szatmar-Bereg,Nyirpazony,4531
Szabolcs-Szatmar-Bereg,Nyirtura,4532
Szabolcs-Szatmar-Bereg,Senyo,4533
Szabolcs-Szatmar-Bereg,Szekely,4534
Szabolcs-Szatmar-Bereg,Nyiribrony,4535
Szabolcs-Szatmar-Bereg,Ramocsahaza,4536
Szabolcs-Szatmar-Bereg,Nyirkercs,4537
Szabolcs-Szatmar-Bereg,Nyirjako,4541
Szabolcs-Szatmar-Bereg,Petnehaza,4542
Szabolcs-Szatmar-Bereg,Laskod,4543
Szabolcs-Szatmar-Bereg,Nyirkarasz,4544
Szabolcs-Szatmar-Bereg,Gyulahaza,4545
Szabolcs-Szatmar-Bereg,Anarcs,4546
Szabolcs-Szatmar-Bereg,Szabolcsbaka,4547
Szabolcs-Szatmar-Bereg,Nyiregyhaza,4551
Szabolcs-Szatmar-Bereg,Napkor,4552
Szabolcs-Szatmar-Bereg,Apagy,4553
Szabolcs-Szatmar-Bereg,Nyirtet,4554
Szabolcs-Szatmar-Bereg,Levelek,4555
Szabolcs-Szatmar-Bereg,Magy,4556
Szabolcs-Szatmar-Bereg,Besenyod,4557
Szabolcs-Szatmar-Bereg,ofeherto,4558
Szabolcs-Szatmar-Bereg,Baktaloranthaza,4561
Szabolcs-Szatmar-Bereg,Vaja,4562
Szabolcs-Szatmar-Bereg,Rohod,4563
Szabolcs-Szatmar-Bereg,Nyirmada,4564
Szabolcs-Szatmar-Bereg,Pusztadobos,4565
Szabolcs-Szatmar-Bereg,Ilk,4566
Szabolcs-Szatmar-Bereg,Gemzse,4567
Szabolcs-Szatmar-Bereg,Kisvarda,4600
Szabolcs-Szatmar-Bereg,Jeke,4611
Szabolcs-Szatmar-Bereg,Fenyeslitke,4621
Szabolcs-Szatmar-Bereg,Komoro,4622
Szabolcs-Szatmar-Bereg,Tuzser,4623
Szabolcs-Szatmar-Bereg,Tiszabezded,4624
Szabolcs-Szatmar-Bereg,Gyorocske,4625
Szabolcs-Szatmar-Bereg,Zahony,4625
Szabolcs-Szatmar-Bereg,Zsurk,4627
Szabolcs-Szatmar-Bereg,Tiszaszentmarton,4628
Szabolcs-Szatmar-Bereg,Pap,4631
Szabolcs-Szatmar-Bereg,Nyirlovo,4632
Szabolcs-Szatmar-Bereg,Lovopetri,4633
Szabolcs-Szatmar-Bereg,Aranyosapati,4634
Szabolcs-Szatmar-Bereg,ujkenez,4635
Szabolcs-Szatmar-Bereg,Mezoladany,4641
Szabolcs-Szatmar-Bereg,Tornyospalca,4642
Szabolcs-Szatmar-Bereg,Benk,4643
Szabolcs-Szatmar-Bereg,Mandok,4644
Szabolcs-Szatmar-Bereg,Tiszamogyoros,4645
Szabolcs-Szatmar-Bereg,Eperjeske,4646
Szabolcs-Szatmar-Bereg,Mateszalka,4700
Szabolcs-Szatmar-Bereg,Szamosker,4721
Szabolcs-Szatmar-Bereg,Nyirmeggyes,4722
Szabolcs-Szatmar-Bereg,Tunyogmatolcs,4731
Szabolcs-Szatmar-Bereg,Cegenydanyad,4732
Szabolcs-Szatmar-Bereg,Gyugye,4733
Szabolcs-Szatmar-Bereg,Szamosujlak,4734
Szabolcs-Szatmar-Bereg,Hermanszeg,4735
Szabolcs-Szatmar-Bereg,Szamossalyi,4735
Szabolcs-Szatmar-Bereg,Darno,4737
Szabolcs-Szatmar-Bereg,Kisnameny,4737
Szabolcs-Szatmar-Bereg,Jankmajtis,4741
Szabolcs-Szatmar-Bereg,Csegold,4742
Szabolcs-Szatmar-Bereg,Csengersima,4743
Szabolcs-Szatmar-Bereg,Szamosbecs,4745
Szabolcs-Szatmar-Bereg,Szamostatarfalva,4746
Szabolcs-Szatmar-Bereg,Kocsord,4751
Szabolcs-Szatmar-Bereg,Gyortelek,4752
Szabolcs-Szatmar-Bereg,Fulposdaroc,4754
Szabolcs-Szatmar-Bereg,Geberjen,4754
Szabolcs-Szatmar-Bereg,okoritofulpos,4755
Szabolcs-Szatmar-Bereg,Rapolt,4756
Szabolcs-Szatmar-Bereg,Porcsalma,4761
Szabolcs-Szatmar-Bereg,Tyukod,4762
Szabolcs-Szatmar-Bereg,Ura,4763
Szabolcs-Szatmar-Bereg,Csengerujfalu,4764
Szabolcs-Szatmar-Bereg,Csenger,4765
Szabolcs-Szatmar-Bereg,Komlodtotfalu,4765
Szabolcs-Szatmar-Bereg,Patyod,4766
Szabolcs-Szatmar-Bereg,Szamosangyalos,4767
Szabolcs-Szatmar-Bereg,Vasarosnameny,4800
Szabolcs-Szatmar-Bereg,Vasarosnameny,4803
Szabolcs-Szatmar-Bereg,Vasarosnameny,4804
Szabolcs-Szatmar-Bereg,Kisvarsany,4811
Szabolcs-Szatmar-Bereg,Nagyvarsany,4812
Szabolcs-Szatmar-Bereg,Gyure,4813
Szabolcs-Szatmar-Bereg,opalyi,4821
Szabolcs-Szatmar-Bereg,Nyirparasznya,4822
Szabolcs-Szatmar-Bereg,Nagydobos,4823
Szabolcs-Szatmar-Bereg,Szamosszeg,4824
Szabolcs-Szatmar-Bereg,Olcsva,4826
Szabolcs-Szatmar-Bereg,Tiszaszalka,4831
Szabolcs-Szatmar-Bereg,Tiszavid,4832
Szabolcs-Szatmar-Bereg,Tiszaadony,4833
Szabolcs-Szatmar-Bereg,Tiszakerecseny,4834
Szabolcs-Szatmar-Bereg,Matyus,4835
Szabolcs-Szatmar-Bereg,Lonya,4836
Szabolcs-Szatmar-Bereg,Jand,4841
Szabolcs-Szatmar-Bereg,Gulacs,4842
Szabolcs-Szatmar-Bereg,Hetefejercse,4843
Szabolcs-Szatmar-Bereg,Csaroda,4844
Szabolcs-Szatmar-Bereg,Takos,4845
Szabolcs-Szatmar-Bereg,Fehergyarmat,4900
Szabolcs-Szatmar-Bereg,Nabrad,4911
Szabolcs-Szatmar-Bereg,Kersemjen,4912
Szabolcs-Szatmar-Bereg,Panyola,4913
Szabolcs-Szatmar-Bereg,Olcsvaapati,4914
Szabolcs-Szatmar-Bereg,Kisar,4921
Szabolcs-Szatmar-Bereg,Tivadar,4921
Szabolcs-Szatmar-Bereg,Nagyar,4922
Szabolcs-Szatmar-Bereg,Tarpa,4931
Szabolcs-Szatmar-Bereg,Marokpapi,4932
Szabolcs-Szatmar-Bereg,Beregsurany,4933
Szabolcs-Szatmar-Bereg,Beregdaroc,4934
Szabolcs-Szatmar-Bereg,Gelenes,4935
Szabolcs-Szatmar-Bereg,Vamosatya,4936
Szabolcs-Szatmar-Bereg,Barabas,4937
Szabolcs-Szatmar-Bereg,Penyige,4941
Szabolcs-Szatmar-Bereg,Mand,4942
Szabolcs-Szatmar-Bereg,Nemesborzova,4942
Szabolcs-Szatmar-Bereg,Komoro,4943
Szabolcs-Szatmar-Bereg,Turistvandi,4944
Szabolcs-Szatmar-Bereg,Szatmarcseke,4945
Szabolcs-Szatmar-Bereg,Tiszakorod,4946
Szabolcs-Szatmar-Bereg,Tiszacsecse,4947
Szabolcs-Szatmar-Bereg,Milota,4948
Szabolcs-Szatmar-Bereg,Tiszabecs,4951
Szabolcs-Szatmar-Bereg,Uszka,4952
Szabolcs-Szatmar-Bereg,Magosliget,4953
Szabolcs-Szatmar-Bereg,Sonkad,4954
Szabolcs-Szatmar-Bereg,Botpalad,4955
Szabolcs-Szatmar-Bereg,Kispalad,4956
Szabolcs-Szatmar-Bereg,Zsarolyan,4961
Szabolcs-Szatmar-Bereg,Nagyszekeres,4962
Szabolcs-Szatmar-Bereg,Kisszekeres,4963
Szabolcs-Szatmar-Bereg,Fulesd,4964
Szabolcs-Szatmar-Bereg,Kolcse,4965
Szabolcs-Szatmar-Bereg,Vamosoroszi,4966
Szabolcs-Szatmar-Bereg,Csaholc,4967
Szabolcs-Szatmar-Bereg,Turricse,4968
Szabolcs-Szatmar-Bereg,Tisztaberek,4969
Szabolcs-Szatmar-Bereg,Rozsaly,4971
Szabolcs-Szatmar-Bereg,Gacsaly,4972
Szabolcs-Szatmar-Bereg,Csaszlo,4973
Szabolcs-Szatmar-Bereg,Zajta,4974
Szabolcs-Szatmar-Bereg,Mehtelek,4975
Szabolcs-Szatmar-Bereg,Garbolc,4976
Szabolcs-Szatmar-Bereg,Kishodos,4977
Szabolcs-Szatmar-Bereg,Nagyhodos,4977
Tolna,Dunafoldvar,7020
Tolna,Bolcske,7025
Tolna,Madocsa,7026
Tolna,Paks,7027
Tolna,Paks,7030
Tolna,Pusztahencse,7038
Tolna,Nemetker,7039
Tolna,Palfa,7042
Tolna,Bikacs,7043
Tolna,Nagydorog,7044
Tolna,Gyorkony,7045
Tolna,Sarszentlorinc,7047
Tolna,Kajdacs,7051
Tolna,Kolesd,7052
Tolna,Tengelic,7054
Tolna,Szedres,7056
Tolna,Medina,7057
Tolna,Belecska,7061
Tolna,Keszohidegkut,7062
Tolna,Szarazd,7063
Tolna,Gyonk,7064
Tolna,Miszla,7065
Tolna,Udvari,7066
Tolna,Varsad,7067
Tolna,Kistormas,7068
Tolna,Szakadat,7071
Tolna,Diosbereny,7072
Tolna,Simontornya,7081
Tolna,Kisszekely,7082
Tolna,Tolnanemedi,7083
Tolna,Pincehely,7084
Tolna,Nagyszekely,7085
Tolna,Ozora,7086
Tolna,Furged,7087
Tolna,Tamasi,7090
Tolna,Pari,7091
Tolna,Nagykonyi,7092
Tolna,erteny,7093
Tolna,Koppanyszanto,7094
Tolna,Iregszemcse,7095
Tolna,ujireg,7095
Tolna,Nagyszokoly,7097
Tolna,Magyarkeszi,7098
Tolna,Felsonyek,7099
Tolna,Szekszard,7100
Tolna,Szalka,7121
Tolna,Kakasd,7122
Tolna,Tolna,7130
Tolna,Tolna,7131
Tolna,Bogyiszlo,7132
Tolna,Fadd,7133
Tolna,Gerjen,7134
Tolna,Dunaszentgyorgy,7135
Tolna,Facankert,7136
Tolna,Bataszek,7140
Tolna,Porboly,7142
Tolna,ocseny,7143
Tolna,Decs,7144
Tolna,Sarpilis,7145
Tolna,Vardomb,7146
Tolna,Alsonana,7147
Tolna,Alsonyek,7148
Tolna,Bata,7149
Tolna,Bonyhad,7150
Tolna,Bonyhadvarasd,7158
Tolna,Kisdorog,7159
Tolna,Ciko,7161
Tolna,Graboc,7162
Tolna,Mocseny,7163
Tolna,Bataapati,7164
Tolna,Moragy,7165
Tolna,Sioagard,7171
Tolna,Harc,7172
Tolna,Zomba,7173
Tolna,Kety,7174
Tolna,Felsonana,7175
Tolna,Murga,7176
Tolna,Tevel,7181
Tolna,Zavod,7182
Tolna,Kisvejke,7183
Tolna,Lengyel,7184
Tolna,Mucsfa,7185
Tolna,Aparhant,7186
Tolna,Nagyvejke,7186
Tolna,Bonyhad,7187
Tolna,Hogyesz,7191
Tolna,Szakaly,7192
Tolna,Regoly,7193
Tolna,Kalazno,7194
Tolna,Mucsi,7195
Tolna,Dombovar,7200
Tolna,Dalmand,7211
Tolna,Kocsola,7212
Tolna,Szakcs,7213
Tolna,Lapafo,7214
Tolna,Varong,7214
Tolna,Nak,7215
Tolna,Duzs,7224
Tolna,Csibrak,7225
Tolna,Kurd,7226
Tolna,Gyulaj,7227
Tolna,Dobrokoz,7228
Tolna,Kapospula,7251
Tolna,Attala,7252
Tolna,Csikostottos,7341
Tolna,Gyore,7352
Tolna,Izmeny,7353
Tolna,Varalja,7354
Tolna,Nagymanyok,7355
Tolna,Kismanyok,7356
Tolna,Jagonak,7357
Tolna,Kaposszekcso,7361
Tolna,Gerenyes,7362
Tolna,Tarros,7362
Tolna,Vasarosdombo,7362
Vas County,Celldomolk,9500
Vas County,Kemenesmihalyfa,9511
Vas County,Ostffyasszonyfa,9512
Vas County,Csonge,9513
Vas County,Kenyeri,9514
Vas County,Papoc,9515
Vas County,Vonock,9516
Vas County,Kemenessomjen,9517
Vas County,Kemenesszentmarton,9521
Vas County,Kemenesmagasi,9522
Vas County,Szergeny,9523
Vas County,Mersevat,9531
Vas County,Celldomolk,9541
Vas County,Boba,9542
Vas County,Nemeskocs,9542
Vas County,Kemenespalfa,9544
Vas County,Janoshaza,9545
Vas County,Karako,9547
Vas County,Nemeskeresztur,9548
Vas County,Keled,9549
Vas County,Mesteri,9551
Vas County,Vasarosmiske,9552
Vas County,Kemeneskapolna,9553
Vas County,Kocsk,9553
Vas County,Borgata,9554
Vas County,Egyhazashetye,9554
Vas County,Kissomlyo,9555
Vas County,Duka,9556
Vas County,Nagysimonyi,9561
Vas County,Tokorcs,9561
Vas County,Sarvar,9600
Vas County,Sarvar,9608
Vas County,Sarvar,9609
Vas County,Csenye,9611
Vas County,Bogot,9612
Vas County,Porpac,9612
Vas County,olbo,9621
Vas County,Szeleste,9622
Vas County,Repceszentgyorgy,9623
Vas County,Chernelhazadamonya,9624
Vas County,Bo,9625
Vas County,Gor,9625
Vas County,Hegyfalu,9631
Vas County,Sajtoskal,9632
Vas County,Simasag,9633
Vas County,Iklanbereny,9634
Vas County,Locs,9634
Vas County,Zsedeny,9635
Vas County,Posfa,9636
Vas County,Rabapaty,9641
Vas County,Jakfa,9643
Vas County,Uraiujfalu,9651
Vas County,Nick,9652
Vas County,Repcelak,9653
Vas County,Csanig,9654
Vas County,Vasegerszeg,9661
Vas County,Mesterhaza,9662
Vas County,Tompaladony,9662
Vas County,Nemesladony,9663
Vas County,Nagygeresd,9664
Vas County,Vamoscsalad,9665
Vas County,Sitke,9671
Vas County,Gerce,9672
Vas County,Kald,9673
Vas County,Vashosszufalu,9674
Vas County,Bogote,9675
Vas County,Hosszupereszteg,9676
Vas County,Sotony,9681
Vas County,Nyoger,9682
Vas County,Bejcgyertyanos,9683
Vas County,Egervolgy,9684
Vas County,Szemenye,9685
Vas County,Szombathely,9700
Vas County,Szombathely,9707
Vas County,Gencsapati,9721
Vas County,Perenye,9722
Vas County,Gyongyosfalu,9723
Vas County,Lukacshaza,9724
Vas County,Cak,9725
Vas County,Koszegdoroszlo,9725
Vas County,Koszegszerdahely,9725
Vas County,Velem,9726
Vas County,Bozsok,9727
Vas County,Koszeg,9730
Vas County,Horvatzsidany,9733
Vas County,Kiszsidany,9733
Vas County,olmod,9733
Vas County,Peresznye,9734
Vas County,Csepreg,9735
Vas County,Tormasliget,9736
Vas County,Buk,9737
Vas County,Tomord,9738
Vas County,Koszegpaty,9739
Vas County,Nemescso,9739
Vas County,Pusztacso,9739
Vas County,Buk,9740
Vas County,Vassurany,9741
Vas County,Salkoveskut,9742
Vas County,Sopte,9743
Vas County,Vasasszonyfa,9744
Vas County,Meszlen,9745
Vas County,Acsad,9746
Vas County,Vasszilvagy,9747
Vas County,Vat,9748
Vas County,Nemesbod,9749
Vas County,Vep,9751
Vas County,Bozzai,9752
Vas County,Kenez,9752
Vas County,Megyehid,9754
Vas County,Pecol,9754
Vas County,Ikervar,9756
Vas County,Meggyeskovacsi,9757
Vas County,Taplanszentkereszt,9761
Vas County,Tanakajd,9762
Vas County,Vasszecseny,9763
Vas County,Csempeszkopacs,9764
Vas County,Meggyeskovacsi,9764
Vas County,Rabatottos,9766
Vas County,Rum,9766
Vas County,Zsennye,9766
Vas County,Balogunyom,9771
Vas County,Kisunyom,9772
Vas County,Sorokpolany,9773
Vas County,Gyanogeregye,9774
Vas County,Sorkifalud,9774
Vas County,Sorkikapolna,9774
Vas County,Nemeskolta,9775
Vas County,Puspokmolnari,9776
Vas County,Rabahidveg,9777
Vas County,Egyhazashollos,9781
Vas County,Nemesrempehollos,9782
Vas County,Egyhazasradoc,9783
Vas County,Harasztifalu,9784
Vas County,Nagykolked,9784
Vas County,Radockolked,9784
Vas County,Se,9789
Vas County,Dozmat,9791
Vas County,Torony,9791
Vas County,Bucsu,9792
Vas County,Narda,9793
Vas County,Felsocsatar,9794
Vas County,Vaskeresztes,9795
Vas County,Horvatlovo,9796
Vas County,Pornoapati,9796
Vas County,Narai,9797
Vas County,Jak,9798
Vas County,Szentpeterfa,9799
Vas County,Vasvar,9800
Vas County,Andrasfa,9811
Vas County,Telekes,9812
Vas County,Gersekarat,9813
Vas County,Sarfimizdo,9813
Vas County,Halasto,9814
Vas County,Gyorvar,9821
Vas County,Hegyhatszentpeter,9821
Vas County,Pacsony,9823
Vas County,Olaszfa,9824
Vas County,Oszko,9825
Vas County,Petomihalyfa,9826
Vas County,Berbaltavar,9831
Vas County,Nagytilaj,9832
Vas County,Csehi,9833
Vas County,Csehimindszent,9834
Vas County,Mikosszeplak,9835
Vas County,Csipkerek,9836
Vas County,Kam,9841
Vas County,Alsoujlak,9842
Vas County,Kormend,9900
Vas County,Kormend,9909
Vas County,Magyarnadalja,9909
Vas County,Magyarszecsod,9912
Vas County,Molnaszecsod,9912
Vas County,Doroske,9913
Vas County,Nagymizdo,9913
Vas County,Szarvaskend,9913
Vas County,Doborhegy,9914
Vas County,Hegyhathodasz,9915
Vas County,Hegyhatsal,9915
Vas County,Katafa,9915
Vas County,Nadasd,9915
Vas County,Daraboshegy,9917
Vas County,Halogy,9917
Vas County,Felsomarac,9918
Vas County,Csakanydoroszlo,9919
Vas County,Vasalja,9921
Vas County,Pinkamindszent,9922
Vas County,Kemestarodfa,9923
Vas County,Hegyhatszentmarton,9931
Vas County,Ivanc,9931
Vas County,Viszak,9932
Vas County,orimagyarosd,9933
Vas County,Felsojanosfa,9934
Vas County,Hegyhatszentjakab,9934
Vas County,Szaknyer,9934
Vas County,Szoce,9935
Vas County,Kisrakos,9936
Vas County,Pankasz,9937
Vas County,Nagyrakos,9938
Vas County,Szatta,9938
Vas County,Ispank,9941
Vas County,oriszentpeter,9941
Vas County,Szalafo,9942
Vas County,Kondorfa,9943
Vas County,Bajansenye,9944
Vas County,Kerkaskapolna,9944
Vas County,Kercaszomor,9945
Vas County,Magyarszombatfa,9946
Vas County,Velemer,9946
Vas County,Ratot,9951
Vas County,Gasztony,9952
Vas County,Nemesmedves,9953
Vas County,Vasszentmihaly,9953
Vas County,Ronok,9954
Vas County,Szentgotthard,9955
Vas County,Rabagyarmat,9961
Vas County,Csorotnek,9962
Vas County,Magyarlak,9962
Vas County,Szentgotthard,9970
Vas County,Szentgotthard,9981
Vas County,Apatistvanfalva,9982
Vas County,Ketvolgy,9982
Vas County,Orfalu,9982
Vas County,Alsoszolnok,9983
Vas County,Szakonyfalu,9983
Vas County,Felsoszolnok,9985
Veszprem,Varpalota,8100
Veszprem,Petfurdo,8105
Veszprem,Tes,8109
Veszprem,osi,8161
Veszprem,Kungos,8162
Veszprem,Csajag,8163
Veszprem,Balatonfokajar,8164
Veszprem,Balatonvilagos,8171
Veszprem,Balatonakarattya,8172
Veszprem,Balatonkenese,8174
Veszprem,Balatonfuzfo,8175
Veszprem,Berhida,8181
Veszprem,Berhida,8182
Veszprem,Papkeszi,8183
Veszprem,Balatonfuzfo,8184
Veszprem,osku,8191
Veszprem,Hajmasker,8192
Veszprem,Soly,8193
Veszprem,Vilonya,8194
Veszprem,Kiralyszentistvan,8195
Veszprem,Liter,8196
Veszprem,Veszprem,8200
Veszprem,Balatonalmadi,8220
Veszprem,Szentkiralyszabadja,8225
Veszprem,Alsoors,8226
Veszprem,Felsoors,8227
Veszprem,Lovas,8228
Veszprem,Csopak,8229
Veszprem,Paloznak,8229
Veszprem,Balatonfured,8230
Veszprem,Balatonszolos,8233
Veszprem,Tihany,8237
Veszprem,Aszofo,8241
Veszprem,Balatonudvari,8242
Veszprem,orvenyes,8242
Veszprem,Balatonakali,8243
Veszprem,Dorgicse,8244
Veszprem,Pecsely,8245
Veszprem,Vaszoly,8245
Veszprem,Totvazsony,8246
Veszprem,Hidegkut,8247
Veszprem,Nemesvamos,8248
Veszprem,Veszpremfajsz,8248
Veszprem,Zanka,8251
Veszprem,Balatonszepezd,8252
Veszprem,Revfulop,8253
Veszprem,Kekkut,8254
Veszprem,Kovagoors,8254
Veszprem,Balatonrendes,8255
Veszprem,Kovagoors,8255
Veszprem,abrahamhegy,8256
Veszprem,Salfold,8256
Veszprem,Badacsonytomaj,8257
Veszprem,Badacsonytomaj,8258
Veszprem,Badacsonytomaj,8261
Veszprem,Badacsonytordemic,8263
Veszprem,Szigliget,8264
Veszprem,Hegymagas,8265
Veszprem,Mencshely,8271
Veszprem,Balatoncsicso,8272
Veszprem,obudavar,8272
Veszprem,Szentantalfa,8272
Veszprem,Szentjakabfa,8272
Veszprem,Tagyon,8272
Veszprem,Monoszlo,8273
Veszprem,Koveskal,8274
Veszprem,Balatonhenye,8275
Veszprem,Szentbekkalla,8281
Veszprem,Mindszentkalla,8282
Veszprem,Kaptalantoti,8283
Veszprem,Kisapati,8284
Veszprem,Nemesgulacs,8284
Veszprem,Gyulakeszi,8286
Veszprem,Barnag,8291
Veszprem,Nagyvazsony,8291
Veszprem,Pula,8291
Veszprem,Vorosto,8291
Veszprem,ocs,8292
Veszprem,Kapolcs,8294
Veszprem,Vigantpetend,8294
Veszprem,Taliandorogd,8295
Veszprem,Hegyesd,8296
Veszprem,Monostorapati,8296
Veszprem,Tapolca,8297
Veszprem,Raposka,8300
Veszprem,Tapolca,8300
Veszprem,Saska,8308
Veszprem,Zalahalap,8308
Veszprem,Nemesvita,8311
Veszprem,Balatonederics,8312
Veszprem,Lesencefalu,8317
Veszprem,Lesencetomaj,8318
Veszprem,Lesenceistvand,8319
Veszprem,Uzsa,8321
Veszprem,Sumeg,8330
Veszprem,Hetyefo,8344
Veszprem,Zalaerdod,8344
Veszprem,Dabronc,8345
Veszprem,Goganfa,8346
Veszprem,Ukk,8347
Veszprem,Megyer,8348
Veszprem,Rigacs,8348
Veszprem,Zalameggyes,8348
Veszprem,Zalagyomoro,8349
Veszprem,Sumegpraga,8351
Veszprem,Bazsi,8352
Veszprem,Ajka,8400
Veszprem,urkut,8409
Veszprem,Veszprem,8411
Veszprem,Veszprem,8412
Veszprem,Epleny,8413
Veszprem,Olaszfalu,8414
Veszprem,Nagyesztergar,8415
Veszprem,Dudar,8416
Veszprem,Cseteny,8417
Veszprem,Bakonyoszlop,8418
Veszprem,Csesznek,8419
Veszprem,Zirc,8420
Veszprem,Bakonynana,8422
Veszprem,Szapar,8423
Veszprem,Jasd,8424
Veszprem,Lokut,8425
Veszprem,Penzesgyor,8426
Veszprem,Bakonybel,8427
Veszprem,Borzavar,8428
Veszprem,Porva,8429
Veszprem,Bakonyszentkiraly,8430
Veszprem,Bakonyszentlaszlo,8431
Veszprem,Fenyofo,8432
Veszprem,Bakonygyirot,8433
Veszprem,Romand,8434
Veszprem,Gic,8435
Veszprem,Veszpremvarsany,8438
Veszprem,Sikator,8439
Veszprem,Herend,8440
Veszprem,Marko,8441
Veszprem,Harskut,8442
Veszprem,Band,8443
Veszprem,Szentgal,8444
Veszprem,Csehbanya,8445
Veszprem,Varoslod,8445
Veszprem,Kislod,8446
Veszprem,Ajka,8447
Veszprem,Ajka,8448
Veszprem,Magyarpolany,8449
Veszprem,Ajka,8451
Veszprem,Halimba,8452
Veszprem,Szoc,8452
Veszprem,Nyirad,8454
Veszprem,Pusztamiske,8455
Veszprem,Noszlop,8456
Veszprem,Bakonypoloske,8457
Veszprem,Oroszi,8458
Veszprem,Devecser,8460
Veszprem,Kolontar,8468
Veszprem,Kamond,8469
Veszprem,Bodorfa,8471
Veszprem,Kaptalanfa,8471
Veszprem,Nemeshany,8471
Veszprem,Gyepukajan,8473
Veszprem,Csabrendek,8474
Veszprem,Hosztot,8475
Veszprem,Szentimrefalva,8475
Veszprem,Veszpremgalsa,8475
Veszprem,Zalaszegvar,8476
Veszprem,Apacatorna,8477
Veszprem,Kisberzseny,8477
Veszprem,Tuskevar,8477
Veszprem,Somlojeno,8478
Veszprem,Borszorcsok,8479
Veszprem,Somlovasarhely,8481
Veszprem,Doba,8482
Veszprem,Kisszolos,8483
Veszprem,Somloszolos,8483
Veszprem,Nagyalasony,8484
Veszprem,Somlovecse,8484
Veszprem,Vid,8484
Veszprem,Dabrony,8485
Veszprem,Karakoszorcsok,8491
Veszprem,Kerta,8492
Veszprem,Iszkaz,8493
Veszprem,Kiscsosz,8494
Veszprem,Csogle,8495
Veszprem,Kispirit,8496
Veszprem,Nagypirit,8496
Veszprem,Adorjanhaza,8497
Veszprem,Egeralja,8497
Veszprem,Papa,8500
Veszprem,Papa,8511
Veszprem,Nyarad,8512
Veszprem,Mihalyhaza,8513
Veszprem,Mezolak,8514
Veszprem,Bekas,8515
Veszprem,Kemeneshogyesz,8516
Veszprem,Magyargencs,8517
Veszprem,Kemenesszentpeter,8518
Veszprem,Nagyacsad,8521
Veszprem,Nemesgorzsony,8522
Veszprem,Egyhazaskeszo,8523
Veszprem,Varkeszo,8523
Veszprem,Marcalto,8531
Veszprem,Marcalto,8532
Veszprem,Malomsok,8533
Veszprem,Takacsi,8541
Veszprem,Vaszar,8542
Veszprem,Gecse,8543
Veszprem,Nagygyimot,8551
Veszprem,Vanyola,8552
Veszprem,Lovaszpatona,8553
Veszprem,Nagydem,8554
Veszprem,Bakonytamasi,8555
Veszprem,Papateszer,8556
Veszprem,Bakonysag,8557
Veszprem,Bakonyszentivan,8557
Veszprem,Csot,8558
Veszprem,Adasztevel,8561
Veszprem,Nagytevel,8562
Veszprem,Homokbodoge,8563
Veszprem,Ugod,8564
Veszprem,Beb,8565
Veszprem,Bakonykoppany,8571
Veszprem,Bakonyszucs,8572
Veszprem,Bakonyjako,8581
Veszprem,Nemetbanya,8581
Veszprem,Farkasgyepu,8582
Veszprem,Norap,8591
Veszprem,Papa,8591
Veszprem,Daka,8592
Veszprem,Papadereske,8593
Veszprem,Papasalamon,8594
Veszprem,Kup,8595
Veszprem,Papakovacsi,8596
Veszprem,Dobronte,8597
Veszprem,Ganna,8597
Veszprem,Papa,8598
Veszprem,Kulsovat,9532
Veszprem,Nemesszalok,9533
Veszprem,Marcalgergelyi,9534
Veszprem,Vinar,9534
Zala County,Balatongyorok,8313
Zala County,Vonyarcvashegy,8314
Zala County,Gyenesdias,8315
Zala County,Vallus,8316
Zala County,Varvolgy,8316
Zala County,Kisvasarhely,8341
Zala County,Mihalyfa,8341
Zala County,Szalapa,8341
Zala County,ohid,8342
Zala County,Vindornyalak,8353
Zala County,Zalaszanto,8353
Zala County,Karmacs,8354
Zala County,Vindornyafok,8354
Zala County,Zalakoveskut,8354
Zala County,Vindornyaszolos,8355
Zala County,Kisgorbo,8356
Zala County,Nagygorbo,8356
Zala County,Dobroce,8357
Zala County,Sumegcsehi,8357
Zala County,Keszthely,8360
Zala County,Nemesbuk,8371
Zala County,Cserszegtomaj,8372
Zala County,Rezi,8373
Zala County,Heviz,8380
Zala County,Sarmellek,8391
Zala County,Zalavar,8392
Zala County,Szentgyorgyvar,8393
Zala County,Alsopahok,8394
Zala County,Felsopahok,8395
Zala County,Bokahaza,8741
Zala County,Zalaapati,8741
Zala County,Esztergalyhorvati,8742
Zala County,Zalaszabar,8743
Zala County,Orosztony,8744
Zala County,Kerecseny,8745
Zala County,Nagyrada,8746
Zala County,Garabonc,8747
Zala County,Zalamerenye,8747
Zala County,Zalakaros,8749
Zala County,Zalakomar,8751
Zala County,Zalakomar,8752
Zala County,Balatonmagyarod,8753
Zala County,Galambok,8754
Zala County,Csapi,8756
Zala County,Kisrecse,8756
Zala County,Nagyrecse,8756
Zala County,Zalasarszeg,8756
Zala County,Pacsa,8761
Zala County,Zalaigrice,8761
Zala County,Getye,8762
Zala County,Szentpeterur,8762
Zala County,Dioskal,8764
Zala County,Zalaszentmarton,8764
Zala County,Egeraracsa,8765
Zala County,Alsorajk,8767
Zala County,Felsorajk,8767
Zala County,Potrete,8767
Zala County,Hahot,8771
Zala County,Borzonce,8772
Zala County,Zalaszentbalazs,8772
Zala County,Kacorlak,8773
Zala County,Poloskefo,8773
Zala County,Gelse,8774
Zala County,Gelsesziget,8774
Zala County,Kiliman,8774
Zala County,Bocska,8776
Zala County,Magyarszentmiklos,8776
Zala County,Magyarszerdahely,8776
Zala County,Fuzvolgy,8777
Zala County,Homokkomarom,8777
Zala County,Hosszuvolgy,8777
Zala County,ujudvar,8778
Zala County,Ligetfalva,8782
Zala County,Tilaj,8782
Zala County,Zalacsany,8782
Zala County,Kehidakustany,8784
Zala County,Kallosd,8785
Zala County,Zalaszentgrot,8785
Zala County,Senye,8788
Zala County,Zalaszentlaszlo,8788
Zala County,Zalaszentgrot,8789
Zala County,Zalaszentgrot,8790
Zala County,Zalaveg,8792
Zala County,Tekenye,8793
Zala County,Zalaszentgrot,8795
Zala County,Turje,8796
Zala County,Batyk,8797
Zala County,Zalaber,8798
Zala County,Dotk,8799
Zala County,Pakod,8799
Zala County,Nagykanizsa,8800
Zala County,Nagykanizsa,8808
Zala County,Nagykanizsa,8809
Zala County,Nagybakonak,8821
Zala County,Zalaujlak,8822
Zala County,Sand,8824
Zala County,Mihald,8825
Zala County,Pat,8825
Zala County,Zalaszentjakab,8827
Zala County,Nagykanizsa,8831
Zala County,Liszo,8832
Zala County,Murakeresztur,8834
Zala County,Fityehaz,8835
Zala County,Belezna,8855
Zala County,Surd,8856
Zala County,Nemespatro,8857
Zala County,Szepetnek,8861
Zala County,Semjenhaza,8862
Zala County,Molnari,8863
Zala County,Totszerdahely,8864
Zala County,Totszentmarton,8865
Zala County,Becsehely,8866
Zala County,Petrivente,8866
Zala County,Kistolmacs,8868
Zala County,Letenye,8868
Zala County,Muraratka,8868
Zala County,Zajk,8868
Zala County,Muraszemenye,8872
Zala County,Szentmargitfalva,8872
Zala County,Csornyefold,8873
Zala County,Dobri,8874
Zala County,Kerkaszentkiraly,8874
Zala County,Tormafolde,8876
Zala County,Tornyiszentmiklos,8877
Zala County,Lovaszi,8878
Zala County,Kerkateskand,8879
Zala County,Szecsisziget,8879
Zala County,Sormas,8881
Zala County,Eszteregnye,8882
Zala County,Rigyac,8883
Zala County,Borsfa,8885
Zala County,Valkonya,8885
Zala County,Oltarc,8886
Zala County,Bazakerettye,8887
Zala County,Lasztonya,8887
Zala County,Kiscsehi,8888
Zala County,Lispeszentadorjan,8888
Zala County,Maroc,8888
Zala County,Banokszentgyorgy,8891
Zala County,Varfolde,8891
Zala County,Bucsuta,8893
Zala County,Szentliszlo,8893
Zala County,Pusztamagyarod,8895
Zala County,Pusztaszentlaszlo,8896
Zala County,Sojtor,8897
Zala County,Zalaegerszeg,8900
Zala County,Zalaegerszeg,8904
Zala County,Kiskutas,8911
Zala County,Nagykutas,8911
Zala County,Kispali,8912
Zala County,Nagypali,8912
Zala County,Egervar,8913
Zala County,Gosfa,8913
Zala County,Lakhegy,8913
Zala County,Vasboldogasszony,8914
Zala County,Nemesrado,8915
Zala County,Milejszeg,8917
Zala County,Csonkahegyhat,8918
Zala County,Nemetfalu,8918
Zala County,Kustanszeg,8919
Zala County,Alibanfa,8921
Zala County,Pethohenye,8921
Zala County,Zalaszentivan,8921
Zala County,Zalaszentlorinc,8921
Zala County,Nemesapati,8923
Zala County,Alsonemesapati,8924
Zala County,Bucsuszentlaszlo,8925
Zala County,Nemessandorhaza,8925
Zala County,Nemesszentandras,8925
Zala County,Kisbucsa,8926
Zala County,Nemeshetes,8928
Zala County,Poloske,8929
Zala County,Kemendollar,8931
Zala County,Vockond,8931
Zala County,Gyurus,8932
Zala County,Pokaszepetk,8932
Zala County,Zalaistvand,8932
Zala County,Bezered,8934
Zala County,Almashaza,8935
Zala County,Misefa,8935
Zala County,Nagykapornak,8935
Zala County,Orbanyosfa,8935
Zala County,Padar,8935
Zala County,Zalaszentmihaly,8936
Zala County,Bocfolde,8943
Zala County,Csatar,8943
Zala County,Sarhida,8944
Zala County,Bak,8945
Zala County,Baktuttos,8946
Zala County,Pusztaederics,8946
Zala County,Tofej,8946
Zala County,Szentkozmadombja,8947
Zala County,Zalatarnok,8947
Zala County,Barlahida,8948
Zala County,Nova,8948
Zala County,Mikekaracsonyfa,8949
Zala County,Csertalakos,8951
Zala County,Gutorfolde,8951
Zala County,Szentpeterfolde,8953
Zala County,Ortahaza,8954
Zala County,Kanyavar,8956
Zala County,Paka,8956
Zala County,Pordefolde,8956
Zala County,Csomoder,8957
Zala County,Hernyek,8957
Zala County,Kissziget,8957
Zala County,Zebecke,8957
Zala County,Iklodbordoce,8958
Zala County,Gosztola,8960
Zala County,Lenti,8960
Zala County,Lenti,8966
Zala County,Bodehaza,8969
Zala County,Gaborjanhaza,8969
Zala County,Szijartohaza,8969
Zala County,Zalaszombatfa,8969
Zala County,Kerkabarabas,8971
Zala County,Zalabaksa,8971
Zala County,Alsoszenterzsebet,8973
Zala County,Csesztreg,8973
Zala County,Felsoszenterzsebet,8973
Zala County,Kerkafalva,8973
Zala County,Kerkakutas,8973
Zala County,Magyarfold,8973
Zala County,Ramocsa,8973
Zala County,Szentgyorgyvolgy,8975
Zala County,Marokfold,8976
Zala County,Nemesnep,8976
Zala County,Baglad,8977
Zala County,Lendvajakabfa,8977
Zala County,Resznek,8977
Zala County,Belsosard,8978
Zala County,Kulsosard,8978
Zala County,Lendvadedes,8978
Zala County,Redics,8978
Zala County,Gellenhaza,8981
Zala County,Lickovadamos,8981
Zala County,Babosdobrete,8983
Zala County,Nagylengyel,8983
Zala County,Ormandlak,8983
Zala County,Gombosszeg,8984
Zala County,Iborfia,8984
Zala County,Petrikeresztur,8984
Zala County,Becsvolgye,8985
Zala County,Porszombat,8986
Zala County,Pusztaapati,8986
Zala County,Szilvagy,8986
Zala County,Kalocfa,8988
Zala County,Kozmadombja,8988
Zala County,Dobronhegy,8989
Zala County,Palfiszeg,8990
Zala County,Bode,8991
Zala County,Hotto,8991
Zala County,Teskand,8991
Zala County,Bagod,8992
Zala County,Boncodfolde,8992
Zala County,Hagyarosborond,8992
Zala County,Zalaboldogfa,8992
Zala County,Kavas,8994
Zala County,Zalaszentgyorgy,8994
Zala County,Kemenfa,8995
Zala County,Salomvar,8995
Zala County,Zalacseb,8996
Zala County,Zalahashagy,8997
Zala County,Ozmanbuk,8998
Zala County,Vaspor,8998
Zala County,Csode,8999
Zala County,Zalalovo,8999
