state,city,zipcode
Adazu,ILkene,LV-2103
Adazu,Kadaga,LV-2103
Adazu,ani,LV-2136
Adazu,ani,LV-2137
Adazu,Garkalne,LV-2137
Adazu,adazi,LV-2164
Adazu,Alderi,LV-2164
Adazu,Atari,LV-2164
Adazu,Baltezers,LV-2164
Adazu,Birznieki,LV-2164
Adazu,Divezeri,LV-2164
Adazu,Eimuri,LV-2164
Adazu,Garkalne,LV-2164
Adazu,Kadaga,LV-2164
Adazu,Staprini,LV-2164
Aglonas,Aglona,LV-5304
Aglonas,Aglonas Madelani,LV-5304
Aglonas,Akatnieki,LV-5304
Aglonas,ALhovka,LV-5304
Aglonas,Ancverini 1,LV-5304
Aglonas,Ancverini 2,LV-5304
Aglonas,Atskiras Madelani,LV-5304
Aglonas,Beki,LV-5304
Aglonas,Berzgale,LV-5304
Aglonas,Besoni,LV-5304
Aglonas,Botori,LV-5304
Aglonas,Bruveri,LV-5304
Aglonas,Cecerski,LV-5304
Aglonas,CegeLna,LV-5304
Aglonas,cuhnani,LV-5304
Aglonas,Dimperi,LV-5304
Aglonas,Dudiski,LV-5304
Aglonas,Dzervanki,LV-5304
Aglonas,Ezera Ukini,LV-5304
Aglonas,Fintmuiza,LV-5304
Aglonas,Gorodoka,LV-5304
Aglonas,GuLbinka,LV-5304
Aglonas,Guteni,LV-5304
Aglonas,Janova,LV-5304
Aglonas,Jaudzemi,LV-5304
Aglonas,Jaunaglona,LV-5304
Aglonas,JaunsekLi,LV-5304
Aglonas,Jonani,LV-5304
Aglonas,Kapini,LV-5304
Aglonas,Kapinu RuskuLi,LV-5304
Aglonas,KavaLi,LV-5304
Aglonas,Kazimirovka,LV-5304
Aglonas,Kodori,LV-5304
Aglonas,Krivoseji,LV-5304
Aglonas,Kukari,LV-5304
Aglonas,Kundziniski,LV-5304
Aglonas,Leitani,LV-5304
Aglonas,Lielie Bernani,LV-5304
Aglonas,Lielie DzerkaLi,LV-5304
Aglonas,Livdani,LV-5304
Aglonas,Livdaniski,LV-5304
Aglonas,Lopoti,LV-5304
Aglonas,Luckini,LV-5304
Aglonas,Marjanova,LV-5304
Aglonas,Matisani,LV-5304
Aglonas,Mazie Bernani,LV-5304
Aglonas,Mazie DzerkaLi,LV-5304
Aglonas,MeiruLi,LV-5304
Aglonas,Meza Dauksti,LV-5304
Aglonas,Meza Ukini,LV-5304
Aglonas,Misani,LV-5304
Aglonas,Novinki,LV-5304
Aglonas,Ostrova,LV-5304
Aglonas,Otoriski,LV-5304
Aglonas,Peski,LV-5304
Aglonas,Puzaniski,LV-5304
Aglonas,Rajecki,LV-5304
Aglonas,Repsi,LV-5304
Aglonas,Rivari,LV-5304
Aglonas,Rivariski,LV-5304
Aglonas,Rotka,LV-5304
Aglonas,RuskuLi,LV-5304
Aglonas,Ruskuliski,LV-5304
Aglonas,RutuLi,LV-5304
Aglonas,Rutuliski,LV-5304
Aglonas,Salenieki,LV-5304
Aglonas,SekLa Dauksti,LV-5304
Aglonas,SekLi,LV-5304
Aglonas,Sgajevski,LV-5304
Aglonas,Sienapurvs,LV-5304
Aglonas,Sila Dauksti,LV-5304
Aglonas,Skudru Grebezi,LV-5304
Aglonas,Skujas,LV-5304
Aglonas,Smani,LV-5304
Aglonas,Spiki,LV-5304
Aglonas,Starodvorje,LV-5304
Aglonas,Staskuni,LV-5304
Aglonas,sumski,LV-5304
Aglonas,Terehova,LV-5304
Aglonas,TuLi,LV-5304
Aglonas,Valaini,LV-5304
Aglonas,VoguLi,LV-5304
Aglonas,Zaikovscina,LV-5304
Aglonas,Zlotniski,LV-5304
Aglonas,Zukuli,LV-5304
Aglonas,Aksenova,LV-5653
Aglonas,Ancani,LV-5653
Aglonas,Barsevski,LV-5653
Aglonas,Boreksti,LV-5653
Aglonas,Borovije,LV-5653
Aglonas,Briveri,LV-5653
Aglonas,CesLava,LV-5653
Aglonas,FoLvaroka,LV-5653
Aglonas,ILjuhina,LV-5653
Aglonas,Jaudzemi,LV-5653
Aglonas,Kalna Kudini,LV-5653
Aglonas,Karaseva,LV-5653
Aglonas,Kastjuki,LV-5653
Aglonas,Kazuliski,LV-5653
Aglonas,Klovini,LV-5653
Aglonas,KrekeLi,LV-5653
Aglonas,Krivini,LV-5653
Aglonas,Krizovka,LV-5653
Aglonas,Lejas Kudini,LV-5653
Aglonas,Malajoniki,LV-5653
Aglonas,Marhilevici,LV-5653
Aglonas,Maslabojeva,LV-5653
Aglonas,Melderi,LV-5653
Aglonas,Mihailina,LV-5653
Aglonas,Nikucki,LV-5653
Aglonas,Peipini,LV-5653
Aglonas,Pildigi,LV-5653
Aglonas,Podskoceva,LV-5653
Aglonas,Prusaki,LV-5653
Aglonas,Putani,LV-5653
Aglonas,Rumaki,LV-5653
Aglonas,sahmani,LV-5653
Aglonas,Sampani,LV-5653
Aglonas,Sarguni,LV-5653
Aglonas,skeltova,LV-5653
Aglonas,skerbiski,LV-5653
Aglonas,Slostovka,LV-5653
Aglonas,Staskevici,LV-5653
Aglonas,Suhailina,LV-5653
Aglonas,Suveizdi,LV-5653
Aglonas,Upes Kudini,LV-5653
Aglonas,Zabalotki,LV-5653
Aglonas,Zukuli,LV-5653
Aglonas,Akmenica,LV-5655
Aglonas,Apsenieki,LV-5655
Aglonas,Belogrudova,LV-5655
Aglonas,Grabavscizna,LV-5655
Aglonas,Graveri,LV-5655
Aglonas,KLisova,LV-5655
Aglonas,KovaLova,LV-5655
Aglonas,Kropiski,LV-5655
Aglonas,Lipski,LV-5655
Aglonas,Luni,LV-5655
Aglonas,MateLi,LV-5655
Aglonas,Melenki,LV-5655
Aglonas,Mickevici,LV-5655
Aglonas,Ostrovs,LV-5655
Aglonas,Pizani,LV-5655
Aglonas,RageLi,LV-5655
Aglonas,Raginski,LV-5655
Aglonas,Sakova,LV-5655
Aglonas,Savicki,LV-5655
Aglonas,Sloboda,LV-5655
Aglonas,SpaLbi,LV-5655
Aglonas,Timofejevka,LV-5655
Aglonas,Trupi,LV-5655
Aglonas,Voveri,LV-5655
Aglonas,Barovka,LV-5685
Aglonas,Blazevici,LV-5685
Aglonas,Deneva,LV-5685
Aglonas,DubuLi,LV-5685
Aglonas,Dunski,LV-5685
Aglonas,FoLvarka,LV-5685
Aglonas,Geranimova,LV-5685
Aglonas,Guta,LV-5685
Aglonas,Hmilovka,LV-5685
Aglonas,Jegorova,LV-5685
Aglonas,Kalna Butkani,LV-5685
Aglonas,Karelova,LV-5685
Aglonas,KastuLina,LV-5685
Aglonas,KauskaLi,LV-5685
Aglonas,Konovalova,LV-5685
Aglonas,Koskina,LV-5685
Aglonas,Kruciniski,LV-5685
Aglonas,Leitaniski,LV-5685
Aglonas,Lejas Butkani,LV-5685
Aglonas,Leonovici,LV-5685
Aglonas,Lesinski,LV-5685
Aglonas,Makusi,LV-5685
Aglonas,Musa,LV-5685
Aglonas,nikitiski,LV-5685
Aglonas,Novinki,LV-5685
Aglonas,Novosjolki,LV-5685
Aglonas,Ogurecka,LV-5685
Aglonas,Priezmale,LV-5685
Aglonas,Pustoski,LV-5685
Aglonas,Reiniki,LV-5685
Aglonas,ReLenki,LV-5685
Aglonas,Ribacki,LV-5685
Aglonas,Rovini,LV-5685
Aglonas,Siliski,LV-5685
Aglonas,Sirotka,LV-5685
Aglonas,Sopuski,LV-5685
Aglonas,Stanoviski,LV-5685
Aglonas,Ubogova,LV-5685
Aglonas,Vortniki,LV-5685
Aglonas,Zahariski,LV-5685
Aglonas,Zilais Akmens,LV-5685
Aglonas,Jaunokra,LV-5687
Aglonas,Kumalani,LV-5687
Aglonas,Ladiskina,LV-5687
Aglonas,Muranciki,LV-5687
Aglonas,Protiriha,LV-5687
Aglonas,Ratniki,LV-5687
Aizkraukles,Aizkraukle,LV-5101
Aizkraukles,Aizkraukles stacija,LV-5101
Aizputes,Kalvenes,LV-3442
Aizputes,Kalvene,LV-3443
Aizputes,Kalvenes stacija,LV-3443
Aizputes,Cirava,LV-3453
Aizputes,Dzervenieki,LV-3453
Aizputes,Apriki,LV-3455
Aizputes,Bojas,LV-3456
Aizputes,Kudra,LV-3456
Aizputes,Padure,LV-3456
Aizputes,Rokaizi,LV-3456
Aizputes,Rokasbirze,LV-3456
Aizputes,stakeldanga,LV-3456
Aizputes,Tebras,LV-3456
Aizputes,Kazdanga,LV-3457
Aknistes,Aknistes,LV-5208
Aknistes,Ancene,LV-5210
Aknistes,Asare,LV-5210
Aknistes,Garsene,LV-5218
Aknistes,Kraujas,LV-5218
Alojas,Staiceles,LV-4043
Alojas,Ozolmuiza,LV-4063
Alojas,Puikule,LV-4063
Alojas,Puikules stacija,LV-4063
Alojas,Ungurpils,LV-4064
Alojas,Braslava,LV-4068
Alojas,Vilzeni,LV-4068
Alsungas,Almale,LV-3306
Alsungas,Alsunga,LV-3306
Aluksnes,Aizupites,LV-4301
Aluksnes,Marinkalns,LV-4332
Aluksnes,Ziemeri,LV-4332
Aluksnes,Alsviki,LV-4333
Aluksnes,Pullans,LV-4333
Aluksnes,Strautini,LV-4333
Aluksnes,Korneti,LV-4335
Aluksnes,Jaunlaicene,LV-4336
Aluksnes,Jaunanna,LV-4340
Aluksnes,Anna,LV-4341
Aluksnes,Kalncempji,LV-4342
Aluksnes,Jaunzemi,LV-4344
Aluksnes,Zeltini,LV-4345
Aluksnes,Beja,LV-4350
Aluksnes,Kolbergis,LV-4350
Aluksnes,Markalne,LV-4351
Aluksnes,Pededze,LV-4352
Aluksnes,Liepna,LV-4354
Aluksnes,Malupe,LV-4358
Aluksnes,Sofikalns,LV-4358
Aluksnes,Brenci,LV-4359
Amatas,Amata,LV-4101
Amatas,Drabesi,LV-4101
Amatas,Livi,LV-4101
Amatas,Meijermuiza,LV-4101
Amatas,Nitaure,LV-4112
Amatas,Annas,LV-4113
Amatas,Berzs,LV-4113
Amatas,Kligene,LV-4113
Amatas,Zaube,LV-4113
Amatas,Bille,LV-4139
Amatas,Ieriki,LV-4139
Amatas,KarLi,LV-4139
Amatas,Spare,LV-4139
Amatas,giksi,LV-4141
Amatas,Sermuksi,LV-4143
Amatas,Skujene,LV-4143
Apes,Apes,LV-4337
Apes,Gaujiena,LV-4339
Apes,Trapene,LV-4348
Apes,Vidaga,LV-4355
Apes,Viresi,LV-4355
Auces,Vecauce,LV-3708
Auces,Vitini,LV-3708
Auces,Bene,LV-3711
Auces,VecmikeLi,LV-3711
Auces,Snikere,LV-3714
Auces,ile,LV-3716
Auces,kevele,LV-3721
Auces,kiegeLceplis,LV-3723
Auces,Lielauce,LV-3723
Auces,Razotaji,LV-3723
Auces,Ukri,LV-3729
Babites,Kudra,LV-2011
Babites,Pavasari,LV-2011
Babites,Babite,LV-2101
Babites,Mezares,LV-2101
Babites,Priezciems,LV-2101
Babites,Sebruciems,LV-2101
Babites,Spilve,LV-2101
Babites,Gatciems,LV-2105
Babites,Pernciems,LV-2105
Babites,Silmalas,LV-2105
Babites,Sipolciems,LV-2105
Babites,Spunciems,LV-2105
Babites,Straupciems,LV-2105
Babites,VarkaLi,LV-2105
Babites,Brivkalni,LV-2107
Babites,Cielavas,LV-2107
Babites,Dzerves,LV-2107
Babites,Dzilnuciems,LV-2107
Babites,EgLuciems,LV-2107
Babites,Kagi,LV-2107
Babites,Klives,LV-2107
Babites,Lapsas,LV-2107
Babites,Liberi,LV-2107
Babites,Pinki,LV-2107
Babites,Pluguciems,LV-2107
Babites,Priezciems,LV-2107
Babites,Sebruciems,LV-2107
Babites,Skarduciems,LV-2107
Babites,Trenci,LV-2107
Babites,VikuLi,LV-2107
Baldones,Sunupes,LV-2125
Baldones,Varpas,LV-2125
Baltinavas,Apsova,LV-4594
Baltinavas,Bahmati,LV-4594
Baltinavas,Baltinava,LV-4594
Baltinavas,Barzulova,LV-4594
Baltinavas,Blauzgova,LV-4594
Baltinavas,Boncani,LV-4594
Baltinavas,Brieksine,LV-4594
Baltinavas,Buksti,LV-4594
Baltinavas,cudarine,LV-4594
Baltinavas,Danski,LV-4594
Baltinavas,Demerova,LV-4594
Baltinavas,Dokti,LV-4594
Baltinavas,Dupurova,LV-4594
Baltinavas,Durspride,LV-4594
Baltinavas,Dziervine,LV-4594
Baltinavas,Ezerova,LV-4594
Baltinavas,Gnilki,LV-4594
Baltinavas,Grikovka,LV-4594
Baltinavas,Jorzova,LV-4594
Baltinavas,Karpova,LV-4594
Baltinavas,Kasi,LV-4594
Baltinavas,Keisi,LV-4594
Baltinavas,kevesdruva,LV-4594
Baltinavas,KLangova,LV-4594
Baltinavas,Kolnumezi,LV-4594
Baltinavas,Kotlova,LV-4594
Baltinavas,Kozurki,LV-4594
Baltinavas,KraukLova,LV-4594
Baltinavas,Kuznecova,LV-4594
Baltinavas,Lauruti,LV-4594
Baltinavas,Leidumi,LV-4594
Baltinavas,Lemesova,LV-4594
Baltinavas,Levaskova,LV-4594
Baltinavas,Macusola,LV-4594
Baltinavas,MaiLupe,LV-4594
Baltinavas,Merkuzine,LV-4594
Baltinavas,Mezupe,LV-4594
Baltinavas,Misani,LV-4594
Baltinavas,Morkova,LV-4594
Baltinavas,Motrine,LV-4594
Baltinavas,ObeLova,LV-4594
Baltinavas,Odumova,LV-4594
Baltinavas,Pazlauga,LV-4594
Baltinavas,Peisova,LV-4594
Baltinavas,Pleitova,LV-4594
Baltinavas,Pliesova,LV-4594
Baltinavas,PuncuLova,LV-4594
Baltinavas,Punduri,LV-4594
Baltinavas,Putrova,LV-4594
Baltinavas,Risova,LV-4594
Baltinavas,Rudukova,LV-4594
Baltinavas,Safronovka,LV-4594
Baltinavas,Sarkani,LV-4594
Baltinavas,SilagaiLi,LV-4594
Baltinavas,Sloboda,LV-4594
Baltinavas,Slostova,LV-4594
Baltinavas,Surikova,LV-4594
Baltinavas,Svatune,LV-4594
Baltinavas,SviLpova,LV-4594
Baltinavas,Telezniki,LV-4594
Baltinavas,Timsani,LV-4594
Baltinavas,Tutinova,LV-4594
Baltinavas,Upini,LV-4594
Baltinavas,Upmale,LV-4594
Baltinavas,uzulova,LV-4594
Baltinavas,Vasiliski,LV-4594
Baltinavas,Viborgi,LV-4594
Baltinavas,ViLumi,LV-4594
Baltinavas,zeikari,LV-4594
Baltinavas,Zubki,LV-4594
Balvu,Centramuiza,LV-4501
Balvu,Deksni,LV-4501
Balvu,DubLava,LV-4501
Balvu,Guznava,LV-4501
Balvu,Krasnogorka,LV-4501
Balvu,Lazdukalns,LV-4501
Balvu,Lemesava,LV-4501
Balvu,Pelnupe,LV-4501
Balvu,Perkoni,LV-4501
Balvu,RezgaLi,LV-4501
Balvu,Salmani,LV-4501
Balvu,Silakrogs,LV-4501
Balvu,Stekintava,LV-4501
Balvu,Stepjugabali,LV-4501
Balvu,sucene,LV-4501
Balvu,Tutinava,LV-4501
Balvu,Vanki,LV-4501
Balvu,Vejava,LV-4501
Balvu,VerpuLeva,LV-4501
Balvu,Zaci,LV-4501
Balvu,zaugupe,LV-4501
Balvu,azudambis,LV-4561
Balvu,Dobenieki,LV-4561
Balvu,Durupe,LV-4561
Balvu,Dzenulauza,LV-4561
Balvu,Karklinieki,LV-4561
Balvu,Keni,LV-4561
Balvu,Lacugabali,LV-4561
Balvu,Lacupe,LV-4561
Balvu,Meki,LV-4561
Balvu,Naudaskalns,LV-4561
Balvu,Ozolsala,LV-4561
Balvu,Pilskalns,LV-4561
Balvu,Plitinava,LV-4561
Balvu,Ravusala,LV-4561
Balvu,Reci,LV-4561
Balvu,Silamala,LV-4561
Balvu,Auska,LV-4562
Balvu,Doburucis,LV-4562
Balvu,Gruznis,LV-4562
Balvu,Sudarbe,LV-4562
Balvu,Vilkarucis,LV-4562
Balvu,Vuskusala,LV-4562
Balvu,Balvu stacija,LV-4566
Balvu,Briedisi,LV-4566
Balvu,Celmene,LV-4566
Balvu,Celmenieki,LV-4566
Balvu,Druvenieki,LV-4566
Balvu,Dvorupe,LV-4566
Balvu,Esmeraldova,LV-4566
Balvu,Ezusala,LV-4566
Balvu,Fabrika,LV-4566
Balvu,Gobusala,LV-4566
Balvu,Grivgals,LV-4566
Balvu,Janusala,LV-4566
Balvu,Kozlova,LV-4566
Balvu,Kurna,LV-4566
Balvu,Lasinnaja,LV-4566
Balvu,Lidumnieki,LV-4566
Balvu,Liepava,LV-4566
Balvu,Meirani,LV-4566
Balvu,Nikolajeva,LV-4566
Balvu,OLgina,LV-4566
Balvu,Paulani,LV-4566
Balvu,Pordari,LV-4566
Balvu,Robeznieki,LV-4566
Balvu,Silaciems,LV-4566
Balvu,Sita,LV-4566
Balvu,Stirnusala,LV-4566
Balvu,TireLi,LV-4566
Balvu,Tropini,LV-4566
Balvu,VasiLjeva,LV-4566
Balvu,Vladimirova,LV-4566
Balvu,Augstasils,LV-4567
Balvu,Bilga,LV-4567
Balvu,Brieksine,LV-4567
Balvu,Briezusala,LV-4567
Balvu,Cerpene,LV-4567
Balvu,cilipine,LV-4567
Balvu,DubLeva,LV-4567
Balvu,Jaunzemes,LV-4567
Balvu,Kroni,LV-4567
Balvu,Krucinova,LV-4567
Balvu,Lazduleja,LV-4567
Balvu,Ploskene,LV-4567
Balvu,PusLeva,LV-4567
Balvu,Puzulova,LV-4567
Balvu,Sepovka,LV-4567
Balvu,Vazovka,LV-4567
Balvu,Gailisi,LV-4570
Balvu,Dambisi,LV-4571
Balvu,Krutova,LV-4571
Balvu,Lutenani,LV-4571
Balvu,Ranguci,LV-4571
Balvu,Savani,LV-4571
Balvu,Upenieki,LV-4571
Balvu,Vectilza,LV-4571
Balvu,Akmenruci,LV-4572
Balvu,Baltini,LV-4572
Balvu,Barbani,LV-4572
Balvu,Degumnieki,LV-4572
Balvu,Dievzeikari,LV-4572
Balvu,Eglisi,LV-4572
Balvu,Jaujas,LV-4572
Balvu,Kadiseva,LV-4572
Balvu,Kapessils,LV-4572
Balvu,Keibinieki,LV-4572
Balvu,KLavusala,LV-4572
Balvu,Kugenieki,LV-4572
Balvu,Menesi,LV-4572
Balvu,Mezarijas,LV-4572
Balvu,Petrovka,LV-4572
Balvu,Raicene,LV-4572
Balvu,Robeznieki,LV-4572
Balvu,RoditeLi,LV-4572
Balvu,Rutkova,LV-4572
Balvu,Silini,LV-4572
Balvu,Siltene,LV-4572
Balvu,Spirgi,LV-4572
Balvu,Stangas,LV-4572
Balvu,Tilza,LV-4572
Balvu,Toki,LV-4572
Balvu,udrene,LV-4572
Balvu,Vindava,LV-4572
Balvu,Zvaigznes,LV-4572
Balvu,Mezupe,LV-4573
Balvu,Purvinas,LV-4573
Balvu,Vitoli,LV-4573
Balvu,Zeltupe,LV-4573
Balvu,Krampinas,LV-4574
Balvu,Krisjani,LV-4574
Balvu,Naglisi,LV-4574
Balvu,Putrani,LV-4574
Balvu,Runcene,LV-4574
Balvu,Vaksenieki,LV-4574
Balvu,zogi,LV-4574
Balvu,Apsenieki,LV-4576
Balvu,Augstari,LV-4576
Balvu,BeLauski,LV-4576
Balvu,Berzi,LV-4576
Balvu,Berziesi,LV-4576
Balvu,Berzpils,LV-4576
Balvu,Bonifacova,LV-4576
Balvu,Domopole,LV-4576
Balvu,Gabrani,LV-4576
Balvu,Golvari,LV-4576
Balvu,Gribkova,LV-4576
Balvu,Jabalova,LV-4576
Balvu,Javenieki,LV-4576
Balvu,Kazoki,LV-4576
Balvu,KiLauka,LV-4576
Balvu,KLavini,LV-4576
Balvu,Kononi,LV-4576
Balvu,Lacaunieki,LV-4576
Balvu,Lauskinieki,LV-4576
Balvu,Lidumnieki,LV-4576
Balvu,Masalnieki,LV-4576
Balvu,Muramuiza,LV-4576
Balvu,Osudari,LV-4576
Balvu,Palini,LV-4576
Balvu,Pelerijas,LV-4576
Balvu,Pugaci,LV-4576
Balvu,Saksmale,LV-4576
Balvu,Silamuiza,LV-4576
Balvu,Sola,LV-4576
Balvu,Somi,LV-4576
Balvu,Sprodzenieki,LV-4576
Balvu,Tabakova,LV-4576
Balvu,Vecpils,LV-4576
Balvu,ViskuLi,LV-4576
Balvu,Zosuli,LV-4576
Balvu,Zvonovka,LV-4576
Balvu,Aizezere,LV-4580
Balvu,Annasbirzs,LV-4580
Balvu,Apsukalns,LV-4580
Balvu,Augstabirzs,LV-4580
Balvu,Bereznaks,LV-4580
Balvu,cagas,LV-4580
Balvu,Dampadruva,LV-4580
Balvu,Derdzini,LV-4580
Balvu,EgLukalns,LV-4580
Balvu,Georgijeva,LV-4580
Balvu,Judini,LV-4580
Balvu,Kacupe,LV-4580
Balvu,Kuprava,LV-4580
Balvu,Lauzas,LV-4580
Balvu,Mezarija,LV-4580
Balvu,Miezaji,LV-4580
Balvu,Oknupe,LV-4580
Balvu,Pakalniesi,LV-4580
Balvu,PokuLeva,LV-4580
Balvu,Rimsi,LV-4580
Balvu,Smiltene,LV-4580
Balvu,Sprogas,LV-4580
Balvu,Valentinova,LV-4580
Balvu,Viksna,LV-4580
Balvu,ZaLmeznieki,LV-4580
Balvu,Asusils,LV-4582
Balvu,Dubudeksnis,LV-4582
Balvu,Kuprava,LV-4582
Balvu,Maksinava,LV-4582
Balvu,Maksinava Strauti,LV-4582
Balvu,Repseva,LV-4582
Balvu,Strauti,LV-4582
Balvu,Babani,LV-4590
Balvu,Berzkalne,LV-4590
Balvu,Bruklaji,LV-4590
Balvu,Karnite,LV-4590
Balvu,Krievkalns,LV-4590
Balvu,Lielmeznieki,LV-4590
Balvu,Ploskena,LV-4590
Balvu,Taureskalns,LV-4590
Balvu,Uzgova,LV-4590
Balvu,Aizpurve,LV-4591
Balvu,Auzaji,LV-4591
Balvu,Briezeva,LV-4591
Balvu,Burceva,LV-4591
Balvu,Elksneva,LV-4591
Balvu,Mezarija,LV-4591
Balvu,Mozinki,LV-4591
Balvu,Murava,LV-4591
Balvu,Rubeni,LV-4591
Balvu,Vistusala,LV-4591
Balvu,Aizupe,LV-4592
Balvu,Akmensala,LV-4592
Balvu,Aviksi,LV-4592
Balvu,Brinkene,LV-4592
Balvu,Burtnieki,LV-4592
Balvu,Ciganova,LV-4592
Balvu,Dmitrijevka,LV-4592
Balvu,DukuLeva,LV-4592
Balvu,EgLeva,LV-4592
Balvu,EgLuciems,LV-4592
Balvu,Griva,LV-4592
Balvu,KiLi,LV-4592
Balvu,Lozdova,LV-4592
Balvu,Lukjanovka,LV-4592
Balvu,Malnusala,LV-4592
Balvu,Medvezevka,LV-4592
Balvu,Mezalauki,LV-4592
Balvu,Mezareja,LV-4592
Balvu,Orlova,LV-4592
Balvu,Osinovka,LV-4592
Balvu,Ozolova,LV-4592
Balvu,Ozolziles,LV-4592
Balvu,Petrovka,LV-4592
Balvu,Plesova,LV-4592
Balvu,Priedes,LV-4592
Balvu,Purlova,LV-4592
Balvu,sceglova,LV-4592
Balvu,Spickova,LV-4592
Balvu,Stigas,LV-4592
Balvu,sumkova,LV-4592
Balvu,Zaikova,LV-4592
Balvu,Zirgadobe,LV-4592
Balvu,Zobukalns,LV-4592
Balvu,Abrinas,LV-4595
Balvu,Ausala,LV-4595
Balvu,Begunova,LV-4595
Balvu,Belini,LV-4595
Balvu,Bokova,LV-4595
Balvu,Briezuciems,LV-4595
Balvu,Dambergi,LV-4595
Balvu,Denicova,LV-4595
Balvu,DukuLeva,LV-4595
Balvu,GrusLeva,LV-4595
Balvu,Kvasneva,LV-4595
Balvu,Ostrolidumi,LV-4595
Balvu,stikunova,LV-4595
Balvu,Stouberova,LV-4595
Balvu,Torkova,LV-4595
Bauskas,Berzkalni,LV-3901
Bauskas,Elektriki,LV-3901
Bauskas,Guntas,LV-3901
Bauskas,Janeikas,LV-3901
Bauskas,Jauncode,LV-3901
Bauskas,Jumprava,LV-3901
Bauskas,Musa,LV-3901
Bauskas,Ritausmas,LV-3901
Bauskas,Brunava,LV-3907
Bauskas,Budberga,LV-3907
Bauskas,ergLi,LV-3907
Bauskas,Grenctale,LV-3907
Bauskas,Ceraukste,LV-3908
Bauskas,Code,LV-3910
Bauskas,Dalini,LV-3910
Bauskas,Lambarte,LV-3913
Bauskas,adzuni,LV-3914
Bauskas,Berzi,LV-3914
Bauskas,Pastaliski,LV-3914
Bauskas,Jaunsaule,LV-3915
Bauskas,Ceplis,LV-3918
Bauskas,Mezotne,LV-3918
Bauskas,Garoza,LV-3926
Bauskas,Strelnieki,LV-3926
Bauskas,Davini,LV-3929
Bauskas,BirzgaLi,LV-3931
Bauskas,Brunaviski,LV-3931
Bauskas,Bukubirzs,LV-3931
Bauskas,KrievgaLi,LV-3931
Bauskas,Musa,LV-3931
Bauskas,Pace,LV-3931
Bauskas,Pamusa,LV-3931
Bauskas,Piragi,LV-3931
Bauskas,Pogranica,LV-3931
Bauskas,Uzvara,LV-3931
Bauskas,Likverteni,LV-3932
Bauskas,Vecsaule,LV-3932
Bauskas,Zvaigzne,LV-3932
Bauskas,Kudra,LV-3936
Bauskas,Ozolaine,LV-3936
Beverinas,Kauguri,LV-4224
Beverinas,Kaugurmuiza,LV-4224
Beverinas,Lici,LV-4224
Beverinas,Murmuiza,LV-4224
Beverinas,BrenguLi,LV-4245
Beverinas,Cempi,LV-4245
Beverinas,Trikata,LV-4731
Beverinas,udrinas,LV-4731
Brocenu,Emburga,LV-3851
Brocenu,Kalnsetas,LV-3851
Brocenu,Lielciecere,LV-3851
Brocenu,Oskalni,LV-3851
Brocenu,Blidene,LV-3852
Brocenu,Pilsblidene,LV-3852
Brocenu,Sturi,LV-3852
Brocenu,Remte,LV-3871
Brocenu,Gaiki,LV-3873
Brocenu,Lielsatiki,LV-3873
Brocenu,Satiki,LV-3873
Brocenu,Vecgaiki,LV-3873
Burtnieku,Burtnieki,LV-4206
Burtnieku,Matisi,LV-4210
Burtnieku,Vecate,LV-4211
Burtnieku,Pilati,LV-4219
Burtnieku,Rupnieki,LV-4219
Burtnieku,Valmiermuiza,LV-4219
Burtnieku,Lizdeni,LV-4232
Burtnieku,Renceni,LV-4232
Burtnieku,Daksti,LV-4712
Burtnieku,evele,LV-4712
Carnikavas,Carnikava,LV-2163
Carnikavas,Eimuri,LV-2163
Carnikavas,Garciems,LV-2163
Carnikavas,Garupe,LV-2163
Carnikavas,Gauja,LV-2163
Carnikavas,Kalngale,LV-2163
Carnikavas,Laveri,LV-2163
Carnikavas,Lilaste,LV-2163
Carnikavas,Mezciems,LV-2163
Carnikavas,Mezgarciems,LV-2163
Carnikavas,SiguLi,LV-2163
Cesu,Cesis,LV-4102
Cesu,Cesis,LV-4103
Cesu,Krivi,LV-4136
Cesu,MezmaLi,LV-4136
Cesu,RamuLi,LV-4136
Cesu,Ridzene,LV-4136
Cesu,Veismani,LV-4136
Cesvaines,Grasi,LV-4871
Cesvaines,Karkli,LV-4871
Cesvaines,Karzdaba,LV-4871
Cesvaines,KraukLi,LV-4880
Ciblas,Blonti,LV-5706
Ciblas,Bubini,LV-5706
Ciblas,Cabuli,LV-5706
Ciblas,codarani,LV-5706
Ciblas,DegLova,LV-5706
Ciblas,Dubrovka,LV-5706
Ciblas,Gutki,LV-5706
Ciblas,IerzeLova,LV-5706
Ciblas,Jakuci,LV-5706
Ciblas,Kreici,LV-5706
Ciblas,Liela Medisova,LV-5706
Ciblas,Maza Medisova,LV-5706
Ciblas,Morozovka,LV-5706
Ciblas,Ozorgi,LV-5706
Ciblas,Plaudisi,LV-5706
Ciblas,SilagaiLi,LV-5706
Ciblas,skinci,LV-5706
Ciblas,SkradeLi,LV-5706
Ciblas,TeLakolni,LV-5706
Ciblas,Vilceni,LV-5706
Ciblas,Vonogi,LV-5706
Ciblas,Balalaiki,LV-5709
Ciblas,Cibla,LV-5709
Ciblas,Degteri,LV-5709
Ciblas,Eversmuiza,LV-5709
Ciblas,Felicianova,LV-5709
Ciblas,Jurani,LV-5709
Ciblas,Kondrati,LV-5709
Ciblas,Kozlovski,LV-5709
Ciblas,Lielie Truksani,LV-5709
Ciblas,Meza Kocki,LV-5709
Ciblas,Morozovka,LV-5709
Ciblas,Peksova,LV-5709
Ciblas,Spegi,LV-5709
Ciblas,Stocinova,LV-5709
Ciblas,Tridna,LV-5709
Ciblas,Tumova,LV-5709
Ciblas,Voiti,LV-5709
Ciblas,Voloji,LV-5709
Ciblas,Zeltini,LV-5709
Ciblas,Barisi,LV-5716
Ciblas,Greci,LV-5716
Ciblas,KaLvisi,LV-5716
Ciblas,Lopsti,LV-5716
Ciblas,Marenpole,LV-5716
Ciblas,Mjaisi,LV-5716
Ciblas,Ozupiene,LV-5716
Ciblas,PuncuLi,LV-5716
Ciblas,scastLivi,LV-5716
Ciblas,Skrini,LV-5716
Ciblas,Sokani,LV-5716
Ciblas,udeni,LV-5716
Ciblas,Vacumnieki,LV-5716
Ciblas,Akasi,LV-5719
Ciblas,armani,LV-5719
Ciblas,Astenci,LV-5719
Ciblas,Babrova,LV-5719
Ciblas,BartuLi,LV-5719
Ciblas,Berozovka,LV-5719
Ciblas,civzuLi,LV-5719
Ciblas,ciziki,LV-5719
Ciblas,Dolgoseji,LV-5719
Ciblas,HmeLnecki,LV-5719
Ciblas,Jasenci,LV-5719
Ciblas,Jaski,LV-5719
Ciblas,Joski,LV-5719
Ciblas,KLesniki,LV-5719
Ciblas,Kozusola,LV-5719
Ciblas,Krivanda,LV-5719
Ciblas,Kujerci,LV-5719
Ciblas,Kurjanova,LV-5719
Ciblas,Kusneri,LV-5719
Ciblas,Lidumnieki,LV-5719
Ciblas,Liepu Sala,LV-5719
Ciblas,Petruconki,LV-5719
Ciblas,Platpirova,LV-5719
Ciblas,Recnaja,LV-5719
Ciblas,Rudusi,LV-5719
Ciblas,Seimani,LV-5719
Ciblas,skinci,LV-5719
Ciblas,snitniki,LV-5719
Ciblas,Spirki,LV-5719
Ciblas,Vacu Kalni,LV-5719
Ciblas,Avisi,LV-5742
Ciblas,cigani,LV-5742
Ciblas,Fedcenki,LV-5742
Ciblas,Gornie,LV-5742
Ciblas,Iudri,LV-5742
Ciblas,Kaziniki,LV-5742
Ciblas,Lahi,LV-5742
Ciblas,Latisi,LV-5742
Ciblas,MasLenki,LV-5742
Ciblas,Merdzine,LV-5742
Ciblas,Mezerniki,LV-5742
Ciblas,Nuraugi,LV-5742
Ciblas,Obscina,LV-5742
Ciblas,PerekLi,LV-5742
Ciblas,PoLaki,LV-5742
Ciblas,Potasi,LV-5742
Ciblas,Poznakova,LV-5742
Ciblas,Pusmucova,LV-5742
Ciblas,saraki,LV-5742
Ciblas,Sipki,LV-5742
Ciblas,skinci,LV-5742
Ciblas,SLapnie,LV-5742
Ciblas,smati,LV-5742
Ciblas,SnotiuLi,LV-5742
Ciblas,Staupine,LV-5742
Ciblas,Steponi,LV-5742
Ciblas,Tereki,LV-5742
Ciblas,Vacumniki,LV-5742
Ciblas,Valujeva,LV-5742
Ciblas,Vornaisi,LV-5742
Ciblas,Zujova,LV-5742
Ciblas,Banoneja,LV-5752
Ciblas,Bierziniki,LV-5752
Ciblas,Binova,LV-5752
Ciblas,Bleivi,LV-5752
Ciblas,Boluzova,LV-5752
Ciblas,DiunokLi,LV-5752
Ciblas,Ezersala,LV-5752
Ciblas,Franapole,LV-5752
Ciblas,JaunzeLci,LV-5752
Ciblas,Jaunzogoti,LV-5752
Ciblas,KaLvi,LV-5752
Ciblas,Kitkova,LV-5752
Ciblas,Kiuti,LV-5752
Ciblas,KLovi,LV-5752
Ciblas,Kristuzani,LV-5752
Ciblas,Kriveni,LV-5752
Ciblas,Kusnerova,LV-5752
Ciblas,Lauci,LV-5752
Ciblas,Lielie Litauniki,LV-5752
Ciblas,Lucmuiza,LV-5752
Ciblas,Mazie Litauniki,LV-5752
Ciblas,Mazie Truksani,LV-5752
Ciblas,Miltukolni,LV-5752
Ciblas,Mjakinki,LV-5752
Ciblas,Muiziniki,LV-5752
Ciblas,ObuLniki,LV-5752
Ciblas,Orehova,LV-5752
Ciblas,Petriki,LV-5752
Ciblas,PikstuLi,LV-5752
Ciblas,Pudukolni,LV-5752
Ciblas,Razanova,LV-5752
Ciblas,Rubezniki,LV-5752
Ciblas,Rudzeisi,LV-5752
Ciblas,salupinki,LV-5752
Ciblas,SeLekova,LV-5752
Ciblas,spegi,LV-5752
Ciblas,Teiruma Kocki,LV-5752
Ciblas,TeLakolni,LV-5752
Ciblas,udeni,LV-5752
Ciblas,Ustja,LV-5752
Ciblas,uticova,LV-5752
Ciblas,Vaczogoti,LV-5752
Ciblas,Vasarani,LV-5752
Ciblas,Veserova,LV-5752
Ciblas,Vierni,LV-5752
Ciblas,Virpi,LV-5752
Ciblas,Zitiski,LV-5752
Ciblas,Zuzeisi,LV-5752
Ciblas,Zvirgzdene,LV-5752
Dagdas,Alzenova,LV-5674
Dagdas,Beitani,LV-5674
Dagdas,Bojari,LV-5674
Dagdas,Dagdas Muiza,LV-5674
Dagdas,JubeLi,LV-5674
Dagdas,Mazie Rapsi,LV-5674
Dagdas,Midisi,LV-5674
Dagdas,Neikuri,LV-5674
Dagdas,Ozolini,LV-5674
Dagdas,Plotki,LV-5674
Dagdas,PurpLi,LV-5674
Dagdas,Rabsi,LV-5674
Dagdas,Rumpisi,LV-5674
Dagdas,Sloboda,LV-5674
Dagdas,Ustje,LV-5674
Dagdas,Vecdome,LV-5674
Dagdas,Zabari,LV-5674
Dagdas,ZeLLi,LV-5674
Dagdas,Aprobavci,LV-5676
Dagdas,Asune,LV-5676
Dagdas,Butkoni,LV-5676
Dagdas,Dzirvaniski,LV-5676
Dagdas,Ferma,LV-5676
Dagdas,FoLvaroka,LV-5676
Dagdas,KaraLova,LV-5676
Dagdas,Klabauci,LV-5676
Dagdas,KovaLki,LV-5676
Dagdas,Kozlova,LV-5676
Dagdas,Krinica,LV-5676
Dagdas,KurLinova,LV-5676
Dagdas,Lutavci,LV-5676
Dagdas,Maza Asune,LV-5676
Dagdas,Maza Jolza,LV-5676
Dagdas,Mazie Zeizi,LV-5676
Dagdas,Mengi,LV-5676
Dagdas,Paukstova,LV-5676
Dagdas,PLupova,LV-5676
Dagdas,Raceva,LV-5676
Dagdas,Reini,LV-5676
Dagdas,Tilesova,LV-5676
Dagdas,Zeliski,LV-5676
Dagdas,Zukulova,LV-5676
Dagdas,ApaLi,LV-5677
Dagdas,Barinauci,LV-5677
Dagdas,Blusova,LV-5677
Dagdas,Dinaborciki,LV-5677
Dagdas,Katriniski,LV-5677
Dagdas,kepova,LV-5677
Dagdas,Kulakova,LV-5677
Dagdas,Luksova,LV-5677
Dagdas,Madalani,LV-5677
Dagdas,Mazie ApaLi,LV-5677
Dagdas,MeLkeri,LV-5677
Dagdas,Neiksani,LV-5677
Dagdas,PLesneva,LV-5677
Dagdas,Posova,LV-5677
Dagdas,Sumkova,LV-5677
Dagdas,Tukisi,LV-5677
Dagdas,Vorzova,LV-5677
Dagdas,Aleksandrova,LV-5680
Dagdas,Avlasenki,LV-5680
Dagdas,Bogdani,LV-5680
Dagdas,Bronki,LV-5680
Dagdas,Eisaki,LV-5680
Dagdas,Ignatova,LV-5680
Dagdas,Konstantinova,LV-5680
Dagdas,Kromani,LV-5680
Dagdas,KubuLniski,LV-5680
Dagdas,Lemesi,LV-5680
Dagdas,Lozdi,LV-5680
Dagdas,Magnusova,LV-5680
Dagdas,Nartisi,LV-5680
Dagdas,Noviki,LV-5680
Dagdas,Ojatnieki,LV-5680
Dagdas,Perveliski,LV-5680
Dagdas,PuncuLi,LV-5680
Dagdas,Romanova,LV-5680
Dagdas,Saldi,LV-5680
Dagdas,Scedrati,LV-5680
Dagdas,Sivergala,LV-5680
Dagdas,Skudriki,LV-5680
Dagdas,Sotnikova,LV-5680
Dagdas,Sukaili,LV-5680
Dagdas,sumiLi,LV-5680
Dagdas,Vipalzova,LV-5680
Dagdas,Vorzova,LV-5680
Dagdas,Zarini,LV-5680
Dagdas,Aleksejevka,LV-5687
Dagdas,Andini,LV-5687
Dagdas,Andrupene,LV-5687
Dagdas,Andrupenes Sloboda,LV-5687
Dagdas,Astasova,LV-5687
Dagdas,Bikova,LV-5687
Dagdas,Birza,LV-5687
Dagdas,Biza,LV-5687
Dagdas,Briveri,LV-5687
Dagdas,Bronki,LV-5687
Dagdas,Dagdas Sloboda,LV-5687
Dagdas,Dilmani,LV-5687
Dagdas,Dinduni,LV-5687
Dagdas,Dubnagi,LV-5687
Dagdas,Golovanovka,LV-5687
Dagdas,Grabova,LV-5687
Dagdas,Grigodinduni,LV-5687
Dagdas,Grisani,LV-5687
Dagdas,Grizani,LV-5687
Dagdas,Ivanova,LV-5687
Dagdas,Janovci,LV-5687
Dagdas,Kazimirova,LV-5687
Dagdas,Klismeti,LV-5687
Dagdas,Kotoriski,LV-5687
Dagdas,KraukLi,LV-5687
Dagdas,KrauLi,LV-5687
Dagdas,Laizani,LV-5687
Dagdas,Libini,LV-5687
Dagdas,Litaunieki,LV-5687
Dagdas,Malka,LV-5687
Dagdas,Mariampole,LV-5687
Dagdas,Maslova,LV-5687
Dagdas,Mivrinieki,LV-5687
Dagdas,Muntiski,LV-5687
Dagdas,Murani,LV-5687
Dagdas,Oloveca,LV-5687
Dagdas,Piruski,LV-5687
Dagdas,Pozdnakova,LV-5687
Dagdas,Rakuti,LV-5687
Dagdas,Rimsani,LV-5687
Dagdas,RogaLi,LV-5687
Dagdas,Rumakova,LV-5687
Dagdas,Slesari,LV-5687
Dagdas,Sloboda,LV-5687
Dagdas,Stalidzani,LV-5687
Dagdas,Stankevici,LV-5687
Dagdas,Strodi,LV-5687
Dagdas,Sukaili,LV-5687
Dagdas,Trizori,LV-5687
Dagdas,Usaci,LV-5687
Dagdas,Uzaniski,LV-5687
Dagdas,VasiLi,LV-5687
Dagdas,Vecokra,LV-5687
Dagdas,Vigori,LV-5687
Dagdas,Zambari,LV-5687
Dagdas,Zundi,LV-5687
Dagdas,Aksjonova,LV-5692
Dagdas,Altiniki,LV-5692
Dagdas,Andzani,LV-5692
Dagdas,EgLova,LV-5692
Dagdas,Essenmuiza,LV-5692
Dagdas,Ezernieki,LV-5692
Dagdas,Garaudzi,LV-5692
Dagdas,Jakubki,LV-5692
Dagdas,JuguLi,LV-5692
Dagdas,Jurkova,LV-5692
Dagdas,Kumpini,LV-5692
Dagdas,Liela zogotova,LV-5692
Dagdas,Lubgani,LV-5692
Dagdas,Lukneica,LV-5692
Dagdas,Mortini,LV-5692
Dagdas,Niperi,LV-5692
Dagdas,NovomisLi,LV-5692
Dagdas,OstravLani,LV-5692
Dagdas,Paholki,LV-5692
Dagdas,PatmaLniki,LV-5692
Dagdas,PiLori,LV-5692
Dagdas,Pontogi,LV-5692
Dagdas,PrimisLi,LV-5692
Dagdas,Ruksi,LV-5692
Dagdas,RuskuLova,LV-5692
Dagdas,susti,LV-5692
Dagdas,Udrija,LV-5692
Dagdas,VaisLi,LV-5692
Dagdas,Vaivodi,LV-5692
Dagdas,Vidiski,LV-5692
Dagdas,Zenkova,LV-5692
Dagdas,Borkuici,LV-5695
Dagdas,civcisi,LV-5695
Dagdas,Davidenki,LV-5695
Dagdas,KiseLova,LV-5695
Dagdas,Kozanki,LV-5695
Dagdas,Krasnopole,LV-5695
Dagdas,Landskorona,LV-5695
Dagdas,Lielie Brici,LV-5695
Dagdas,Maci,LV-5695
Dagdas,Malcani,LV-5695
Dagdas,Maza Luknica,LV-5695
Dagdas,Mazie Brici,LV-5695
Dagdas,Muiznieki,LV-5695
Dagdas,Novicki,LV-5695
Dagdas,OLsaniki,LV-5695
Dagdas,Ostrovski,LV-5695
Dagdas,Peickova,LV-5695
Dagdas,Ratkova,LV-5695
Dagdas,RubuLi,LV-5695
Dagdas,skaune,LV-5695
Dagdas,Timani,LV-5695
Dagdas,Zabinaki,LV-5695
Dagdas,Zamsoviki,LV-5695
Dagdas,ZeiLova,LV-5695
Dagdas,AndzeLi,LV-5696
Dagdas,Armani,LV-5696
Dagdas,Artjomovka,LV-5696
Dagdas,Bondariski,LV-5696
Dagdas,Bresingova,LV-5696
Dagdas,DauguLi,LV-5696
Dagdas,Domoriski,LV-5696
Dagdas,DukuLi,LV-5696
Dagdas,Froli,LV-5696
Dagdas,Gajova,LV-5696
Dagdas,Grizanki,LV-5696
Dagdas,Jakizi,LV-5696
Dagdas,Janova,LV-5696
Dagdas,Klismeti,LV-5696
Dagdas,KLukuski,LV-5696
Dagdas,Kondrasi,LV-5696
Dagdas,Konuski,LV-5696
Dagdas,KovaLovka,LV-5696
Dagdas,KrauLi,LV-5696
Dagdas,Krivina,LV-5696
Dagdas,Kromani,LV-5696
Dagdas,Kuiki,LV-5696
Dagdas,Kulakova,LV-5696
Dagdas,Lapi,LV-5696
Dagdas,Licmurani,LV-5696
Dagdas,LoLi,LV-5696
Dagdas,Mamoni,LV-5696
Dagdas,Mamonova,LV-5696
Dagdas,MihaLina,LV-5696
Dagdas,Mizuki,LV-5696
Dagdas,Murani,LV-5696
Dagdas,Noglas,LV-5696
Dagdas,Novinki,LV-5696
Dagdas,Paulini,LV-5696
Dagdas,Pizani,LV-5696
Dagdas,Plataci,LV-5696
Dagdas,Resetniki,LV-5696
Dagdas,Rokoli,LV-5696
Dagdas,Ruduski,LV-5696
Dagdas,Sloboda,LV-5696
Dagdas,Vamzuski,LV-5696
Dagdas,Virzas,LV-5696
Dagdas,Visuni,LV-5696
Dagdas,Vucini,LV-5696
Dagdas,Zaikova,LV-5696
Dagdas,Zigmani,LV-5696
Dagdas,Andzani,LV-5697
Dagdas,Ceplisi,LV-5697
Dagdas,Dehteri,LV-5697
Dagdas,Gereniskas,LV-5697
Dagdas,Grizani,LV-5697
Dagdas,KeiLeva,LV-5697
Dagdas,Kriskinova,LV-5697
Dagdas,Kuzminci,LV-5697
Dagdas,Lastovki,LV-5697
Dagdas,Maslova,LV-5697
Dagdas,Moroziki,LV-5697
Dagdas,Nazari,LV-5697
Dagdas,PauLukalns,LV-5697
Dagdas,PLenceva,LV-5697
Dagdas,Podvigailova,LV-5697
Dagdas,Porecje,LV-5697
Dagdas,Punduri,LV-5697
Dagdas,Pusca,LV-5697
Dagdas,Rusecki,LV-5697
Dagdas,Stoponisi,LV-5697
Dagdas,Valuhi,LV-5697
Dagdas,ZjazuLova,LV-5697
Dagdas,Beresni,LV-5698
Dagdas,Bunceva,LV-5698
Dagdas,Dobrocina,LV-5698
Dagdas,Kacari,LV-5698
Dagdas,Kairisi,LV-5698
Dagdas,Kalvisi,LV-5698
Dagdas,Kromaniski,LV-5698
Dagdas,Loci,LV-5698
Dagdas,Meza RuskuLeva,LV-5698
Dagdas,Muraniski,LV-5698
Dagdas,Neiksani,LV-5698
Dagdas,Panova,LV-5698
Dagdas,Plutiski,LV-5698
Dagdas,Pusca,LV-5698
Dagdas,Putramniski,LV-5698
Dagdas,Reiniki,LV-5698
Dagdas,Rubinauci,LV-5698
Dagdas,Rutkevici,LV-5698
Dagdas,Rutki,LV-5698
Dagdas,Skutulova,LV-5698
Dagdas,sLahotova,LV-5698
Dagdas,Spilukalns,LV-5698
Dagdas,Spogeva,LV-5698
Dagdas,Strodova,LV-5698
Dagdas,Svarinci,LV-5698
Dagdas,Veiziniski,LV-5698
Dagdas,Veterauci,LV-5698
Dagdas,Zamborova,LV-5698
Daugavpils,Daugavpils,LV-5401
Daugavpils,Daugavpils,LV-5404
Daugavpils,Daugavpils,LV-5410
Daugavpils,Daugavpils,LV-5412
Daugavpils,Daugavpils,LV-5413
Daugavpils,Stropi,LV-5413
Daugavpils,Vecstropi,LV-5413
Daugavpils,Daugavpils,LV-5414
Daugavpils,Daugavpils,LV-5415
Daugavpils,Daugavpils,LV-5417
Daugavpils,Daugavpils,LV-5418
Daugavpils,Daugavpils,LV-5422
Daugavpils,Liksnas,LV-5422
Daugavpils,AmbeLi,LV-5438
Daugavpils,Augskalne,LV-5438
Daugavpils,CibuLski,LV-5438
Daugavpils,Galvani,LV-5438
Daugavpils,Garsani,LV-5438
Daugavpils,GLinaruca,LV-5438
Daugavpils,Graizi,LV-5438
Daugavpils,Guta,LV-5438
Daugavpils,Ignatovici,LV-5438
Daugavpils,Ivanovka,LV-5438
Daugavpils,Jaunaiskrugs,LV-5438
Daugavpils,Jaunie StupeLiski,LV-5438
Daugavpils,KaLkes,LV-5438
Daugavpils,Kalna skapari,LV-5438
Daugavpils,Kampani,LV-5438
Daugavpils,Kapci,LV-5438
Daugavpils,Kloveni,LV-5438
Daugavpils,Kokini,LV-5438
Daugavpils,Koktagols,LV-5438
Daugavpils,Kondavniki,LV-5438
Daugavpils,Konecpole,LV-5438
Daugavpils,Kurlovici,LV-5438
Daugavpils,Lauku Laperi,LV-5438
Daugavpils,Liela Baranovska,LV-5438
Daugavpils,Lielie Kuseni,LV-5438
Daugavpils,Lukjanska,LV-5438
Daugavpils,Maza Baranovska,LV-5438
Daugavpils,Mazie Kuseni,LV-5438
Daugavpils,Meza Laperi,LV-5438
Daugavpils,Meza skapari,LV-5438
Daugavpils,Miglani,LV-5438
Daugavpils,Mizusata,LV-5438
Daugavpils,Peikstuliski,LV-5438
Daugavpils,Pitreisi,LV-5438
Daugavpils,Podgarsani,LV-5438
Daugavpils,Putani,LV-5438
Daugavpils,Ragacovka,LV-5438
Daugavpils,skiviski,LV-5438
Daugavpils,Skromoni,LV-5438
Daugavpils,skuta,LV-5438
Daugavpils,Sveteni,LV-5438
Daugavpils,ULiki,LV-5438
Daugavpils,Vecie Stupeliski,LV-5438
Daugavpils,Akleniski,LV-5440
Daugavpils,Bikernieki,LV-5440
Daugavpils,Bramaniski,LV-5440
Daugavpils,Buteniski,LV-5440
Daugavpils,Deksni,LV-5440
Daugavpils,Gorbacovka,LV-5440
Daugavpils,GuLino,LV-5440
Daugavpils,Kolobuhino,LV-5440
Daugavpils,Krasnoje,LV-5440
Daugavpils,Krivosejeva,LV-5440
Daugavpils,Kudino,LV-5440
Daugavpils,Lielie Krivini,LV-5440
Daugavpils,Lipiniski,LV-5440
Daugavpils,MeLnica,LV-5440
Daugavpils,Osinovka,LV-5440
Daugavpils,PanteLiski,LV-5440
Daugavpils,Pavlovskoje,LV-5440
Daugavpils,Reiniski,LV-5440
Daugavpils,selehovka,LV-5440
Daugavpils,Unguri,LV-5440
Daugavpils,Vaganiski,LV-5440
Daugavpils,Vervjali,LV-5440
Daugavpils,Vipolzovka,LV-5440
Daugavpils,Viselova,LV-5440
Daugavpils,ZvindeLiski,LV-5440
Daugavpils,Demene,LV-5442
Daugavpils,Januciems,LV-5442
Daugavpils,KumbuLi,LV-5442
Daugavpils,Mezvidi,LV-5442
Daugavpils,Zemgale,LV-5442
Daugavpils,Akmani,LV-5443
Daugavpils,Ascuki,LV-5443
Daugavpils,Baiki,LV-5443
Daugavpils,Baltaci,LV-5443
Daugavpils,Bicani,LV-5443
Daugavpils,Borovaja,LV-5443
Daugavpils,Ceplisi,LV-5443
Daugavpils,Dubna,LV-5443
Daugavpils,Givzi,LV-5443
Daugavpils,Gleizdiniski,LV-5443
Daugavpils,Jadrova,LV-5443
Daugavpils,Jaunie Tokari,LV-5443
Daugavpils,Kjarkuzi,LV-5443
Daugavpils,Kolomosti,LV-5443
Daugavpils,Kondavnieki,LV-5443
Daugavpils,Kutki,LV-5443
Daugavpils,Lielie Stradiski,LV-5443
Daugavpils,Mazie Stradiski,LV-5443
Daugavpils,Narbuti,LV-5443
Daugavpils,NovoseLci,LV-5443
Daugavpils,Orniski,LV-5443
Daugavpils,Pariza,LV-5443
Daugavpils,Petrani,LV-5443
Daugavpils,Pipari,LV-5443
Daugavpils,Rovnica,LV-5443
Daugavpils,Sludiniski,LV-5443
Daugavpils,Somi,LV-5443
Daugavpils,Svenci,LV-5443
Daugavpils,Sviliski,LV-5443
Daugavpils,Verdini,LV-5443
Daugavpils,Vilki,LV-5443
Daugavpils,Zarani,LV-5443
Daugavpils,zartmuiza,LV-5443
Daugavpils,ZeiLi,LV-5443
Daugavpils,Zemnicki,LV-5443
Daugavpils,BirkineLi,LV-5449
Daugavpils,Celtnieks,LV-5449
Daugavpils,Daugava,LV-5449
Daugavpils,Galdnieki,LV-5449
Daugavpils,Kalisi,LV-5449
Daugavpils,Kalkuni,LV-5449
Daugavpils,Lilienfelde,LV-5449
Daugavpils,Micurinietis,LV-5449
Daugavpils,Muitas,LV-5449
Daugavpils,Palabiski,LV-5449
Daugavpils,Papusina,LV-5449
Daugavpils,PeLusina,LV-5449
Daugavpils,Randene,LV-5449
Daugavpils,Romaniski,LV-5449
Daugavpils,Sikumi,LV-5449
Daugavpils,Aizupiesi,LV-5450
Daugavpils,Andrijova,LV-5450
Daugavpils,Audzeri,LV-5450
Daugavpils,Baltaci,LV-5450
Daugavpils,Baltaiskrogs,LV-5450
Daugavpils,Baltmuiza,LV-5450
Daugavpils,Barovka,LV-5450
Daugavpils,Bibeliski,LV-5450
Daugavpils,Bisteri,LV-5450
Daugavpils,CegaLne,LV-5450
Daugavpils,Druvas,LV-5450
Daugavpils,Ezerlici,LV-5450
Daugavpils,Ganini,LV-5450
Daugavpils,Grancova,LV-5450
Daugavpils,Grustini,LV-5450
Daugavpils,Ignatani,LV-5450
Daugavpils,IvbuLi,LV-5450
Daugavpils,Kalupe,LV-5450
Daugavpils,Kapcinieki,LV-5450
Daugavpils,keisi,LV-5450
Daugavpils,Krivani,LV-5450
Daugavpils,Krutaruca,LV-5450
Daugavpils,Kukliski,LV-5450
Daugavpils,Kungadruvas,LV-5450
Daugavpils,Kusini,LV-5450
Daugavpils,Lacukrogs,LV-5450
Daugavpils,Lauriski,LV-5450
Daugavpils,Logocki,LV-5450
Daugavpils,Mazsloboda,LV-5450
Daugavpils,Mendriki,LV-5450
Daugavpils,Miglani,LV-5450
Daugavpils,Morkoniski,LV-5450
Daugavpils,Naudaskalns,LV-5450
Daugavpils,Persaki,LV-5450
Daugavpils,Ploniski,LV-5450
Daugavpils,Pramaniski,LV-5450
Daugavpils,Pudani,LV-5450
Daugavpils,Pupoli,LV-5450
Daugavpils,Rasnaci,LV-5450
Daugavpils,Ratnieki,LV-5450
Daugavpils,Ruzi,LV-5450
Daugavpils,Saliesi,LV-5450
Daugavpils,Silagols,LV-5450
Daugavpils,Sofija,LV-5450
Daugavpils,Somukokts,LV-5450
Daugavpils,Sturisi,LV-5450
Daugavpils,uda,LV-5450
Daugavpils,Vecumi,LV-5450
Daugavpils,VizbuLi,LV-5450
Daugavpils,Zirdzinieki,LV-5450
Daugavpils,Krauja,LV-5451
Daugavpils,Teivani,LV-5451
Daugavpils,Aukspole,LV-5456
Daugavpils,AuzguLani,LV-5456
Daugavpils,Baraviki,LV-5456
Daugavpils,Borski,LV-5456
Daugavpils,Folvarciesi,LV-5456
Daugavpils,Gancevski,LV-5456
Daugavpils,Jaunusani,LV-5456
Daugavpils,Juksi,LV-5456
Daugavpils,Kalniski,LV-5456
Daugavpils,kirupe,LV-5456
Daugavpils,Klingerisi,LV-5456
Daugavpils,KLocki,LV-5456
Daugavpils,Kokiniski,LV-5456
Daugavpils,Kooperators,LV-5456
Daugavpils,Kudeiki,LV-5456
Daugavpils,Latgale,LV-5456
Daugavpils,Liepziedi,LV-5456
Daugavpils,Liksna,LV-5456
Daugavpils,Lubaste,LV-5456
Daugavpils,Lubaste 1,LV-5456
Daugavpils,MisteLi,LV-5456
Daugavpils,Munciski,LV-5456
Daugavpils,Nahodka,LV-5456
Daugavpils,Orbidani,LV-5456
Daugavpils,PatmaLi,LV-5456
Daugavpils,Pauksti,LV-5456
Daugavpils,Priezu sils,LV-5456
Daugavpils,Ribaki,LV-5456
Daugavpils,Rimsi,LV-5456
Daugavpils,Sarkani,LV-5456
Daugavpils,Sterikani,LV-5456
Daugavpils,Stupini,LV-5456
Daugavpils,Tenisi,LV-5456
Daugavpils,Tilti,LV-5456
Daugavpils,VaikuLani,LV-5456
Daugavpils,Verdini,LV-5456
Daugavpils,Zeltapurvs,LV-5456
Daugavpils,Eglite,LV-5458
Daugavpils,Kasatniki,LV-5458
Daugavpils,Lociki,LV-5458
Daugavpils,Stropi,LV-5458
Daugavpils,Stropica,LV-5458
Daugavpils,Vasarnicas,LV-5458
Daugavpils,Barsuki,LV-5459
Daugavpils,Bondariski,LV-5459
Daugavpils,Buksti,LV-5459
Daugavpils,Dzerbaki,LV-5459
Daugavpils,Jakubini,LV-5459
Daugavpils,Janciski,LV-5459
Daugavpils,Jauna Porecje,LV-5459
Daugavpils,Jauna ZeLonovka,LV-5459
Daugavpils,Kurpeniski,LV-5459
Daugavpils,Lieli Kokini,LV-5459
Daugavpils,Makarenata,LV-5459
Daugavpils,MaLinova,LV-5459
Daugavpils,Markitanti,LV-5459
Daugavpils,Mazie Kokini,LV-5459
Daugavpils,Oboruni,LV-5459
Daugavpils,Pavasaris,LV-5459
Daugavpils,Rubeniski,LV-5459
Daugavpils,Silacirsi,LV-5459
Daugavpils,Silkini,LV-5459
Daugavpils,Sparite,LV-5459
Daugavpils,Strodi,LV-5459
Daugavpils,VasiLova,LV-5459
Daugavpils,Veca ZeLonovka,LV-5459
Daugavpils,ZaLa Pusca,LV-5459
Daugavpils,ZaLumi,LV-5459
Daugavpils,abeliski,LV-5460
Daugavpils,Biruliski,LV-5460
Daugavpils,egipte,LV-5460
Daugavpils,Grendze,LV-5460
Daugavpils,Ilga,LV-5460
Daugavpils,JuneLi,LV-5460
Daugavpils,Kamariski,LV-5460
Daugavpils,KLaviski,LV-5460
Daugavpils,Kriviniski,LV-5460
Daugavpils,Ksceva,LV-5460
Daugavpils,Kumpiniski,LV-5460
Daugavpils,Kumpoti,LV-5460
Daugavpils,Kurcums,LV-5460
Daugavpils,Likais tilts,LV-5460
Daugavpils,Medumi,LV-5460
Daugavpils,Ozolaine,LV-5460
Daugavpils,Paberzi,LV-5460
Daugavpils,PapuLi,LV-5460
Daugavpils,PLavinas,LV-5460
Daugavpils,Ragauniski,LV-5460
Daugavpils,Vasariski,LV-5460
Daugavpils,Zelta kalns,LV-5460
Daugavpils,Dubovka,LV-5461
Daugavpils,Laucesa,LV-5461
Daugavpils,Laucese,LV-5461
Daugavpils,MaLutki,LV-5461
Daugavpils,Mirnijs,LV-5461
Daugavpils,Peski 1,LV-5461
Daugavpils,Peski 2,LV-5461
Daugavpils,Bandaliski,LV-5462
Daugavpils,Berezovka,LV-5462
Daugavpils,Buksti,LV-5462
Daugavpils,BuLi,LV-5462
Daugavpils,Butiski,LV-5462
Daugavpils,Cirsi,LV-5462
Daugavpils,DiLevici,LV-5462
Daugavpils,DudeLi,LV-5462
Daugavpils,Dunski,LV-5462
Daugavpils,Gribusti,LV-5462
Daugavpils,Grustani,LV-5462
Daugavpils,JanuseLi,LV-5462
Daugavpils,Jurisi,LV-5462
Daugavpils,Juzefova,LV-5462
Daugavpils,Kauseliski,LV-5462
Daugavpils,Konopecka,LV-5462
Daugavpils,Kreipani,LV-5462
Daugavpils,Kriskani,LV-5462
Daugavpils,Krivani,LV-5462
Daugavpils,Kurtisi,LV-5462
Daugavpils,Lesnije,LV-5462
Daugavpils,Lesovscizna,LV-5462
Daugavpils,Lukeniski,LV-5462
Daugavpils,Lumeniski,LV-5462
Daugavpils,Makarani,LV-5462
Daugavpils,Markova,LV-5462
Daugavpils,MaskaLani,LV-5462
Daugavpils,Mazie Krivini,LV-5462
Daugavpils,Melderiski,LV-5462
Daugavpils,Naujene,LV-5462
Daugavpils,Pritikina,LV-5462
Daugavpils,Putani,LV-5462
Daugavpils,Rascina,LV-5462
Daugavpils,Rudani,LV-5462
Daugavpils,Rukliski,LV-5462
Daugavpils,Sandariski,LV-5462
Daugavpils,Sargeliski,LV-5462
Daugavpils,Slutiski,LV-5462
Daugavpils,Sprukti,LV-5462
Daugavpils,Strojenka,LV-5462
Daugavpils,Vasargeliski,LV-5462
Daugavpils,Vecpils,LV-5462
Daugavpils,Vecracina,LV-5462
Daugavpils,ViLusi,LV-5462
Daugavpils,Virvjali,LV-5462
Daugavpils,Zastenki,LV-5462
Daugavpils,zidina,LV-5462
Daugavpils,Auseika,LV-5463
Daugavpils,Buivisi,LV-5463
Daugavpils,Dreiski,LV-5463
Daugavpils,Dukuriesi,LV-5463
Daugavpils,Jauna sadza,LV-5463
Daugavpils,Kalniski,LV-5463
Daugavpils,Kalvani,LV-5463
Daugavpils,Keiri,LV-5463
Daugavpils,Liepkalni,LV-5463
Daugavpils,Malgals,LV-5463
Daugavpils,Nicgale,LV-5463
Daugavpils,Nicgales muiza,LV-5463
Daugavpils,Rasnaci,LV-5463
Daugavpils,Ritinauka,LV-5463
Daugavpils,Saksoneja,LV-5463
Daugavpils,Somugols,LV-5463
Daugavpils,Tartaki,LV-5463
Daugavpils,Varkaviesi,LV-5463
Daugavpils,Vingri,LV-5463
Daugavpils,Zakupurs,LV-5463
Daugavpils,ZiemeLu Ivanova,LV-5463
Daugavpils,Budiski,LV-5465
Daugavpils,cervonka,LV-5465
Daugavpils,CibuLovka,LV-5465
Daugavpils,Cirulisi,LV-5465
Daugavpils,Elerne,LV-5465
Daugavpils,Gorovatki,LV-5465
Daugavpils,Kalaniski,LV-5465
Daugavpils,Kovaliski,LV-5465
Daugavpils,Lasenberga,LV-5465
Daugavpils,Lazovka,LV-5465
Daugavpils,Lintopiski,LV-5465
Daugavpils,Lipinscina,LV-5465
Daugavpils,MaLutki,LV-5465
Daugavpils,Mare,LV-5465
Daugavpils,Medvecki,LV-5465
Daugavpils,Osinovka,LV-5465
Daugavpils,Prudiniski,LV-5465
Daugavpils,Sadnieki,LV-5465
Daugavpils,Saviski,LV-5465
Daugavpils,Svikliski,LV-5465
Daugavpils,Tabore,LV-5465
Daugavpils,Tartaks,LV-5465
Daugavpils,ZaLais sils,LV-5465
Daugavpils,FaLtopi,LV-5469
Daugavpils,Gaveitiski,LV-5469
Daugavpils,Jaunborne,LV-5469
Daugavpils,KarLinova,LV-5469
Daugavpils,Lielborne,LV-5469
Daugavpils,Meteliski,LV-5469
Daugavpils,Ritani,LV-5469
Daugavpils,Saliena,LV-5469
Daugavpils,Silene,LV-5469
Daugavpils,slapaki,LV-5469
Daugavpils,Stasaliski,LV-5469
Daugavpils,Voksova,LV-5469
Daugavpils,ZaLesje,LV-5469
Daugavpils,Brunene,LV-5470
Daugavpils,sengeida,LV-5470
Daugavpils,Silene,LV-5470
Daugavpils,Skrudaliena,LV-5470
Daugavpils,Aizupe,LV-5473
Daugavpils,Apses,LV-5473
Daugavpils,Arone,LV-5473
Daugavpils,Atputa,LV-5473
Daugavpils,AusekLi,LV-5473
Daugavpils,Bucani,LV-5473
Daugavpils,Bundiski,LV-5473
Daugavpils,Buras,LV-5473
Daugavpils,Driksniski,LV-5473
Daugavpils,Elektrons,LV-5473
Daugavpils,Ezerini,LV-5473
Daugavpils,Ginovka,LV-5473
Daugavpils,Jauna Krizovka,LV-5473
Daugavpils,JuneLi,LV-5473
Daugavpils,Kakisi,LV-5473
Daugavpils,Kalni,LV-5473
Daugavpils,Lugovaja,LV-5473
Daugavpils,Melani,LV-5473
Daugavpils,Melnezers,LV-5473
Daugavpils,Meza ciems,LV-5473
Daugavpils,Nicgale,LV-5473
Daugavpils,OLsanka,LV-5473
Daugavpils,Perlite,LV-5473
Daugavpils,PicuLi,LV-5473
Daugavpils,Piedaugava,LV-5473
Daugavpils,Pilaci,LV-5473
Daugavpils,Piladzi,LV-5473
Daugavpils,Plikais kalns,LV-5473
Daugavpils,Podbornaja,LV-5473
Daugavpils,Rimsas,LV-5473
Daugavpils,Silini,LV-5473
Daugavpils,Silupe,LV-5473
Daugavpils,siskova,LV-5473
Daugavpils,Skrudaliena,LV-5473
Daugavpils,Svente,LV-5473
Daugavpils,Svirki,LV-5473
Daugavpils,Timsani,LV-5473
Daugavpils,Urbaniski,LV-5473
Daugavpils,Veca Krizovka,LV-5473
Daugavpils,Vecsvente,LV-5473
Daugavpils,Zemgale,LV-5473
Daugavpils,Aizbalti,LV-5477
Daugavpils,Asaissturis,LV-5477
Daugavpils,Baltakrogs,LV-5477
Daugavpils,Ceglinieki,LV-5477
Daugavpils,Dublinieki,LV-5477
Daugavpils,Gajeva CegeLna,LV-5477
Daugavpils,Iniksi,LV-5477
Daugavpils,Kokiniski,LV-5477
Daugavpils,Krogaseta,LV-5477
Daugavpils,Kucini,LV-5477
Daugavpils,Lielas KLockas,LV-5477
Daugavpils,Lielie Mukani,LV-5477
Daugavpils,Lielie Vaideri,LV-5477
Daugavpils,Liepu Mukani,LV-5477
Daugavpils,MaLivanka,LV-5477
Daugavpils,Mazas KLockas,LV-5477
Daugavpils,Mazie Ratnieki,LV-5477
Daugavpils,Meza Mackevici,LV-5477
Daugavpils,Motivani,LV-5477
Daugavpils,Orbidani,LV-5477
Daugavpils,Osagols,LV-5477
Daugavpils,Otrie Vingri,LV-5477
Daugavpils,Paukstani,LV-5477
Daugavpils,Petuniski,LV-5477
Daugavpils,Pirmie Vingri,LV-5477
Daugavpils,Plocini,LV-5477
Daugavpils,Poksani,LV-5477
Daugavpils,Priedes Sloboda,LV-5477
Daugavpils,Priednieki,LV-5477
Daugavpils,Pudani,LV-5477
Daugavpils,Ritini,LV-5477
Daugavpils,Rukoniski,LV-5477
Daugavpils,Sarkani,LV-5477
Daugavpils,Sausukalns,LV-5477
Daugavpils,SeiLi,LV-5477
Daugavpils,Stalidzani,LV-5477
Daugavpils,Stiebrini,LV-5477
Daugavpils,Stupini,LV-5477
Daugavpils,suti,LV-5477
Daugavpils,Svetini,LV-5477
Daugavpils,Uglinieki,LV-5477
Daugavpils,Vabole,LV-5477
Daugavpils,Zabaltiski,LV-5477
Daugavpils,Zascenku cornaja,LV-5477
Daugavpils,Zascenku Dublinieki,LV-5477
Daugavpils,Zascenku Orbidani,LV-5477
Daugavpils,Zascenku Vaideri,LV-5477
Daugavpils,Zascenku VaikuLani,LV-5477
Daugavpils,Antani,LV-5481
Daugavpils,Ascuki,LV-5481
Daugavpils,Balaski,LV-5481
Daugavpils,Bombizi,LV-5481
Daugavpils,Catlaksi,LV-5481
Daugavpils,CeLa Kurtisi,LV-5481
Daugavpils,Danisevka,LV-5481
Daugavpils,Deiki-Brenci,LV-5481
Daugavpils,Dervaniski,LV-5481
Daugavpils,Dzirnaviskas,LV-5481
Daugavpils,Ezerstarpi,LV-5481
Daugavpils,Gajs,LV-5481
Daugavpils,Gravini,LV-5481
Daugavpils,Grustani,LV-5481
Daugavpils,Grustaniski,LV-5481
Daugavpils,GuLani,LV-5481
Daugavpils,Harciski,LV-5481
Daugavpils,Jereniski,LV-5481
Daugavpils,Jonani,LV-5481
Daugavpils,Kalna Viski,LV-5481
Daugavpils,Kazulisi,LV-5481
Daugavpils,Kebzi,LV-5481
Daugavpils,Kivrini,LV-5481
Daugavpils,Klekeri,LV-5481
Daugavpils,Klobani,LV-5481
Daugavpils,Korolevscina,LV-5481
Daugavpils,Koskino,LV-5481
Daugavpils,KruteLi,LV-5481
Daugavpils,Kuzmino,LV-5481
Daugavpils,Laureni,LV-5481
Daugavpils,Lazovka,LV-5481
Daugavpils,Lielie Lauri,LV-5481
Daugavpils,Litavnieki,LV-5481
Daugavpils,Lozdas,LV-5481
Daugavpils,Lubanecs,LV-5481
Daugavpils,Lukstenieki,LV-5481
Daugavpils,LuLiski,LV-5481
Daugavpils,Makarova,LV-5481
Daugavpils,Maskovskaja,LV-5481
Daugavpils,Matisani,LV-5481
Daugavpils,Maza Baranovska,LV-5481
Daugavpils,Meza Kurtisi,LV-5481
Daugavpils,Mezinieki,LV-5481
Daugavpils,MozuLi,LV-5481
Daugavpils,Narbuti,LV-5481
Daugavpils,Ostrova,LV-5481
Daugavpils,Otra Borovka,LV-5481
Daugavpils,Pakni,LV-5481
Daugavpils,Peipini,LV-5481
Daugavpils,Pirma Borovka,LV-5481
Daugavpils,Plauzi,LV-5481
Daugavpils,Plotupi,LV-5481
Daugavpils,Podgurje,LV-5481
Daugavpils,Sauliski,LV-5481
Daugavpils,Silaviski,LV-5481
Daugavpils,Skuki,LV-5481
Daugavpils,Smani,LV-5481
Daugavpils,spogi,LV-5481
Daugavpils,Stacija Viski,LV-5481
Daugavpils,Stacija Viski 505. kilometrs,LV-5481
Daugavpils,Stacija Viski 506. kilometrs,LV-5481
Daugavpils,Straumes,LV-5481
Daugavpils,Strodiski,LV-5481
Daugavpils,Subri,LV-5481
Daugavpils,Tabuni,LV-5481
Daugavpils,Tukisi,LV-5481
Daugavpils,Vanagi,LV-5481
Daugavpils,Vecie Tokari,LV-5481
Daugavpils,Veiskupiski,LV-5481
Daugavpils,Viganti,LV-5481
Daugavpils,Vilki,LV-5481
Daugavpils,Viski,LV-5481
Daugavpils,Visku tehnikums,LV-5481
Daugavpils,Vordovka,LV-5481
Daugavpils,Zabornaja,LV-5481
Daugavpils,zuravki,LV-5481
Daugavpils,Zusani,LV-5481
Dobeles,Aizstrautnieki,LV-3701
Dobeles,Cerini,LV-3701
Dobeles,Gardene,LV-3701
Dobeles,Lielberze,LV-3701
Dobeles,Liepziedi,LV-3701
Dobeles,Auri,LV-3710
Dobeles,kirpeni,LV-3710
Dobeles,Biksti,LV-3713
Dobeles,Jaunberze,LV-3717
Dobeles,Annenieki,LV-3718
Dobeles,Kakenieki,LV-3718
Dobeles,Akacijas,LV-3719
Dobeles,Krimunas,LV-3719
Dobeles,Lejasstrazdi,LV-3722
Dobeles,Apgulde,LV-3724
Dobeles,Naudite,LV-3724
Dobeles,Penkule,LV-3725
Dobeles,Zebrene,LV-3731
Dobeles,Berze,LV-3732
Dobeles,Miltini,LV-3732
Dobeles,skibe,LV-3732
Dundagas,Dumele,LV-3264
Dundagas,Ezermuiza,LV-3264
Dundagas,Usi,LV-3264
Dundagas,Alakste,LV-3270
Dundagas,Anstrupe,LV-3270
Dundagas,azi,LV-3270
Dundagas,Cirstes,LV-3270
Dundagas,Dundaga,LV-3270
Dundagas,Gavsene,LV-3270
Dundagas,Ildzere,LV-3270
Dundagas,Jaundundaga,LV-3270
Dundagas,Jaunmuiza,LV-3270
Dundagas,KaLki,LV-3270
Dundagas,KarLmuiza,LV-3270
Dundagas,Klarmuiza,LV-3270
Dundagas,Labdzere,LV-3270
Dundagas,Lapmezciems,LV-3270
Dundagas,Lateve,LV-3270
Dundagas,Laukmuiza,LV-3270
Dundagas,Mazalakste,LV-3270
Dundagas,Mazoste,LV-3270
Dundagas,Mazpiltene,LV-3270
Dundagas,Muni,LV-3270
Dundagas,Neveja,LV-3270
Dundagas,Oste,LV-3270
Dundagas,Pace,LV-3270
Dundagas,Piltene,LV-3270
Dundagas,Plintini,LV-3270
Dundagas,Puiskalnciems,LV-3270
Dundagas,Sabdagas,LV-3270
Dundagas,Saustere,LV-3270
Dundagas,slitere,LV-3270
Dundagas,Sude,LV-3270
Dundagas,Sumburciems,LV-3270
Dundagas,Upenieki,LV-3270
Dundagas,Vadzere,LV-3270
Dundagas,Valpene,LV-3270
Dundagas,Vidale,LV-3270
Dundagas,Kolka,LV-3275
Dundagas,Kosrags,LV-3275
Dundagas,Mazirbe,LV-3275
Dundagas,Pitrags,LV-3275
Dundagas,Saunags,LV-3275
Dundagas,Sikrags,LV-3275
Dundagas,Vaide,LV-3275
Durbes,Durbes,LV-3440
Durbes,Tadaiku,LV-3440
Durbes,Vecpils,LV-3441
Durbes,Vecpils,LV-3442
Durbes,Durbes,LV-3445
Durbes,Liegi,LV-3447
Durbes,Dunalka,LV-3452
Durbes,Rava,LV-3452
Engures,Rauda,LV-3101
Engures,Abragciems,LV-3113
Engures,Apsuciems,LV-3113
Engures,Berzciems,LV-3113
Engures,Engure,LV-3113
Engures,Ezernieki,LV-3113
Engures,kesterciems,LV-3113
Engures,Klapkalnciems,LV-3113
Engures,Plienciems,LV-3113
Engures,Antinciems,LV-3118
Engures,Bigaunciems,LV-3118
Engures,caukciems,LV-3118
Engures,Lapmezciems,LV-3118
Engures,Ragaciems,LV-3118
Engures,Cerkste,LV-3129
Engures,Lielaisciems,LV-3129
Engures,Smarde,LV-3129
Engures,Ozolpils,LV-3133
Engures,Milzkalne,LV-3148
Engures,Radzinciems,LV-3148
Erglu,ergLi,LV-4840
Erglu,Katrina,LV-4840
Erglu,Liepkalne,LV-4841
Erglu,Sausneja,LV-4841
Erglu,Sidrabini,LV-4841
Erglu,Jumurda,LV-4844
Garkalnes,Priezlejas,LV-1023
Garkalnes,Baltezers,LV-1024
Garkalnes,Bergi,LV-1024
Garkalnes,Bukulti,LV-1024
Garkalnes,Priedkalne,LV-1024
Garkalnes,Suzi,LV-1024
Garkalnes,Amatnieki,LV-2137
Garkalnes,Langstini,LV-2137
Garkalnes,Makstenieki,LV-2137
Garkalnes,Skukisi,LV-2137
Garkalnes,Sunisi,LV-2137
Garkalnes,Upesciems,LV-2137
Grobinas,Cimdenieki,LV-3430
Grobinas,Grobina,LV-3430
Grobinas,Robeznieki,LV-3430
Grobinas,Gavieze,LV-3431
Grobinas,Dubeni,LV-3438
Grobinas,Jaundubeni,LV-3438
Grobinas,Guzas,LV-3461
Grobinas,Kapsede,LV-3461
Grobinas,skede,LV-3461
Grobinas,Barta,LV-3482
Gulbenes,Svelbergis,LV-4401
Gulbenes,Litene,LV-4405
Gulbenes,Kalniena,LV-4406
Gulbenes,Stameriena,LV-4406
Gulbenes,Vecstameriena,LV-4406
Gulbenes,BeLava,LV-4409
Gulbenes,Letes,LV-4409
Gulbenes,Pilskalns,LV-4409
Gulbenes,Ozolkalns,LV-4410
Gulbenes,Svelbergis,LV-4410
Gulbenes,Lejasciems,LV-4412
Gulbenes,Sinole,LV-4412
Gulbenes,Velena,LV-4415
Gulbenes,GaujasreveLi,LV-4416
Gulbenes,Ranka,LV-4416
Gulbenes,ReveLi,LV-4416
Gulbenes,CeLmalas,LV-4417
Gulbenes,Margas,LV-4417
Gulbenes,skieneri,LV-4417
Gulbenes,Staki,LV-4417
Gulbenes,Stari,LV-4417
Gulbenes,Stradi,LV-4417
Gulbenes,Gulbitis,LV-4420
Gulbenes,Jaungulbene,LV-4420
Gulbenes,Ligo,LV-4421
Gulbenes,Tirza,LV-4424
Gulbenes,Vecaduliena,LV-4424
Gulbenes,Lizums,LV-4425
Gulbenes,Druviena,LV-4426
Gulbenes,Galgauska,LV-4428
Gulbenes,Rimstavas,LV-4428
Gulbenes,Daukstes,LV-4429
Gulbenes,Krapa,LV-4429
Iecavas,Audrupi,LV-3913
Iecavas,Dimzukalns,LV-3913
Iecavas,Dzelzamurs,LV-3913
Iecavas,Dzimtmisa,LV-3913
Iecavas,Iecava,LV-3913
Iecavas,Rosme,LV-3913
Iecavas,Zalite,LV-3913
Iecavas,Zorgi,LV-3913
Ikskiles,Aizupes,LV-5001
Ikskiles,Ceplisi,LV-5015
Ikskiles,Dobelnieki,LV-5015
Ikskiles,Kalnaji,LV-5015
Ikskiles,Kancersili,LV-5015
Ikskiles,Tinuzi,LV-5015
Ikskiles,Turkalne,LV-5015
Ikskiles,Saulesdarzs,LV-5052
Ikskiles,Tinuzi,LV-5052
Ilukstes,Bebrene,LV-5439
Ilukstes,Ilze,LV-5439
Ilukstes,Dviete,LV-5441
Ilukstes,Baltmuiza,LV-5444
Ilukstes,Eglaine,LV-5444
Ilukstes,Vitkuski,LV-5444
Ilukstes,DoLnaja,LV-5447
Ilukstes,Pilskalne,LV-5447
Ilukstes,Baltmuiza,LV-5471
Ilukstes,Pasuliene,LV-5474
Ilukstes,Rauda,LV-5474
Ilukstes,sedere,LV-5474
Incukalna,Griki,LV-2136
Incukalna,Incukalns,LV-2136
Incukalna,Krustini,LV-2136
Incukalna,Meza miers,LV-2136
Incukalna,Gauja,LV-2140
Incukalna,Indrani,LV-2140
Incukalna,EgLupe,LV-2141
Incukalna,Incukalns,LV-2141
Incukalna,Indrani,LV-2141
Incukalna,KLavas,LV-2141
Incukalna,Krustini,LV-2141
Jaunjelgavas,Daudzese,LV-5111
Jaunjelgavas,Daudzeva,LV-5111
Jaunjelgavas,Diki,LV-5123
Jaunjelgavas,Lielziedi,LV-5123
Jaunjelgavas,Melleni,LV-5123
Jaunjelgavas,Serene,LV-5123
Jaunjelgavas,Talsini,LV-5123
Jaunjelgavas,Bitani,LV-5124
Jaunjelgavas,Purvini,LV-5124
Jaunjelgavas,Sece,LV-5124
Jaunjelgavas,Ziedani,LV-5124
Jaunjelgavas,Staburags,LV-5128
Jaunjelgavas,Sunakste,LV-5130
Jaunjelgavas,Jaunjelgavas,LV-5134
Jaunpiebalgas,Abrupe,LV-4125
Jaunpiebalgas,Jaunpiebalga,LV-4125
Jaunpiebalgas,Melnbarzi,LV-4133
Jaunpils,Ravi,LV-3142
Jaunpils,Viesatas,LV-3142
Jaunpils,Brandavas,LV-3145
Jaunpils,Jaunpils,LV-3145
Jaunpils,Jaunsezi,LV-3145
Jaunpils,Josti,LV-3145
Jaunpils,Jurgi,LV-3145
Jaunpils,Leveste,LV-3145
Jaunpils,Saule,LV-3145
Jaunpils,Strutele,LV-3145
Jaunpils,Struteles muiza,LV-3145
Jaunpils,Veclauki,LV-3145
Jekabpils,Brodi,LV-5201
Jekabpils,Jekabpils,LV-5201
Jekabpils,Jekabpils,LV-5202
Jekabpils,abeLi,LV-5212
Jekabpils,Brodi,LV-5212
Jekabpils,Lasi,LV-5212
Jekabpils,Vandani,LV-5215
Jekabpils,Dunava,LV-5216
Jekabpils,Sudrabkalns,LV-5216
Jekabpils,Dubulti,LV-5220
Jekabpils,Vidsala,LV-5220
Jekabpils,Liepas,LV-5221
Jekabpils,Leimani,LV-5223
Jekabpils,Mezgale,LV-5223
Jekabpils,Kaldabruna,LV-5229
Jekabpils,Rubeni,LV-5229
Jekabpils,Slate,LV-5229
Jekabpils,Zasa,LV-5239
Jelgava,Jelgava,LV-3001
Jelgava,Jelgava,LV-3002
Jelgava,Jelgava,LV-3003
Jelgava,Jelgava,LV-3004
Jelgava,Jelgava,LV-3007
Jelgava,Jelgava,LV-3008
Jelgava,Jelgava,LV-3018
Jelgavas,Karnini,LV-3001
Jelgavas,Mezciems,LV-3001
Jelgavas,Tuski,LV-3003
Jelgavas,Varpa,LV-3003
Jelgavas,Viesturciems,LV-3003
Jelgavas,Atputa,LV-3008
Jelgavas,Svete,LV-3008
Jelgavas,ZaLenieki,LV-3011
Jelgavas,Livberze,LV-3014
Jelgavas,Kalnciems,LV-3016
Jelgavas,Poki,LV-3016
Jelgavas,KaLkis,LV-3017
Jelgavas,TireLi,LV-3017
Jelgavas,Valgunde,LV-3017
Jelgavas,Vitolini,LV-3017
Jelgavas,Vircava,LV-3020
Jelgavas,Platone,LV-3021
Jelgavas,Poki,LV-3021
Jelgavas,Lielplatone,LV-3022
Jelgavas,Sidrabe,LV-3022
Jelgavas,Eleja,LV-3023
Jelgavas,Vilce,LV-3026
Jelgavas,Ziedkalne,LV-3026
Jelgavas,Jekabnieki,LV-3028
Jelgavas,Dzirnieki,LV-3031
Jelgavas,StaLgene,LV-3031
Jelgavas,Vecsvirlauka,LV-3031
Jelgavas,Bervircava,LV-3034
Jelgavas,Sesava,LV-3034
Jelgavas,Lielvircava,LV-3036
Jelgavas,Oglaine,LV-3036
Jelgavas,Platone,LV-3036
Jelgavas,Mazlauki,LV-3037
Jelgavas,Dorupe,LV-3040
Jelgavas,Nakotne,LV-3040
Jelgavas,Viesturciems,LV-3040
Jelgavas,Zemgale,LV-3040
Jurmala,Jurmala,LV-2008
Jurmala,Jurmala,LV-2010
Jurmala,Jurmala,LV-2011
Jurmala,Jurmala,LV-2012
Jurmala,Jurmala,LV-2015
Jurmala,Jurmala,LV-2016
Kandavas,Valdeki,LV-3120
Kandavas,Cere,LV-3122
Kandavas,Vane,LV-3131
Kandavas,Matkule,LV-3132
Kandavas,Zante,LV-3134
Kandavas,Grenci,LV-3135
Kandavas,Zemite,LV-3135
Karsavas,Antonovka,LV-5704
Karsavas,Baranovka,LV-5704
Karsavas,cenceva,LV-5704
Karsavas,Donikova,LV-5704
Karsavas,Goliseva,LV-5704
Karsavas,Lamoni,LV-5704
Karsavas,Misenskie,LV-5704
Karsavas,nivji,LV-5704
Karsavas,Orehovka,LV-5704
Karsavas,Plotnickie,LV-5704
Karsavas,PokuLi,LV-5704
Karsavas,Pustoska,LV-5704
Karsavas,Strauja,LV-5704
Karsavas,SvetLici,LV-5704
Karsavas,Trupi,LV-5704
Karsavas,Zahari,LV-5704
Karsavas,ZeLci,LV-5704
Karsavas,Ancani,LV-5717
Karsavas,Barkani,LV-5717
Karsavas,Bozova,LV-5717
Karsavas,Buzinkova,LV-5717
Karsavas,cavi,LV-5717
Karsavas,cudari,LV-5717
Karsavas,Dagusova,LV-5717
Karsavas,Drikaski,LV-5717
Karsavas,DzierkaLova,LV-5717
Karsavas,Grebnova,LV-5717
Karsavas,ijevka,LV-5717
Karsavas,Jeci,LV-5717
Karsavas,Kabulova,LV-5717
Karsavas,Kapacova,LV-5717
Karsavas,Karsavas stacija,LV-5717
Karsavas,Kaskani,LV-5717
Karsavas,Kokari,LV-5717
Karsavas,Kriveni,LV-5717
Karsavas,Lapova,LV-5717
Karsavas,Leidumniki,LV-5717
Karsavas,Lemesova,LV-5717
Karsavas,Linuzi,LV-5717
Karsavas,Livziniki,LV-5717
Karsavas,Locukolni,LV-5717
Karsavas,Lozdova,LV-5717
Karsavas,Lugi,LV-5717
Karsavas,Lukstiniki,LV-5717
Karsavas,Lurbova,LV-5717
Karsavas,Meitri,LV-5717
Karsavas,Micuri,LV-5717
Karsavas,MihaLcenki,LV-5717
Karsavas,Morozovka,LV-5717
Karsavas,Naglani,LV-5717
Karsavas,Nesteri,LV-5717
Karsavas,Oponosi,LV-5717
Karsavas,Orinski,LV-5717
Karsavas,Orlani,LV-5717
Karsavas,Otra Bozova,LV-5717
Karsavas,Petinova,LV-5717
Karsavas,Rogi,LV-5717
Karsavas,Rudinova,LV-5717
Karsavas,Saliniki,LV-5717
Karsavas,Skobulina,LV-5717
Karsavas,snitki,LV-5717
Karsavas,Soldoni,LV-5717
Karsavas,Stabule,LV-5717
Karsavas,Sutri,LV-5717
Karsavas,SvikLi,LV-5717
Karsavas,Tipani,LV-5717
Karsavas,Tronova,LV-5717
Karsavas,Ubagova,LV-5717
Karsavas,Vilgi,LV-5717
Karsavas,Zastinski,LV-5717
Karsavas,Zibla,LV-5717
Karsavas,Aglupisi,LV-5725
Karsavas,Annasmuiza,LV-5725
Karsavas,Augstikolni,LV-5725
Karsavas,Barani,LV-5725
Karsavas,BeLova,LV-5725
Karsavas,Boksi,LV-5725
Karsavas,Bringi,LV-5725
Karsavas,Dubinova,LV-5725
Karsavas,Dunduri,LV-5725
Karsavas,Dzerves,LV-5725
Karsavas,Ezerniki,LV-5725
Karsavas,Goreisi,LV-5725
Karsavas,Ivanova,LV-5725
Karsavas,Jakulinski,LV-5725
Karsavas,JaudzemLi,LV-5725
Karsavas,Jaunivanova,LV-5725
Karsavas,Kaki,LV-5725
Karsavas,Kakuci,LV-5725
Karsavas,Kaspari,LV-5725
Karsavas,Korkliniki,LV-5725
Karsavas,Kozuli,LV-5725
Karsavas,Kroleisi,LV-5725
Karsavas,Laksiniki,LV-5725
Karsavas,Lepeste,LV-5725
Karsavas,Liuziniki,LV-5725
Karsavas,Logini,LV-5725
Karsavas,Masli,LV-5725
Karsavas,Meikulani,LV-5725
Karsavas,Mezaincuki,LV-5725
Karsavas,Mezmala,LV-5725
Karsavas,Mezvidi,LV-5725
Karsavas,Mikazani,LV-5725
Karsavas,Motori,LV-5725
Karsavas,Padole,LV-5725
Karsavas,Pusloci,LV-5725
Karsavas,Pustapole,LV-5725
Karsavas,Rejeni,LV-5725
Karsavas,RumpLi,LV-5725
Karsavas,Saliniki,LV-5725
Karsavas,SeiLi,LV-5725
Karsavas,Skupova,LV-5725
Karsavas,SkuteLi,LV-5725
Karsavas,StapuLi,LV-5725
Karsavas,Stibriniki,LV-5725
Karsavas,Viecinani,LV-5725
Karsavas,Baranova,LV-5726
Karsavas,Boltani,LV-5726
Karsavas,cieri,LV-5726
Karsavas,Dekterova,LV-5726
Karsavas,Diervanisi,LV-5726
Karsavas,Grabezova,LV-5726
Karsavas,Kapacova,LV-5726
Karsavas,Kitkova,LV-5726
Karsavas,Kozukolni,LV-5726
Karsavas,Kravcovka,LV-5726
Karsavas,Krivu Stiglova,LV-5726
Karsavas,Lapatniki,LV-5726
Karsavas,Latvisu Stiglova,LV-5726
Karsavas,Malzubri,LV-5726
Karsavas,Merdzene,LV-5726
Karsavas,Mihalova,LV-5726
Karsavas,Miski,LV-5726
Karsavas,Parsikova,LV-5726
Karsavas,Pudinava,LV-5726
Karsavas,Repki,LV-5726
Karsavas,Ruzori,LV-5726
Karsavas,salaji,LV-5726
Karsavas,Samusi,LV-5726
Karsavas,SilagaiLi,LV-5726
Karsavas,Siliniki,LV-5726
Karsavas,Silkani,LV-5726
Karsavas,skirmanti,LV-5726
Karsavas,Sloboda,LV-5726
Karsavas,Tabulova,LV-5726
Karsavas,Vacpiragova,LV-5726
Karsavas,Asisola,LV-5737
Karsavas,Brizi,LV-5737
Karsavas,Buzdi,LV-5737
Karsavas,Gadziuni,LV-5737
Karsavas,Gogosova,LV-5737
Karsavas,Griudinisi,LV-5737
Karsavas,Kaprani,LV-5737
Karsavas,keiseLi,LV-5737
Karsavas,Klonesniki,LV-5737
Karsavas,Kokori,LV-5737
Karsavas,Kopci,LV-5737
Karsavas,Liuziniki,LV-5737
Karsavas,Mezvidi,LV-5737
Karsavas,Mortuzani,LV-5737
Karsavas,Otrie Liuziniki,LV-5737
Karsavas,Otrie Mezvidi,LV-5737
Karsavas,Pliesi,LV-5737
Karsavas,Ranci,LV-5737
Karsavas,Rogukolni,LV-5737
Karsavas,Rulani,LV-5737
Karsavas,Skaisti,LV-5737
Karsavas,Strodi,LV-5737
Karsavas,Sunevisi,LV-5737
Karsavas,uzulniki,LV-5737
Karsavas,AizeLksni,LV-5740
Karsavas,Aizsili,LV-5740
Karsavas,Bieleni,LV-5740
Karsavas,BLasi,LV-5740
Karsavas,Cisovka,LV-5740
Karsavas,Diuksts,LV-5740
Karsavas,Elstes,LV-5740
Karsavas,KaLvina,LV-5740
Karsavas,Kaupuzi,LV-5740
Karsavas,KeiseLova,LV-5740
Karsavas,Korecki,LV-5740
Karsavas,Kozukolns,LV-5740
Karsavas,Krutova,LV-5740
Karsavas,Kukova,LV-5740
Karsavas,Lipusola,LV-5740
Karsavas,Liuziniki,LV-5740
Karsavas,Lubenka,LV-5740
Karsavas,Mezarejas,LV-5740
Karsavas,Numierna,LV-5740
Karsavas,Ostrani,LV-5740
Karsavas,Pirma Bozova,LV-5740
Karsavas,Pliesova,LV-5740
Karsavas,Ruskulova,LV-5740
Karsavas,Sala,LV-5740
Karsavas,Salnava,LV-5740
Karsavas,Sausiniki,LV-5740
Karsavas,Stendzi,LV-5740
Karsavas,UguLova,LV-5740
Karsavas,Vareiki,LV-5740
Karsavas,VerpeLi,LV-5740
Karsavas,Zaceski,LV-5740
Karsavas,zeikari,LV-5740
Karsavas,ZobLova,LV-5740
Karsavas,zurlova,LV-5740
Karsavas,Berzovka,LV-5750
Karsavas,irubine,LV-5750
Karsavas,Kukari,LV-5750
Karsavas,Liela Bandarova,LV-5750
Karsavas,Liela ZeLcova,LV-5750
Karsavas,Malnava,LV-5750
Karsavas,Malnavas fermas,LV-5750
Karsavas,Maza Bandarova,LV-5750
Karsavas,Maza ZeLcova,LV-5750
Karsavas,Moseji,LV-5750
Karsavas,Novoselki,LV-5750
Karsavas,Straujenka,LV-5750
Keguma,Glazskunis,LV-5016
Keguma,Ozolkalni,LV-5016
Keguma,Rembate,LV-5016
Keguma,Araji,LV-5020
Keguma,Bekuciems,LV-5020
Keguma,Berkava,LV-5020
Keguma,Rutki,LV-5020
Keguma,Tome,LV-5020
Keguma,Birzgale,LV-5033
Keguma,Grauzupes,LV-5070
Keguma,Rembate,LV-5071
Kekavas,Valdlauci,LV-1076
Kekavas,Alejas,LV-2111
Kekavas,Katlakalns,LV-2111
Kekavas,kekava,LV-2111
Kekavas,Krogsils,LV-2111
Kekavas,Krustkalni,LV-2111
Kekavas,Lapenieki,LV-2111
Kekavas,Ramava,LV-2111
Kekavas,Skujnieki,LV-2111
Kekavas,Valdlauci,LV-2111
Kekavas,Vimbukrogs,LV-2111
Kekavas,Balozi,LV-2112
Kekavas,Dzerumi,LV-2113
Kekavas,Mellupi,LV-2113
Kekavas,Misas,LV-2113
Kekavas,Plakanciems,LV-2113
Kekavas,Berzmente,LV-2123
Kekavas,Jaunsils,LV-2123
Kekavas,Jenci,LV-2123
Kekavas,Katlakalns,LV-2123
Kekavas,Katrinmuiza,LV-2123
Kekavas,kekava,LV-2123
Kekavas,Krogsils,LV-2123
Kekavas,Lielvarzi,LV-2123
Kekavas,Misas,LV-2123
Kekavas,Odukalns,LV-2123
Kekavas,Pulkarne,LV-2123
Kekavas,Saulgozi,LV-2123
Kekavas,Skujnieki,LV-2123
Kekavas,Vimbukrogs,LV-2123
Kekavas,Daugmale,LV-2124
Kekavas,Dzintari,LV-2124
Kekavas,Balozi,LV-2128
Kocenu,Berzaine,LV-4208
Kocenu,BrandeLi,LV-4220
Kocenu,Koceni,LV-4220
Kocenu,Zilaiskalns,LV-4222
Kocenu,DauguLi,LV-4223
Kocenu,DikLi,LV-4223
Kocenu,Rubene,LV-4227
Kocenu,Vaidava,LV-4228
Kokneses,Irsi,LV-5108
Kokneses,Bormani,LV-5113
Kokneses,Koknese,LV-5113
Kokneses,Vecbebri,LV-5135
Kraslavas,Adamova,LV-5601
Kraslavas,Aispuri,LV-5601
Kraslavas,Augstkalne,LV-5601
Kraslavas,Baltica,LV-5601
Kraslavas,Baltini,LV-5601
Kraslavas,Bancani,LV-5601
Kraslavas,Bartkevici,LV-5601
Kraslavas,Cauni,LV-5601
Kraslavas,Ceplisi,LV-5601
Kraslavas,Cimoskas,LV-5601
Kraslavas,Ezerkalns,LV-5601
Kraslavas,Gerini,LV-5601
Kraslavas,gerki,LV-5601
Kraslavas,Gintauti,LV-5601
Kraslavas,GribuLi,LV-5601
Kraslavas,Jurani,LV-5601
Kraslavas,Kalna RomuLi,LV-5601
Kraslavas,Kazanova,LV-5601
Kraslavas,Kozindi,LV-5601
Kraslavas,KrasnoLenka,LV-5601
Kraslavas,Krivini,LV-5601
Kraslavas,Krumpani,LV-5601
Kraslavas,Lejas RomuLi,LV-5601
Kraslavas,Lemesovka,LV-5601
Kraslavas,Lielie Kusini,LV-5601
Kraslavas,Liucani,LV-5601
Kraslavas,Ludvikova,LV-5601
Kraslavas,Mazie Kusini,LV-5601
Kraslavas,Miglani,LV-5601
Kraslavas,Naudisi,LV-5601
Kraslavas,Otrie Tracumi,LV-5601
Kraslavas,Pankjani,LV-5601
Kraslavas,Parpuci,LV-5601
Kraslavas,Pastari,LV-5601
Kraslavas,Pirmie Tracumi,LV-5601
Kraslavas,Podboroks,LV-5601
Kraslavas,Prinosini,LV-5601
Kraslavas,Pukjani,LV-5601
Kraslavas,Pukjaniski,LV-5601
Kraslavas,Rakuti,LV-5601
Kraslavas,Rimsani,LV-5601
Kraslavas,Rusaki,LV-5601
Kraslavas,Saksoni,LV-5601
Kraslavas,Skerskani,LV-5601
Kraslavas,Skumbini,LV-5601
Kraslavas,Stacija Kraslava,LV-5601
Kraslavas,Stasani,LV-5601
Kraslavas,Stoli,LV-5601
Kraslavas,udrisi,LV-5601
Kraslavas,udrisi 2,LV-5601
Kraslavas,Uzinkalns,LV-5601
Kraslavas,Valeini,LV-5601
Kraslavas,VeiguLi,LV-5601
Kraslavas,Vilmani,LV-5601
Kraslavas,Voini,LV-5601
Kraslavas,Augustiniski,LV-5651
Kraslavas,Borovka,LV-5651
Kraslavas,Dunski,LV-5651
Kraslavas,Glaudani,LV-5651
Kraslavas,Kaplava,LV-5651
Kraslavas,Lielie MuLki,LV-5651
Kraslavas,Mazie MuLki,LV-5651
Kraslavas,Misjuni,LV-5651
Kraslavas,Noviki,LV-5651
Kraslavas,Odigjani,LV-5651
Kraslavas,Plocini,LV-5651
Kraslavas,Stigevici,LV-5651
Kraslavas,Tartaks,LV-5651
Kraslavas,Uzingorska,LV-5651
Kraslavas,VeceLi,LV-5651
Kraslavas,ZapoLniki,LV-5651
Kraslavas,Bernadski,LV-5652
Kraslavas,Berzine,LV-5652
Kraslavas,Butani,LV-5652
Kraslavas,Celitani,LV-5652
Kraslavas,Elisi,LV-5652
Kraslavas,Gubernati,LV-5652
Kraslavas,HmeLnicki,LV-5652
Kraslavas,Izvalta,LV-5652
Kraslavas,Jaunie Racini,LV-5652
Kraslavas,Kalna Bolini,LV-5652
Kraslavas,Kalna Japini,LV-5652
Kraslavas,Kalvisi,LV-5652
Kraslavas,Klovini,LV-5652
Kraslavas,Kozliski,LV-5652
Kraslavas,Krekeliski,LV-5652
Kraslavas,Kurtisi,LV-5652
Kraslavas,Leikumi,LV-5652
Kraslavas,Lejas Bolini,LV-5652
Kraslavas,Lielie Gengeri,LV-5652
Kraslavas,Lielie Loci,LV-5652
Kraslavas,Lielie Murani,LV-5652
Kraslavas,Lielie OnzuLi,LV-5652
Kraslavas,Lielie PokuLi,LV-5652
Kraslavas,Lielie skipori,LV-5652
Kraslavas,Lielie Stivrini,LV-5652
Kraslavas,Lielie TruLi,LV-5652
Kraslavas,Lielie Valaini,LV-5652
Kraslavas,Livkani,LV-5652
Kraslavas,Mazie gengeri,LV-5652
Kraslavas,Mazie Loci,LV-5652
Kraslavas,Mazie Murani,LV-5652
Kraslavas,Mazie OnzuLi,LV-5652
Kraslavas,Mazie PokuLi,LV-5652
Kraslavas,Mazie skipori,LV-5652
Kraslavas,Mazie Stivrini,LV-5652
Kraslavas,Mazie Suveizdi,LV-5652
Kraslavas,Mazie TruLi,LV-5652
Kraslavas,Mazie Valaini,LV-5652
Kraslavas,Meza Japini,LV-5652
Kraslavas,Meza Suveizdi,LV-5652
Kraslavas,Naini,LV-5652
Kraslavas,Pitrini,LV-5652
Kraslavas,Pupiki,LV-5652
Kraslavas,Rimsani,LV-5652
Kraslavas,Sprugi,LV-5652
Kraslavas,Stacija Izvalda,LV-5652
Kraslavas,Stacija Silava,LV-5652
Kraslavas,Sturmovici,LV-5652
Kraslavas,Torpani,LV-5652
Kraslavas,Tukani,LV-5652
Kraslavas,Undrukani,LV-5652
Kraslavas,ZeiLi,LV-5652
Kraslavas,zmuidzini,LV-5652
Kraslavas,Andzani,LV-5656
Kraslavas,Asari,LV-5656
Kraslavas,Banceniskas,LV-5656
Kraslavas,Bauriskas,LV-5656
Kraslavas,Boluzi,LV-5656
Kraslavas,Bragas,LV-5656
Kraslavas,caupi,LV-5656
Kraslavas,Cihani,LV-5656
Kraslavas,Cimoskas,LV-5656
Kraslavas,DobromiLa,LV-5656
Kraslavas,Dombrova,LV-5656
Kraslavas,Dricmuiza,LV-5656
Kraslavas,Dzalbi,LV-5656
Kraslavas,gerini,LV-5656
Kraslavas,GribuLi,LV-5656
Kraslavas,Jadlovci,LV-5656
Kraslavas,Kebzeri,LV-5656
Kraslavas,KombuLi,LV-5656
Kraslavas,Kropiskas,LV-5656
Kraslavas,Krumpani,LV-5656
Kraslavas,Kudini,LV-5656
Kraslavas,Kursisi,LV-5656
Kraslavas,Kusini,LV-5656
Kraslavas,Lakses,LV-5656
Kraslavas,Lielie Unguri,LV-5656
Kraslavas,Lielie Zimaizi,LV-5656
Kraslavas,Ludzeisi,LV-5656
Kraslavas,MateLi,LV-5656
Kraslavas,Mazie Unguri,LV-5656
Kraslavas,Mazie Zimaizi,LV-5656
Kraslavas,Pitrani,LV-5656
Kraslavas,Pizani,LV-5656
Kraslavas,Plataci,LV-5656
Kraslavas,Plintes,LV-5656
Kraslavas,Pliuci,LV-5656
Kraslavas,Plocini,LV-5656
Kraslavas,Rimsani,LV-5656
Kraslavas,RomuLi,LV-5656
Kraslavas,Sarkanais Rags,LV-5656
Kraslavas,Seneitis,LV-5656
Kraslavas,Skadini,LV-5656
Kraslavas,SkrebeLi,LV-5656
Kraslavas,skutani,LV-5656
Kraslavas,Soleimi,LV-5656
Kraslavas,Turki,LV-5656
Kraslavas,VagaLi,LV-5656
Kraslavas,Valdiniskas,LV-5656
Kraslavas,Vanagi,LV-5656
Kraslavas,Vidoki,LV-5656
Kraslavas,VirveLi,LV-5656
Kraslavas,Virveliskas,LV-5656
Kraslavas,Vonogi,LV-5656
Kraslavas,Voronkas,LV-5656
Kraslavas,Zubri,LV-5656
Kraslavas,zuras,LV-5656
Kraslavas,Andzani,LV-5660
Kraslavas,Atgoniski,LV-5660
Kraslavas,Baldeniski,LV-5660
Kraslavas,Baltica,LV-5660
Kraslavas,Baltina,LV-5660
Kraslavas,Bindari,LV-5660
Kraslavas,Borovka,LV-5660
Kraslavas,caupi,LV-5660
Kraslavas,Caurumi,LV-5660
Kraslavas,Daudzisi,LV-5660
Kraslavas,DauguLi,LV-5660
Kraslavas,Dervaniski,LV-5660
Kraslavas,Dilbi,LV-5660
Kraslavas,Dorotpole,LV-5660
Kraslavas,Dubrovka,LV-5660
Kraslavas,Evarti,LV-5660
Kraslavas,Felicianova,LV-5660
Kraslavas,Grabeziski,LV-5660
Kraslavas,Jaloveckaja Gora,LV-5660
Kraslavas,Juhniki,LV-5660
Kraslavas,Juragova,LV-5660
Kraslavas,Kacani,LV-5660
Kraslavas,Kalna Vikaini,LV-5660
Kraslavas,Kalniesi,LV-5660
Kraslavas,Karoliski,LV-5660
Kraslavas,Kazimirova,LV-5660
Kraslavas,Kokini,LV-5660
Kraslavas,Kurpnieki,LV-5660
Kraslavas,Leiniki,LV-5660
Kraslavas,Lielindrica,LV-5660
Kraslavas,Livcani,LV-5660
Kraslavas,Lonki,LV-5660
Kraslavas,Lukati,LV-5660
Kraslavas,Lukstani,LV-5660
Kraslavas,Noviki,LV-5660
Kraslavas,NovoseLci,LV-5660
Kraslavas,Obrocnaja Statja,LV-5660
Kraslavas,Otrie Rukmani,LV-5660
Kraslavas,Pakuliski,LV-5660
Kraslavas,Paulinova,LV-5660
Kraslavas,PeLniki,LV-5660
Kraslavas,Podgurje,LV-5660
Kraslavas,Podzi,LV-5660
Kraslavas,Raudaviski,LV-5660
Kraslavas,Ringi,LV-5660
Kraslavas,Rukmani,LV-5660
Kraslavas,sakini,LV-5660
Kraslavas,Silovi,LV-5660
Kraslavas,Sloboda,LV-5660
Kraslavas,Spalvi,LV-5660
Kraslavas,Spalviski,LV-5660
Kraslavas,Stacija Skaista,LV-5660
Kraslavas,Stainiski,LV-5660
Kraslavas,Stalti,LV-5660
Kraslavas,Stirniski,LV-5660
Kraslavas,Streiki,LV-5660
Kraslavas,Taulinova,LV-5660
Kraslavas,Trestiski,LV-5660
Kraslavas,TruseLi,LV-5660
Kraslavas,Vaicuki,LV-5660
Kraslavas,VeceLi,LV-5660
Kraslavas,Vikaini,LV-5660
Kraslavas,Vonogi,LV-5660
Kraslavas,Zarembovka,LV-5660
Kraslavas,Zatisje,LV-5660
Kraslavas,Aleksandrova,LV-5662
Kraslavas,Berjozki,LV-5662
Kraslavas,Berjozovka,LV-5662
Kraslavas,Cirmani,LV-5662
Kraslavas,Domnopole,LV-5662
Kraslavas,Dvorcani,LV-5662
Kraslavas,Gorbacova,LV-5662
Kraslavas,KiseLevci,LV-5662
Kraslavas,Koskovci,LV-5662
Kraslavas,KrivoseLci,LV-5662
Kraslavas,KuLbova,LV-5662
Kraslavas,Lazoviki,LV-5662
Kraslavas,Lupandi,LV-5662
Kraslavas,Makni,LV-5662
Kraslavas,Marki,LV-5662
Kraslavas,Patarnieki,LV-5662
Kraslavas,Piedruja,LV-5662
Kraslavas,skLarovscina,LV-5662
Kraslavas,Stremki,LV-5662
Kraslavas,Toloevci,LV-5662
Kraslavas,AuguLi,LV-5664
Kraslavas,BaLbinova,LV-5664
Kraslavas,Balta,LV-5664
Kraslavas,BartuLi,LV-5664
Kraslavas,Butkunova,LV-5664
Kraslavas,DargeLeva,LV-5664
Kraslavas,FiLipovci,LV-5664
Kraslavas,Geidani,LV-5664
Kraslavas,Gorodisce,LV-5664
Kraslavas,Indra,LV-5664
Kraslavas,Izova,LV-5664
Kraslavas,JaneLeva,LV-5664
Kraslavas,Karklinova,LV-5664
Kraslavas,Kelova,LV-5664
Kraslavas,KevreLeva,LV-5664
Kraslavas,Kikovscina,LV-5664
Kraslavas,KLasi,LV-5664
Kraslavas,Kravconki,LV-5664
Kraslavas,Kuzmini,LV-5664
Kraslavas,Laposki,LV-5664
Kraslavas,Melna,LV-5664
Kraslavas,Naktjunova,LV-5664
Kraslavas,Ostrovna,LV-5664
Kraslavas,Petrovscina,LV-5664
Kraslavas,Rusakova,LV-5664
Kraslavas,Saveiki,LV-5664
Kraslavas,Savenci,LV-5664
Kraslavas,Semjoski,LV-5664
Kraslavas,snokova,LV-5664
Kraslavas,Udinova,LV-5664
Kraslavas,VaicuLeva,LV-5664
Kraslavas,Vaivodi,LV-5664
Kraslavas,Zareki,LV-5664
Kraslavas,ZeLonscina,LV-5664
Kraslavas,Andinova,LV-5666
Kraslavas,AuguLova,LV-5666
Kraslavas,Blusi,LV-5666
Kraslavas,Borisovka,LV-5666
Kraslavas,Borovina,LV-5666
Kraslavas,Brogi,LV-5666
Kraslavas,cerepova,LV-5666
Kraslavas,Denisova,LV-5666
Kraslavas,Dunci,LV-5666
Kraslavas,Gelutjova,LV-5666
Kraslavas,Gromiki,LV-5666
Kraslavas,Ikazenci,LV-5666
Kraslavas,Jalova,LV-5666
Kraslavas,Jonini,LV-5666
Kraslavas,KaLedovka,LV-5666
Kraslavas,Kazinova,LV-5666
Kraslavas,Koveriski,LV-5666
Kraslavas,Krumani,LV-5666
Kraslavas,Kseverova,LV-5666
Kraslavas,Kuhtiski,LV-5666
Kraslavas,Kulakiski,LV-5666
Kraslavas,Lumani,LV-5666
Kraslavas,Maksimova,LV-5666
Kraslavas,Masani,LV-5666
Kraslavas,MeLevscina,LV-5666
Kraslavas,Mihalova,LV-5666
Kraslavas,Mikova,LV-5666
Kraslavas,NauLani,LV-5666
Kraslavas,Niksani,LV-5666
Kraslavas,Noviki,LV-5666
Kraslavas,Okolica,LV-5666
Kraslavas,Padari,LV-5666
Kraslavas,Parahovna,LV-5666
Kraslavas,PavLinova,LV-5666
Kraslavas,Pipiri,LV-5666
Kraslavas,Pleiki,LV-5666
Kraslavas,Plitarova,LV-5666
Kraslavas,Podleskova,LV-5666
Kraslavas,Podozerci,LV-5666
Kraslavas,Pupiki,LV-5666
Kraslavas,Robeznieki,LV-5666
Kraslavas,SinkeLi,LV-5666
Kraslavas,Skuki,LV-5666
Kraslavas,Stanislavova,LV-5666
Kraslavas,Suhorukova,LV-5666
Kraslavas,TeLezki,LV-5666
Kraslavas,Zaharova,LV-5666
Kraslavas,zakeLi,LV-5666
Kraslavas,Zarecje,LV-5666
Kraslavas,Zareniski,LV-5666
Kraslavas,zurilova,LV-5666
Kraslavas,Bangas,LV-5668
Kraslavas,Dvorisci,LV-5668
Kraslavas,GaiseLi,LV-5668
Kraslavas,Gaspari,LV-5668
Kraslavas,Kaplava,LV-5668
Kraslavas,Matuliski,LV-5668
Kraslavas,Rozupole,LV-5668
Kraslavas,Saulkrasti,LV-5668
Kraslavas,StirbLi,LV-5668
Kraslavas,Tenki,LV-5668
Kraslavas,Upmale,LV-5668
Kraslavas,Upmaliesi,LV-5668
Kraslavas,Varnavici,LV-5668
Kraslavas,Vecborne,LV-5668
Kraslavas,Veckaplava,LV-5668
Kraslavas,Zimasi,LV-5668
Kraslavas,Bebrisi,LV-5671
Kraslavas,Berniski,LV-5671
Kraslavas,Bluzmi,LV-5671
Kraslavas,Bogdani,LV-5671
Kraslavas,Brenciski,LV-5671
Kraslavas,cencupi,LV-5671
Kraslavas,Dembovci,LV-5671
Kraslavas,Ezerini,LV-5671
Kraslavas,Gaugariski,LV-5671
Kraslavas,Glagaci,LV-5671
Kraslavas,Grundani,LV-5671
Kraslavas,Indrica,LV-5671
Kraslavas,Kaliskas,LV-5671
Kraslavas,Kazimirova,LV-5671
Kraslavas,Kazinci,LV-5671
Kraslavas,Kotolnieki,LV-5671
Kraslavas,Kuliniski,LV-5671
Kraslavas,Laksi,LV-5671
Kraslavas,Lejas TruseLi,LV-5671
Kraslavas,Lesniki,LV-5671
Kraslavas,Lipini,LV-5671
Kraslavas,Lonki,LV-5671
Kraslavas,Ludviki,LV-5671
Kraslavas,Luni,LV-5671
Kraslavas,nemcinova,LV-5671
Kraslavas,Ornicani,LV-5671
Kraslavas,Orupi,LV-5671
Kraslavas,Otra Skaista,LV-5671
Kraslavas,Otrie Zukuliski,LV-5671
Kraslavas,Pipini,LV-5671
Kraslavas,Pirma Skaista,LV-5671
Kraslavas,Pirmie Zukuliski,LV-5671
Kraslavas,PodLesicas,LV-5671
Kraslavas,Pouriski,LV-5671
Kraslavas,PuncuLi,LV-5671
Kraslavas,Putani,LV-5671
Kraslavas,Puzi,LV-5671
Kraslavas,Romuliski,LV-5671
Kraslavas,SeikaLi,LV-5671
Kraslavas,Skaista,LV-5671
Kraslavas,Skradeli,LV-5671
Kraslavas,Smildiski,LV-5671
Kraslavas,Stoli,LV-5671
Kraslavas,Stolniki,LV-5671
Kraslavas,Teneismuiza,LV-5671
Kraslavas,Trapciski,LV-5671
Kraslavas,Treikaniski,LV-5671
Kraslavas,Truseliski,LV-5671
Kraslavas,Unzuli,LV-5671
Kraslavas,Vainiski,LV-5671
Kraslavas,Valteri,LV-5671
Kraslavas,VeceLi,LV-5671
Kraslavas,Veterovka,LV-5671
Kraslavas,Veveri,LV-5671
Kraslavas,Anci,LV-5681
Kraslavas,Auleja,LV-5681
Kraslavas,BleideLi,LV-5681
Kraslavas,Braslava,LV-5681
Kraslavas,Buseniski,LV-5681
Kraslavas,cerpinski,LV-5681
Kraslavas,Drongani,LV-5681
Kraslavas,Dzalbi,LV-5681
Kraslavas,Ezergali,LV-5681
Kraslavas,Gritani,LV-5681
Kraslavas,Kalna Podnieki,LV-5681
Kraslavas,Kalvisi,LV-5681
Kraslavas,Lejas Podnieki,LV-5681
Kraslavas,Lielie Doski,LV-5681
Kraslavas,Mateji,LV-5681
Kraslavas,Meza Doski,LV-5681
Kraslavas,Nitiski,LV-5681
Kraslavas,Plotie,LV-5681
Kraslavas,Ramaniski,LV-5681
Kraslavas,Rubeni,LV-5681
Kraslavas,skipi,LV-5681
Kraslavas,VaisLi,LV-5681
Kraslavas,Vanagi,LV-5681
Kraslavas,VeiguLi,LV-5681
Kraslavas,ViLamani,LV-5681
Kraslavas,zaunerani,LV-5681
Kraslavas,Ziperi,LV-5681
Krimuldas,Murjani,LV-2142
Krimuldas,Ragana,LV-2144
Krimuldas,Sunisi,LV-2144
Krimuldas,Inciems,LV-2145
Krimuldas,Turaida,LV-2150
Krimuldas,Ledurga,LV-4012
Krimuldas,Lode,LV-4012
Krustpils,Krustpils,LV-5202
Krustpils,Prizi,LV-5204
Krustpils,Spungeni,LV-5204
Krustpils,Antuzi,LV-5209
Krustpils,Atasiene,LV-5211
Krustpils,Jauna muiza,LV-5222
Krustpils,Kukas,LV-5222
Krustpils,Zilani,LV-5222
Krustpils,Mezare,LV-5226
Krustpils,Medni,LV-5236
Krustpils,Variesi,LV-5236
Krustpils,Vipe,LV-5238
Kuldigas,abele,LV-3301
Kuldigas,Mezvalde,LV-3301
Kuldigas,Priedaine,LV-3301
Kuldigas,Rumbenieki,LV-3301
Kuldigas,Upiskalns,LV-3301
Kuldigas,Venta,LV-3301
Kuldigas,Novadnieki,LV-3309
Kuldigas,edole,LV-3310
Kuldigas,Basi,LV-3312
Kuldigas,Gudenieki,LV-3312
Kuldigas,ivande,LV-3313
Kuldigas,Kabile,LV-3314
Kuldigas,Laidi,LV-3317
Kuldigas,Vanga,LV-3317
Kuldigas,Ozoli,LV-3319
Kuldigas,Renda,LV-3319
Kuldigas,Deksne,LV-3321
Kuldigas,Keramika,LV-3321
Kuldigas,kimale,LV-3321
Kuldigas,Padure,LV-3321
Kuldigas,Pelci,LV-3322
Kuldigas,Snepele,LV-3328
Kuldigas,kikuri,LV-3329
Kuldigas,Turlava,LV-3329
Kuldigas,Sermite,LV-3330
Kuldigas,Valtaiki,LV-3330
Kuldigas,Vilgale,LV-3332
Kuldigas,Varme,LV-3333
Lielvardes,Everti,LV-5011
Lielvardes,Ledmane,LV-5011
Lielvardes,Valodzes,LV-5011
Lielvardes,Dzelmes,LV-5022
Lielvardes,Jumprava,LV-5022
Lielvardes,Kaibala,LV-5070
Liepaja,Liepaja,LV-3401
Liepaja,Liepaja,LV-3402
Liepaja,Liepaja,LV-3405
Liepaja,Liepaja,LV-3407
Liepaja,Liepaja,LV-3411
Liepaja,Liepaja,LV-3414
Liepaja,Liepaja,LV-3416
Liepaja,Liepaja,LV-3430
Ligatnes,Augsligatne,LV-4108
Ligatnes,kempji,LV-4108
Ligatnes,Ratnieki,LV-4108
Ligatnes,SkaLupes,LV-4108
Ligatnes,Ligatne,LV-4110
Limbazu,Ozolaine,LV-4001
Limbazu,Priedes,LV-4001
Limbazu,Umurga,LV-4004
Limbazu,Limbazu,LV-4010
Limbazu,Ladezers,LV-4011
Limbazu,Birini,LV-4013
Limbazu,Gravas,LV-4013
Limbazu,Vidrizi,LV-4013
Limbazu,Lade,LV-4020
Limbazu,Dunte 96,LV-4025
Limbazu,Mandegas,LV-4025
Limbazu,Skulte,LV-4025
Limbazu,Skultes muiza,LV-4025
Limbazu,Varzas,LV-4025
Limbazu,ZiemeLblazma,LV-4025
Limbazu,kirbizi,LV-4050
Limbazu,ViLkene,LV-4050
Limbazu,Vitrupe,LV-4050
Limbazu,arciems,LV-4052
Limbazu,astere,LV-4052
Limbazu,Pale,LV-4052
Limbazu,Pociems,LV-4061
Livanu,Baltie Berzi,LV-5312
Livanu,Beirupurvs,LV-5312
Livanu,Dabari,LV-5312
Livanu,Darvas CepLi,LV-5312
Livanu,Gaini,LV-5312
Livanu,Grugules,LV-5312
Livanu,Ilgsala,LV-5312
Livanu,Kalnapurvs,LV-5312
Livanu,Karsenieki,LV-5312
Livanu,Klaudzinsala,LV-5312
Livanu,Niedrupes,LV-5312
Livanu,Rijas Vecumi,LV-5312
Livanu,Robeznieki,LV-5312
Livanu,Saliesi,LV-5312
Livanu,Smelceja,LV-5312
Livanu,Speleskeiri,LV-5312
Livanu,Stikleri,LV-5312
Livanu,Tilta Gedusi,LV-5312
Livanu,Turki,LV-5312
Livanu,Vanagsils,LV-5312
Livanu,VeceLi,LV-5312
Livanu,Vidsala,LV-5312
Livanu,Vilkaji,LV-5312
Livanu,Vuskarnieki,LV-5312
Livanu,Zundani,LV-5312
Livanu,arini,LV-5315
Livanu,Cirsenieki,LV-5315
Livanu,Darankas,LV-5315
Livanu,Dimanti,LV-5315
Livanu,Gospori,LV-5315
Livanu,Gumertgraveri,LV-5315
Livanu,Iztekas,LV-5315
Livanu,Jersika,LV-5315
Livanu,Kusini,LV-5315
Livanu,Lauri,LV-5315
Livanu,Strodi,LV-5315
Livanu,Sturiski,LV-5315
Livanu,Upenieki,LV-5315
Livanu,Aizpuriesi,LV-5316
Livanu,Birzaki,LV-5316
Livanu,Bucenieki,LV-5316
Livanu,CukuLi,LV-5316
Livanu,Daukstes,LV-5316
Livanu,Dreni,LV-5316
Livanu,Dubnas viensetas,LV-5316
Livanu,Dzalbi,LV-5316
Livanu,Gercani,LV-5316
Livanu,Graveri,LV-5316
Livanu,Iesalnieki,LV-5316
Livanu,Jaudzemi,LV-5316
Livanu,Jaujas,LV-5316
Livanu,Jauna muiza,LV-5316
Livanu,Jaunbirzaki,LV-5316
Livanu,Jaunsilavas,LV-5316
Livanu,Kalvani,LV-5316
Livanu,Kukas,LV-5316
Livanu,Kukusilini,LV-5316
Livanu,Lackaji,LV-5316
Livanu,Lielojuri,LV-5316
Livanu,Lietaunieki,LV-5316
Livanu,Lojani,LV-5316
Livanu,Mucenieki,LV-5316
Livanu,Mukti,LV-5316
Livanu,Pastalojani,LV-5316
Livanu,Peisenieki,LV-5316
Livanu,Petermuiza,LV-5316
Livanu,Siladievini,LV-5316
Livanu,Silasprogi,LV-5316
Livanu,Silavas,LV-5316
Livanu,SkrebeLi,LV-5316
Livanu,Soltumi,LV-5316
Livanu,Stares,LV-5316
Livanu,Stikani,LV-5316
Livanu,Veiguri,LV-5316
Livanu,Vuceni,LV-5316
Livanu,Zepi,LV-5316
Livanu,zogi,LV-5316
Livanu,Babri,LV-5327
Livanu,Gaigalova,LV-5327
Livanu,Gulbinski,LV-5327
Livanu,KazuLi,LV-5327
Livanu,Knutenica,LV-5327
Livanu,Laivacumi,LV-5327
Livanu,Malkalni,LV-5327
Livanu,Malnieki,LV-5327
Livanu,Mednukalns,LV-5327
Livanu,Mezancani,LV-5327
Livanu,Muktupaveli,LV-5327
Livanu,Podusala,LV-5327
Livanu,Rozupe,LV-5327
Livanu,Rubeni,LV-5327
Livanu,Rusenieki,LV-5327
Livanu,Rusinova,LV-5327
Livanu,Skruzmani,LV-5327
Livanu,Sprogi,LV-5327
Livanu,svirksti,LV-5327
Livanu,Vecasala,LV-5327
Livanu,Vilmeniesi,LV-5327
Livanu,Aizpore,LV-5328
Livanu,Aleksandrova,LV-5328
Livanu,Alksniesi,LV-5328
Livanu,Bikaunieki,LV-5328
Livanu,Borovka,LV-5328
Livanu,Brisla,LV-5328
Livanu,Bruveri,LV-5328
Livanu,Bumani,LV-5328
Livanu,Caunes,LV-5328
Livanu,Cielauka,LV-5328
Livanu,cirvolnieki,LV-5328
Livanu,Druvas,LV-5328
Livanu,Eleonorvile,LV-5328
Livanu,Erinbirze,LV-5328
Livanu,Gardriviesi,LV-5328
Livanu,Jaudzemi,LV-5328
Livanu,Kazimirovka,LV-5328
Livanu,Kivlenieki,LV-5328
Livanu,Korsikova,LV-5328
Livanu,Kurcini,LV-5328
Livanu,Lacupi,LV-5328
Livanu,Luzenieki,LV-5328
Livanu,Malkalns,LV-5328
Livanu,Mednevka,LV-5328
Livanu,Mezvidi,LV-5328
Livanu,Nadzezda,LV-5328
Livanu,NicgaLi,LV-5328
Livanu,Novomisle,LV-5328
Livanu,NovoseLje,LV-5328
Livanu,Oskalniesi,LV-5328
Livanu,Peiveliskas,LV-5328
Livanu,Pelecare,LV-5328
Livanu,Pelsi,LV-5328
Livanu,PiLupsola,LV-5328
Livanu,Pintani,LV-5328
Livanu,Rogonovka,LV-5328
Livanu,Rubenkalns,LV-5328
Livanu,Rudzati,LV-5328
Livanu,Rudzetinas,LV-5328
Livanu,Rusini,LV-5328
Livanu,Samuldruva,LV-5328
Livanu,sauri,LV-5328
Livanu,Slicauka,LV-5328
Livanu,Soltupe,LV-5328
Livanu,Spriudi,LV-5328
Livanu,Stanislavova,LV-5328
Livanu,Steki,LV-5328
Livanu,Sumanka,LV-5328
Livanu,Tomini,LV-5328
Livanu,Varpsala,LV-5328
Livanu,Vidi,LV-5328
Livanu,Vilcani,LV-5328
Livanu,Vilkmugure,LV-5328
Livanu,Zalani,LV-5328
Livanu,Apsenieki,LV-5334
Livanu,Babinova,LV-5334
Livanu,Bernani,LV-5334
Livanu,Brencore,LV-5334
Livanu,CeLa OnckuLi,LV-5334
Livanu,cipani,LV-5334
Livanu,Fridrihsgofa,LV-5334
Livanu,IvbuLi,LV-5334
Livanu,KarLi,LV-5334
Livanu,Kauparnieki,LV-5334
Livanu,Kazi,LV-5334
Livanu,KLavsola,LV-5334
Livanu,Krivoki,LV-5334
Livanu,KroLovka,LV-5334
Livanu,Lauda,LV-5334
Livanu,Lipuski,LV-5334
Livanu,Livzenieki,LV-5334
Livanu,Loseva,LV-5334
Livanu,Ludvigova,LV-5334
Livanu,Martinovka,LV-5334
Livanu,Meza OnckuLi,LV-5334
Livanu,Patasiene,LV-5334
Livanu,Pirtsvieta,LV-5334
Livanu,Promi,LV-5334
Livanu,Putkas,LV-5334
Livanu,Ragaviki,LV-5334
Livanu,Rauniesi,LV-5334
Livanu,Rengentova,LV-5334
Livanu,Sanaude,LV-5334
Livanu,Slapkova,LV-5334
Livanu,Sondori,LV-5334
Livanu,sultes,LV-5334
Livanu,Sutri,LV-5334
Livanu,Tiltova,LV-5334
Livanu,ZaLa PLava,LV-5334
Livanu,Znotini,LV-5334
Lubanas,Meirani,LV-4826
Lubanas,Indrani,LV-4830
Ludzas,Andzi,LV-5701
Ludzas,Buruski,LV-5701
Ludzas,EipLi,LV-5701
Ludzas,Isnauda,LV-5701
Ludzas,Jurizdika,LV-5701
Ludzas,Kolnagreci,LV-5701
Ludzas,KovaLki,LV-5701
Ludzas,Kreici,LV-5701
Ludzas,Martisi,LV-5701
Ludzas,MeLaski,LV-5701
Ludzas,Mezavepri,LV-5701
Ludzas,Pildagreci,LV-5701
Ludzas,Rauzi,LV-5701
Ludzas,Riciki,LV-5701
Ludzas,Romandova,LV-5701
Ludzas,Runtorta,LV-5701
Ludzas,Vamzi,LV-5701
Ludzas,Zaci,LV-5701
Ludzas,ZeiLi,LV-5701
Ludzas,Berjozovka,LV-5707
Ludzas,BLaideLi,LV-5707
Ludzas,Brigi,LV-5707
Ludzas,CibuLi,LV-5707
Ludzas,Dilani,LV-5707
Ludzas,Dinaburski,LV-5707
Ludzas,Fedorki,LV-5707
Ludzas,Garbari,LV-5707
Ludzas,Janova,LV-5707
Ludzas,Jauna Slobodka,LV-5707
Ludzas,Jercova,LV-5707
Ludzas,Jorzova,LV-5707
Ludzas,Jucova,LV-5707
Ludzas,Klisi,LV-5707
Ludzas,KonogoLci,LV-5707
Ludzas,Liela Pikova,LV-5707
Ludzas,Lukati,LV-5707
Ludzas,Matisenki,LV-5707
Ludzas,Maza Pikova,LV-5707
Ludzas,Merzova,LV-5707
Ludzas,nicipurenki,LV-5707
Ludzas,nivniki,LV-5707
Ludzas,Noviki,LV-5707
Ludzas,OpuLi,LV-5707
Ludzas,Pizani,LV-5707
Ludzas,Poddubje,LV-5707
Ludzas,Popsuiki,LV-5707
Ludzas,Prohori,LV-5707
Ludzas,PuncuLi,LV-5707
Ludzas,Rancani,LV-5707
Ludzas,Reiki,LV-5707
Ludzas,Rimsi,LV-5707
Ludzas,Samusi,LV-5707
Ludzas,Sencati,LV-5707
Ludzas,Skrini,LV-5707
Ludzas,Svikli,LV-5707
Ludzas,Zabolocki,LV-5707
Ludzas,Diervonisi,LV-5709
Ludzas,Ivdri,LV-5709
Ludzas,Kubulova,LV-5709
Ludzas,NagLi,LV-5709
Ludzas,BeLejova,LV-5711
Ludzas,Garanu skaune,LV-5711
Ludzas,Ilza,LV-5711
Ludzas,Osinovka,LV-5711
Ludzas,PoLaconki,LV-5711
Ludzas,Pricimova,LV-5711
Ludzas,Punisce,LV-5711
Ludzas,Rakova,LV-5711
Ludzas,snitniki,LV-5711
Ludzas,SoboLinas skaune,LV-5711
Ludzas,Troniski,LV-5711
Ludzas,Bobisi,LV-5716
Ludzas,cinkuri,LV-5716
Ludzas,Fedorenki,LV-5716
Ludzas,Gagari,LV-5716
Ludzas,Istalsna,LV-5716
Ludzas,KravaLi,LV-5716
Ludzas,Krievu Gorbuni,LV-5716
Ludzas,Lemki,LV-5716
Ludzas,Malzubi,LV-5716
Ludzas,Mastari,LV-5716
Ludzas,Noviki,LV-5716
Ludzas,Otrie Boki,LV-5716
Ludzas,Pekseva,LV-5716
Ludzas,Plindzi,LV-5716
Ludzas,PoLu Gorbuni,LV-5716
Ludzas,Potorova,LV-5716
Ludzas,Rudzisi,LV-5716
Ludzas,speneri,LV-5716
Ludzas,Turaki,LV-5716
Ludzas,VabaLi,LV-5716
Ludzas,Zambari,LV-5716
Ludzas,Zurzi,LV-5716
Ludzas,Bambani,LV-5729
Ludzas,DauguLi,LV-5729
Ludzas,HmeLniki,LV-5729
Ludzas,Horoseva,LV-5729
Ludzas,Kalasi,LV-5729
Ludzas,KaskuLova,LV-5729
Ludzas,Ladina,LV-5729
Ludzas,Lideksna,LV-5729
Ludzas,Lielie zurili,LV-5729
Ludzas,Marlina,LV-5729
Ludzas,Morteni,LV-5729
Ludzas,Nirza,LV-5729
Ludzas,Osinovka,LV-5729
Ludzas,PuncuLi,LV-5729
Ludzas,Rikmani,LV-5729
Ludzas,Romusi,LV-5729
Ludzas,TimuLi,LV-5729
Ludzas,Tratari,LV-5729
Ludzas,Vonogi,LV-5729
Ludzas,VurpuLi,LV-5729
Ludzas,Zahari,LV-5729
Ludzas,Anatova,LV-5730
Ludzas,Baravuski,LV-5730
Ludzas,Belomoiki,LV-5730
Ludzas,Bulisi,LV-5730
Ludzas,Dergaci,LV-5730
Ludzas,Eniki,LV-5730
Ludzas,Ezerniki,LV-5730
Ludzas,Gailisi,LV-5730
Ludzas,Inkini,LV-5730
Ludzas,Juzefinova,LV-5730
Ludzas,Kroski,LV-5730
Ludzas,Listaki,LV-5730
Ludzas,Lubani,LV-5730
Ludzas,nuksi,LV-5730
Ludzas,Pilda,LV-5730
Ludzas,Pudniki,LV-5730
Ludzas,Pustjaki,LV-5730
Ludzas,Silovi,LV-5730
Ludzas,snitki,LV-5730
Ludzas,Stoloni,LV-5730
Ludzas,ZiLi,LV-5730
Ludzas,ALoksinki,LV-5733
Ludzas,Avsejenki,LV-5733
Ludzas,Barsuki,LV-5733
Ludzas,Beceri,LV-5733
Ludzas,Boldaci,LV-5733
Ludzas,Boldani,LV-5733
Ludzas,Borisova,LV-5733
Ludzas,Borovaja,LV-5733
Ludzas,Brodaiza,LV-5733
Ludzas,Dzalmani,LV-5733
Ludzas,Fedorki,LV-5733
Ludzas,Filantmuiza,LV-5733
Ludzas,Gajeva,LV-5733
Ludzas,Gaveiki,LV-5733
Ludzas,Germi,LV-5733
Ludzas,Jacmenisce,LV-5733
Ludzas,Jaskini,LV-5733
Ludzas,Krasiki,LV-5733
Ludzas,Kukujeva,LV-5733
Ludzas,Kulakova,LV-5733
Ludzas,Kurma,LV-5733
Ludzas,Kurnalina,LV-5733
Ludzas,Laizani,LV-5733
Ludzas,Lielie KukuLi,LV-5733
Ludzas,Liuziniki,LV-5733
Ludzas,Locova,LV-5733
Ludzas,Mazie KukuLi,LV-5733
Ludzas,MeLnica,LV-5733
Ludzas,Nirini,LV-5733
Ludzas,Noviki,LV-5733
Ludzas,Petriki,LV-5733
Ludzas,Petrovski,LV-5733
Ludzas,Pilda,LV-5733
Ludzas,Plataci,LV-5733
Ludzas,Podoiniki,LV-5733
Ludzas,PoLaki,LV-5733
Ludzas,PorkaLi,LV-5733
Ludzas,Pudenki,LV-5733
Ludzas,Putinova,LV-5733
Ludzas,Raibakozi,LV-5733
Ludzas,Raki,LV-5733
Ludzas,Rancani,LV-5733
Ludzas,Rindi,LV-5733
Ludzas,Rogaiza,LV-5733
Ludzas,Rosica,LV-5733
Ludzas,Rudini,LV-5733
Ludzas,Rudova,LV-5733
Ludzas,Rutki,LV-5733
Ludzas,saLniki,LV-5733
Ludzas,Sapozniki,LV-5733
Ludzas,Sergusiha,LV-5733
Ludzas,skirpani,LV-5733
Ludzas,Skrici,LV-5733
Ludzas,Sloboda,LV-5733
Ludzas,SoboLi,LV-5733
Ludzas,sosti,LV-5733
Ludzas,Sprikutova,LV-5733
Ludzas,StaromeLnica,LV-5733
Ludzas,Strakivi,LV-5733
Ludzas,Tjapsi,LV-5733
Ludzas,Uskacova,LV-5733
Ludzas,Vacumniki,LV-5733
Ludzas,Vecani,LV-5733
Ludzas,Versanci,LV-5733
Ludzas,Veseri,LV-5733
Ludzas,Vezenki,LV-5733
Ludzas,Vidzi,LV-5733
Ludzas,Vonogi,LV-5733
Ludzas,VorkaLi,LV-5733
Ludzas,Zatisje,LV-5733
Ludzas,ZeiLova,LV-5733
Ludzas,Zofina,LV-5733
Ludzas,Zuji,LV-5733
Ludzas,Zuzanpole,LV-5733
Ludzas,Zviergzdova,LV-5733
Ludzas,Antizi,LV-5735
Ludzas,Bizi,LV-5735
Ludzas,CereLeva,LV-5735
Ludzas,Dubinova,LV-5735
Ludzas,DzerkaLi,LV-5735
Ludzas,Evertova,LV-5735
Ludzas,Galdiseva,LV-5735
Ludzas,Garbari,LV-5735
Ludzas,Iskino,LV-5735
Ludzas,Karpusonki,LV-5735
Ludzas,KivLi,LV-5735
Ludzas,Kleperi,LV-5735
Ludzas,Krizuta,LV-5735
Ludzas,Krjakova,LV-5735
Ludzas,MuLci,LV-5735
Ludzas,Pabarga,LV-5735
Ludzas,PLatova,LV-5735
Ludzas,Pokumina,LV-5735
Ludzas,Putinova,LV-5735
Ludzas,Putrinieki,LV-5735
Ludzas,Ramslova,LV-5735
Ludzas,skinceva,LV-5735
Ludzas,Soidi,LV-5735
Ludzas,Sorni,LV-5735
Ludzas,Svjataja Gorka,LV-5735
Ludzas,Troksi,LV-5735
Ludzas,Tutani,LV-5735
Ludzas,Voverova,LV-5735
Ludzas,Zabolotje,LV-5735
Ludzas,ZeLceva,LV-5735
Ludzas,Andri,LV-5736
Ludzas,Bogomoli,LV-5736
Ludzas,Divksi,LV-5736
Ludzas,Greidani,LV-5736
Ludzas,Kabilovci,LV-5736
Ludzas,Kusneri,LV-5736
Ludzas,Lurupi,LV-5736
Ludzas,Makleri,LV-5736
Ludzas,Mezamatveji,LV-5736
Ludzas,Opsi,LV-5736
Ludzas,Osova,LV-5736
Ludzas,Pentjusi,LV-5736
Ludzas,PeroLi,LV-5736
Ludzas,Pristavki,LV-5736
Ludzas,Raibakozi,LV-5736
Ludzas,Raipole,LV-5736
Ludzas,Rimsi,LV-5736
Ludzas,SeiLi,LV-5736
Ludzas,Sjaksti,LV-5736
Ludzas,SkobuLi,LV-5736
Ludzas,Varsava,LV-5736
Ludzas,Vondi,LV-5736
Ludzas,zubuLi,LV-5736
Ludzas,Barsuki,LV-5739
Ludzas,BezLesje,LV-5739
Ludzas,BLizneva,LV-5739
Ludzas,cuhnova,LV-5739
Ludzas,Devjatniki,LV-5739
Ludzas,Drozdovka,LV-5739
Ludzas,Dvorisce,LV-5739
Ludzas,Dzenagols,LV-5739
Ludzas,Gorodoks,LV-5739
Ludzas,Grinkova,LV-5739
Ludzas,Jasmenisce,LV-5739
Ludzas,Kannova,LV-5739
Ludzas,Kasaverina,LV-5739
Ludzas,Kazici,LV-5739
Ludzas,Klescova,LV-5739
Ludzas,Klumstova,LV-5739
Ludzas,Kovaliski,LV-5739
Ludzas,Labunscina,LV-5739
Ludzas,Liela MaLinovka,LV-5739
Ludzas,Lisova,LV-5739
Ludzas,Loborzi,LV-5739
Ludzas,Losiski,LV-5739
Ludzas,Maculi,LV-5739
Ludzas,Mazkrinica,LV-5739
Ludzas,Mezavepri,LV-5739
Ludzas,Nalogi,LV-5739
Ludzas,Ostrova,LV-5739
Ludzas,Pakalni,LV-5739
Ludzas,PesLeva,LV-5739
Ludzas,Puncelova,LV-5739
Ludzas,Pusca,LV-5739
Ludzas,Roceva,LV-5739
Ludzas,Rudzisi,LV-5739
Ludzas,RuLeva,LV-5739
Ludzas,Rundeni,LV-5739
Ludzas,Savina,LV-5739
Ludzas,skorlupova,LV-5739
Ludzas,Stankevici,LV-5739
Ludzas,SunupLava,LV-5739
Ludzas,Tartaks,LV-5739
Ludzas,Testeckova,LV-5739
Ludzas,Vertulova,LV-5739
Ludzas,Zirgi,LV-5739
Ludzas,Arkani,LV-5745
Ludzas,Auzini,LV-5745
Ludzas,Burduski,LV-5745
Ludzas,cinkuri,LV-5745
Ludzas,cipoti,LV-5745
Ludzas,Degini,LV-5745
Ludzas,Doroski,LV-5745
Ludzas,Eniki,LV-5745
Ludzas,Ignatova,LV-5745
Ludzas,Inciki,LV-5745
Ludzas,InduLi,LV-5745
Ludzas,Justinova,LV-5745
Ludzas,Kivdolova,LV-5745
Ludzas,Konstantinovka,LV-5745
Ludzas,Kriksi,LV-5745
Ludzas,Locisi,LV-5745
Ludzas,Matjunki,LV-5745
Ludzas,Nikani,LV-5745
Ludzas,Paideri,LV-5745
Ludzas,PeLni,LV-5745
Ludzas,Pivkaini,LV-5745
Ludzas,Pracapole,LV-5745
Ludzas,RubuLi,LV-5745
Ludzas,Ruliki,LV-5745
Ludzas,Rutkusi,LV-5745
Ludzas,Sauliki,LV-5745
Ludzas,Sondori,LV-5745
Ludzas,Sroleva,LV-5745
Ludzas,Starinski,LV-5745
Ludzas,Stoponi,LV-5745
Ludzas,Strumpe,LV-5745
Ludzas,Tribuki,LV-5745
Ludzas,Vamzi,LV-5745
Ludzas,ViruLova,LV-5745
Ludzas,Vitkupova,LV-5745
Ludzas,Zapani,LV-5745
Ludzas,zeleznieki,LV-5745
Ludzas,Anapole,LV-5748
Ludzas,BuiLova,LV-5748
Ludzas,CegeLna,LV-5748
Ludzas,cernavski,LV-5748
Ludzas,Cucuri,LV-5748
Ludzas,Deglisi,LV-5748
Ludzas,FiLki,LV-5748
Ludzas,Fracki,LV-5748
Ludzas,Istra,LV-5748
Ludzas,Jonicki,LV-5748
Ludzas,KiseLi,LV-5748
Ludzas,Klagisi,LV-5748
Ludzas,Konecpole,LV-5748
Ludzas,Kuprisi,LV-5748
Ludzas,Lazari,LV-5748
Ludzas,Leitinova,LV-5748
Ludzas,Lomi,LV-5748
Ludzas,Luni,LV-5748
Ludzas,MeLniki,LV-5748
Ludzas,Miskinova,LV-5748
Ludzas,Padari,LV-5748
Ludzas,Papsuiki,LV-5748
Ludzas,Pcolki,LV-5748
Ludzas,Pelicova,LV-5748
Ludzas,PiktjuLi,LV-5748
Ludzas,Pugaci,LV-5748
Ludzas,Razuvaji,LV-5748
Ludzas,Ribacki,LV-5748
Ludzas,Riuseni,LV-5748
Ludzas,sevci,LV-5748
Ludzas,silki,LV-5748
Ludzas,SoboLina,LV-5748
Ludzas,Sokornica,LV-5748
Ludzas,Vecslabada,LV-5748
Ludzas,Volkarezi,LV-5748
Ludzas,Vonogi,LV-5748
Madonas,Jaunlazdona,LV-4801
Madonas,Lazdona,LV-4824
Madonas,Lazdona 1,LV-4824
Madonas,Prauliena,LV-4825
Madonas,Vecsaikava,LV-4825
Madonas,Osupe,LV-4830
Madonas,Degumnieki,LV-4833
Madonas,Barkava,LV-4834
Madonas,Stalidzani,LV-4834
Madonas,Lautere,LV-4846
Madonas,Kusa,LV-4847
Madonas,Marciena,LV-4852
Madonas,Berzaune,LV-4853
Madonas,Sauleskalns,LV-4853
Madonas,Vestiena,LV-4855
Madonas,Aiviekste,LV-4860
Madonas,Janukalns,LV-4860
Madonas,Jaunkalsnava,LV-4860
Madonas,Laudona,LV-4862
Madonas,Laudonas,LV-4863
Madonas,Alzani,LV-4865
Madonas,arini,LV-4865
Madonas,DegLi,LV-4865
Madonas,Dukstupi,LV-4865
Madonas,Jurjani,LV-4865
Madonas,kimstnieki,LV-4865
Madonas,Lielnieki,LV-4865
Madonas,Metriena,LV-4865
Madonas,Opsi,LV-4865
Madonas,Ozolkalns,LV-4865
Madonas,Palejas,LV-4865
Madonas,Pamati,LV-4865
Madonas,Raksala,LV-4865
Madonas,Salas,LV-4865
Madonas,Biksere,LV-4870
Madonas,PoLvarka,LV-4870
Madonas,Sarkani,LV-4870
Madonas,Aizpurve,LV-4873
Madonas,Dzelzava,LV-4873
Madonas,Liezere,LV-4884
Madonas,Ozoli,LV-4884
Malpils,Malpils,LV-2152
Malpils,Sidgunda,LV-2152
Malpils,Upmalas,LV-2152
Marupes,Lidosta Riga,LV-1044
Marupes,Lidosta Riga,LV-1053
Marupes,Tiraine,LV-1058
Marupes,Skulte,LV-2108
Marupes,Jaunmarupe,LV-2166
Marupes,Marupe,LV-2167
Marupes,Tiraine,LV-2167
Marupes,Vetras,LV-2167
Mazsalacas,Idus,LV-4213
Mazsalacas,SeLi,LV-4213
Mazsalacas,Skankalne,LV-4215
Mazsalacas,Ramata,LV-4216
Mazsalacas,Versis,LV-4242
Mersraga,Alksnaji,LV-3284
Mersraga,kipati,LV-3284
Mersraga,Mersrags,LV-3284
Mersraga,Upesgriva,LV-3284
Nauksenu,Erini,LV-4240
Nauksenu,Naukseni,LV-4244
Nauksenu,konu,LV-4247
Neretas,Pilskalne,LV-5110
Neretas,Sprogi,LV-5112
Neretas,Vertuzi,LV-5112
Neretas,Zalve,LV-5112
Neretas,Nereta,LV-5118
Neretas,erberge,LV-5133
Nicas,Bernati,LV-3473
Nicas,Grinvalti,LV-3473
Nicas,Jurmalciems,LV-3473
Nicas,Klampju ciems,LV-3473
Nicas,Nica,LV-3473
Nicas,Perkone,LV-3473
Nicas,Otanki,LV-3474
Nicas,Rude,LV-3475
Nicas,Kalniski,LV-3476
Ogres,Ogre,LV-5003
Ogres,Krape,LV-5012
Ogres,Ciemupe,LV-5041
Ogres,Ogresgals,LV-5041
Ogres,Laubere,LV-5044
Ogres,Madliena,LV-5045
Ogres,Mengele,LV-5047
Ogres,Glaznieki,LV-5060
Ogres,Jugla,LV-5060
Ogres,kiegeLceplis,LV-5060
Ogres,Suntazi,LV-5060
Ogres,Upespils,LV-5060
Ogres,keipene,LV-5062
Ogres,Taurupe,LV-5064
Ogres,Licupe,LV-5065
Ogres,Ogresmuiza,LV-5065
Olaines,Davi,LV-2113
Olaines,Ielejas,LV-2113
Olaines,Janupe,LV-2113
Olaines,Rajumi,LV-2113
Olaines,Stipnieki,LV-2113
Olaines,Vaivadi,LV-2113
Olaines,Olaine,LV-2114
Olaines,Apsukalni,LV-2127
Olaines,Blijas,LV-2127
Olaines,Damradi,LV-2127
Olaines,Ezitis,LV-2127
Olaines,Galini,LV-2127
Olaines,Grenes,LV-2127
Olaines,Jaunolaine,LV-2127
Olaines,Kalmes,LV-2127
Olaines,Medemciems,LV-2127
Olaines,Parolaine,LV-2127
Olaines,Peternieki,LV-2127
Olaines,Stunisi,LV-2127
Olaines,Virsi,LV-2127
Olaines,Stunisi,LV-2167
Ozolnieku,Raubeni,LV-3002
Ozolnieku,Ozolnieku,LV-3004
Ozolnieku,Brankas,LV-3018
Ozolnieku,Cena,LV-3018
Ozolnieku,Dalbe,LV-3018
Ozolnieku,Gludas,LV-3018
Ozolnieku,Ieceni,LV-3018
Ozolnieku,Jaunpeternieki,LV-3018
Ozolnieku,Ozolnieki,LV-3018
Ozolnieku,Brankas,LV-3042
Ozolnieku,ane,LV-3043
Ozolnieku,Raubeni,LV-3043
Ozolnieku,Tetele,LV-3043
Ozolnieku,Emburga,LV-3045
Ozolnieku,Garoza,LV-3045
Ozolnieku,Renceles,LV-3045
Pargaujas,Auciems,LV-4146
Pargaujas,Berzini,LV-4146
Pargaujas,Gundegas,LV-4146
Pargaujas,Kudums,LV-4146
Pargaujas,Lenci,LV-4146
Pargaujas,Raiskums,LV-4146
Pargaujas,Daibe,LV-4151
Pargaujas,Rozula,LV-4151
Pargaujas,Stalbe,LV-4151
Pargaujas,Lielstraupe,LV-4152
Pargaujas,Placis,LV-4152
Pargaujas,Straupe,LV-4152
Pavilostas,Ploce,LV-3463
Pavilostas,Saraiki,LV-3463
Pavilostas,Vergale,LV-3463
Pavilostas,Ziemupe,LV-3463
Pavilostas,Mezvidi,LV-3466
Pavilostas,Riva,LV-3466
Pavilostas,Saka,LV-3466
Pavilostas,Strante,LV-3466
Pavilostas,Ulmale,LV-3466
Plavinu,Odziena,LV-5109
Plavinu,Vietalva,LV-5109
Plavinu,ivani,LV-5120
Plavinu,Krievciems,LV-5120
Plavinu,Kriskalni,LV-5120
Plavinu,kugi,LV-5120
Plavinu,MaiLupsala,LV-5120
Plavinu,Riteri,LV-5129
Plavinu,Stukmani,LV-5129
Preilu,Akmenu Murnieki,LV-5301
Preilu,Anspoki,LV-5301
Preilu,Babri,LV-5301
Preilu,Beci,LV-5301
Preilu,Briskas,LV-5301
Preilu,Buki,LV-5301
Preilu,Cisi,LV-5301
Preilu,Dambisi,LV-5301
Preilu,Dzeni,LV-5301
Preilu,Dzenkalns,LV-5301
Preilu,Dzervaniski,LV-5301
Preilu,Gavarciki,LV-5301
Preilu,Gavari,LV-5301
Preilu,Gribuski,LV-5301
Preilu,Gruzdjanka,LV-5301
Preilu,Ivdrisi,LV-5301
Preilu,Jaudzemi,LV-5301
Preilu,Jaunsaimnieki,LV-5301
Preilu,Jermaki,LV-5301
Preilu,Korsikova,LV-5301
Preilu,Krapiski,LV-5301
Preilu,Krapisku Buki,LV-5301
Preilu,Krejani,LV-5301
Preilu,Lici,LV-5301
Preilu,Lielie Leici,LV-5301
Preilu,Lielie Murnieki,LV-5301
Preilu,Lielie Pupaji,LV-5301
Preilu,Lielie Urci,LV-5301
Preilu,Litavnieki,LV-5301
Preilu,MaLinovka,LV-5301
Preilu,Mazie Gavari,LV-5301
Preilu,Mazie Leici,LV-5301
Preilu,Mazie Murnieki,LV-5301
Preilu,Mazie Pupaji,LV-5301
Preilu,Moskvina,LV-5301
Preilu,Noviki,LV-5301
Preilu,Otrie Bluzmi,LV-5301
Preilu,Pelsi,LV-5301
Preilu,Pirmie Bluzmi,LV-5301
Preilu,Placinski,LV-5301
Preilu,Plivdas,LV-5301
Preilu,Polockiesi,LV-5301
Preilu,Rubeni,LV-5301
Preilu,Rumpisi,LV-5301
Preilu,Runci,LV-5301
Preilu,Sanauza,LV-5301
Preilu,SeiLi,LV-5301
Preilu,soldri,LV-5301
Preilu,Sondori,LV-5301
Preilu,Sporani,LV-5301
Preilu,Upenieki,LV-5301
Preilu,Vaivodi,LV-5301
Preilu,Vilcani,LV-5301
Preilu,Aizkalne,LV-5305
Preilu,Aizkalniesi,LV-5305
Preilu,Antani,LV-5305
Preilu,Apsenieki,LV-5305
Preilu,Babri,LV-5305
Preilu,Biubani,LV-5305
Preilu,Bloki,LV-5305
Preilu,cervonka,LV-5305
Preilu,Daugaviesi,LV-5305
Preilu,DoLniesi,LV-5305
Preilu,Dublinieki,LV-5305
Preilu,Feldgofa,LV-5305
Preilu,Gorliskas,LV-5305
Preilu,Grociskas,LV-5305
Preilu,Jegoriski,LV-5305
Preilu,Kalvani,LV-5305
Preilu,Kancepole,LV-5305
Preilu,Kazemaki,LV-5305
Preilu,KudLi,LV-5305
Preilu,Mazie snepsti,LV-5305
Preilu,Novosele,LV-5305
Preilu,Otrie Dzerini,LV-5305
Preilu,Otrie Garkalni,LV-5305
Preilu,Otrie PizeLi,LV-5305
Preilu,Otrie Pudzi,LV-5305
Preilu,Otrie Vucani,LV-5305
Preilu,Pelecanka,LV-5305
Preilu,Peteri,LV-5305
Preilu,Pinkas,LV-5305
Preilu,Pirmie Dzerini,LV-5305
Preilu,Pirmie Garkalni,LV-5305
Preilu,Pirmie Pastari,LV-5305
Preilu,Pirmie Sparani,LV-5305
Preilu,Pirmie Vucani,LV-5305
Preilu,Pirmie ZimeLi,LV-5305
Preilu,Raipole,LV-5305
Preilu,Raudauka,LV-5305
Preilu,Rinci,LV-5305
Preilu,Rocani,LV-5305
Preilu,Silinieki,LV-5305
Preilu,Strodopole,LV-5305
Preilu,Tresie Pastari,LV-5305
Preilu,Tresie PizeLi,LV-5305
Preilu,Tresie Pudzi,LV-5305
Preilu,Tresie Vucani,LV-5305
Preilu,Tresie ZimeLi,LV-5305
Preilu,Vingri,LV-5305
Preilu,Zeiles,LV-5305
Preilu,zelvi,LV-5305
Preilu,Berza Rubeni,LV-5320
Preilu,Bramani,LV-5320
Preilu,Butleri,LV-5320
Preilu,Gubaniski,LV-5320
Preilu,Janova,LV-5320
Preilu,Litiniski,LV-5320
Preilu,Nidermuiza,LV-5320
Preilu,Ozoldarzs,LV-5320
Preilu,Peleci,LV-5320
Preilu,Rosmoni,LV-5320
Preilu,Aizupiesi,LV-5323
Preilu,Balde,LV-5323
Preilu,Borisovka,LV-5323
Preilu,Dubovka,LV-5323
Preilu,Gacevski,LV-5323
Preilu,Gribinani,LV-5323
Preilu,Jaunie MozuLi,LV-5323
Preilu,Krivasola,LV-5323
Preilu,Lakauski,LV-5323
Preilu,Locinieki,LV-5323
Preilu,Luza,LV-5323
Preilu,Paunini,LV-5323
Preilu,PrikuLi,LV-5323
Preilu,PuncuLi,LV-5323
Preilu,Punduriene,LV-5323
Preilu,Razrivka,LV-5323
Preilu,Stikani,LV-5323
Preilu,Vecie MozuLi,LV-5323
Preilu,Albertovka,LV-5326
Preilu,Anetpole,LV-5326
Preilu,Augustova,LV-5326
Preilu,Bandzuri,LV-5326
Preilu,Betiski,LV-5326
Preilu,Bindari,LV-5326
Preilu,Borisovka,LV-5326
Preilu,DeLupe,LV-5326
Preilu,Dzalzava,LV-5326
Preilu,Elizavetpole,LV-5326
Preilu,Gara sala,LV-5326
Preilu,Gizi,LV-5326
Preilu,Gribusti,LV-5326
Preilu,Ievaises,LV-5326
Preilu,Jakusi,LV-5326
Preilu,Jasore,LV-5326
Preilu,Jaunseta,LV-5326
Preilu,Jezufinova,LV-5326
Preilu,Kalnaseta,LV-5326
Preilu,Karulani,LV-5326
Preilu,Klindzani,LV-5326
Preilu,Lielie Anspoki,LV-5326
Preilu,Obrezi,LV-5326
Preilu,Ozolini,LV-5326
Preilu,Rudzdobes,LV-5326
Preilu,SkuteLi,LV-5326
Preilu,Slastinieki,LV-5326
Preilu,Smelteri,LV-5326
Preilu,Stikani 1,LV-5326
Preilu,Utinani,LV-5326
Preilu,Viktorovka,LV-5326
Preilu,Zelta Dibens,LV-5326
Preilu,ardava,LV-5329
Preilu,Bondariski,LV-5329
Preilu,Gubaniski,LV-5329
Preilu,Guzi,LV-5329
Preilu,Kalna Druva,LV-5329
Preilu,Kotleri,LV-5329
Preilu,Kozupi,LV-5329
Preilu,Krasnogorka,LV-5329
Preilu,Kurmi,LV-5329
Preilu,Livmani,LV-5329
Preilu,Maskeviciski,LV-5329
Preilu,Omolka,LV-5329
Preilu,Pinupi,LV-5329
Preilu,Tumaniski,LV-5329
Preilu,ZaLa Birze,LV-5329
Priekules,Paplaka,LV-3433
Priekules,Virga,LV-3433
Priekules,Kalnenieki,LV-3434
Priekules,Saulaine,LV-3434
Priekules,Krote,LV-3444
Priekules,Bunka,LV-3446
Priekules,Tadaiki,LV-3446
Priekules,Kaleti,LV-3484
Priekules,Ozoli,LV-3484
Priekules,Purmsati,LV-3485
Priekules,Gramzda,LV-3486
Priekules,Mazgramzda,LV-3486
Priekules,Aizviki,LV-3487
Priekules,Dama,LV-3487
Priekulu,Berzkrogs,LV-4116
Priekulu,Veselava,LV-4116
Priekulu,Dukuri,LV-4126
Priekulu,PriekuLi,LV-4126
Priekulu,StrautmaLi,LV-4126
Priekulu,Liepa,LV-4128
Priekulu,Sarkani,LV-4128
Priekulu,Marsneni,LV-4129
Priekulu,Janmuiza,LV-4154
Raunas,Rauna,LV-4131
Raunas,Rozes,LV-4131
Raunas,Drusti,LV-4132
Rezekne,Rezekne,LV-4601
Rezekne,Rezekne,LV-4604
Rezeknes,Bumbiskas,LV-4601
Rezeknes,Bumbiski,LV-4601
Rezeknes,caci,LV-4601
Rezeknes,Dreijerovka,LV-4601
Rezeknes,Janopole,LV-4601
Rezeknes,Jaunsaimnieki,LV-4601
Rezeknes,Jaunsloboda,LV-4601
Rezeknes,Jupatovka,LV-4601
Rezeknes,Jusi,LV-4601
Rezeknes,Kivki,LV-4601
Rezeknes,Kozori,LV-4601
Rezeknes,LaLi,LV-4601
Rezeknes,Lielie Garanci,LV-4601
Rezeknes,Maremonts,LV-4601
Rezeknes,Mazie Garanci,LV-4601
Rezeknes,Pilskalns,LV-4601
Rezeknes,Plataci,LV-4601
Rezeknes,Pleiksni,LV-4601
Rezeknes,Pocelujevka,LV-4601
Rezeknes,Raceva,LV-4601
Rezeknes,Ratinieki,LV-4601
Rezeknes,Ritini,LV-4601
Rezeknes,sLahotska,LV-4601
Rezeknes,Slesarevka,LV-4601
Rezeknes,Spundzani,LV-4601
Rezeknes,Starosciki,LV-4601
Rezeknes,Taurinka,LV-4601
Rezeknes,Tevini,LV-4601
Rezeknes,Tuci,LV-4601
Rezeknes,Usvisi,LV-4601
Rezeknes,Voronova,LV-4601
Rezeknes,Burzova,LV-4604
Rezeknes,Djogi,LV-4604
Rezeknes,Gajova,LV-4604
Rezeknes,GreivuLi,LV-4604
Rezeknes,Iugulova,LV-4604
Rezeknes,Jaunborisova,LV-4604
Rezeknes,Jermolas,LV-4604
Rezeknes,Jurki,LV-4604
Rezeknes,Kleperova,LV-4604
Rezeknes,Kolna Ancupani,LV-4604
Rezeknes,Lejas Ancupani,LV-4604
Rezeknes,MeLnova,LV-4604
Rezeknes,MezagaiLi,LV-4604
Rezeknes,Obricki,LV-4604
Rezeknes,Pustinki,LV-4604
Rezeknes,Ratiniki,LV-4604
Rezeknes,Rudzes,LV-4604
Rezeknes,skierbiniki,LV-4604
Rezeknes,Skudras,LV-4604
Rezeknes,Stuceva,LV-4604
Rezeknes,Taudejani,LV-4604
Rezeknes,Vecborisova,LV-4604
Rezeknes,ALhovka,LV-4611
Rezeknes,Asaci,LV-4611
Rezeknes,Audrini,LV-4611
Rezeknes,Brizgi,LV-4611
Rezeknes,Dovidovka,LV-4611
Rezeknes,FiLkina,LV-4611
Rezeknes,Goruskas,LV-4611
Rezeknes,GreivuLi,LV-4611
Rezeknes,Hvorobina,LV-4611
Rezeknes,Janisi,LV-4611
Rezeknes,Jauna zeme,LV-4611
Rezeknes,Jegorovka,LV-4611
Rezeknes,Juskani,LV-4611
Rezeknes,KaLvi,LV-4611
Rezeknes,Kaulaci,LV-4611
Rezeknes,KLovi,LV-4611
Rezeknes,Krivmaizes,LV-4611
Rezeknes,Krupi,LV-4611
Rezeknes,Kucini,LV-4611
Rezeknes,Liela Puderova,LV-4611
Rezeknes,Lipuri,LV-4611
Rezeknes,Louniki,LV-4611
Rezeknes,Maza FiLkina,LV-4611
Rezeknes,Maza Puderova,LV-4611
Rezeknes,Mazie Kaulaci,LV-4611
Rezeknes,Mezares,LV-4611
Rezeknes,Miuriniki,LV-4611
Rezeknes,Muhi,LV-4611
Rezeknes,Novaja,LV-4611
Rezeknes,Olutniki,LV-4611
Rezeknes,Pustoska,LV-4611
Rezeknes,RubLevski,LV-4611
Rezeknes,Samrekovka,LV-4611
Rezeknes,SeiLi,LV-4611
Rezeknes,Siliniki,LV-4611
Rezeknes,SkredeLi,LV-4611
Rezeknes,Staudzi,LV-4611
Rezeknes,StrankaLi,LV-4611
Rezeknes,sulehi,LV-4611
Rezeknes,Tabakirkas,LV-4611
Rezeknes,VabaLi,LV-4611
Rezeknes,Vusari,LV-4611
Rezeknes,Zarecje,LV-4611
Rezeknes,Zeltini,LV-4611
Rezeknes,ZimeLi,LV-4611
Rezeknes,Zujeva,LV-4611
Rezeknes,Augstikalni,LV-4612
Rezeknes,Bakovka,LV-4612
Rezeknes,Berzgale,LV-4612
Rezeknes,cervonka,LV-4612
Rezeknes,cumine,LV-4612
Rezeknes,Grebeizi,LV-4612
Rezeknes,Incuki,LV-4612
Rezeknes,Juzupole,LV-4612
Rezeknes,Kalnini,LV-4612
Rezeknes,Kaspari,LV-4612
Rezeknes,Kozlova,LV-4612
Rezeknes,Litaunieki,LV-4612
Rezeknes,MaLiki,LV-4612
Rezeknes,Marientale,LV-4612
Rezeknes,Medinmuiza,LV-4612
Rezeknes,Meirani,LV-4612
Rezeknes,Micani,LV-4612
Rezeknes,Palsinieki,LV-4612
Rezeknes,Pescanka,LV-4612
Rezeknes,Petuni,LV-4612
Rezeknes,Puriski,LV-4612
Rezeknes,Rejeni,LV-4612
Rezeknes,Sauleskalns,LV-4612
Rezeknes,Silaunieki,LV-4612
Rezeknes,Steivanci,LV-4612
Rezeknes,Tarnava,LV-4612
Rezeknes,TeLakalni,LV-4612
Rezeknes,ULinova,LV-4612
Rezeknes,Uskaunieki,LV-4612
Rezeknes,Viecinani,LV-4612
Rezeknes,Vornaisi,LV-4612
Rezeknes,Voveri,LV-4612
Rezeknes,Voverniki,LV-4612
Rezeknes,ZaLesje,LV-4612
Rezeknes,Abramovka,LV-4615
Rezeknes,Aizpurves,LV-4615
Rezeknes,Aizupisi,LV-4615
Rezeknes,Apsiniki,LV-4615
Rezeknes,Asinova,LV-4615
Rezeknes,Babri,LV-4615
Rezeknes,Bataragi,LV-4615
Rezeknes,Belevici,LV-4615
Rezeknes,Brokas,LV-4615
Rezeknes,Brukani,LV-4615
Rezeknes,Ceglineica,LV-4615
Rezeknes,cesLi,LV-4615
Rezeknes,cirkas,LV-4615
Rezeknes,Daukstes,LV-4615
Rezeknes,Drebeiniki,LV-4615
Rezeknes,Dreimani,LV-4615
Rezeknes,Dricani,LV-4615
Rezeknes,Drinki,LV-4615
Rezeknes,Dzenagols,LV-4615
Rezeknes,Elksni,LV-4615
Rezeknes,Igauni,LV-4615
Rezeknes,Jauna Rubezneica,LV-4615
Rezeknes,Jaunlesna,LV-4615
Rezeknes,Kakarvisi,LV-4615
Rezeknes,Kalastinas,LV-4615
Rezeknes,Kaulaci,LV-4615
Rezeknes,Kises,LV-4615
Rezeknes,Koirovka,LV-4615
Rezeknes,Komultinova,LV-4615
Rezeknes,Krusti,LV-4615
Rezeknes,Kuzmi,LV-4615
Rezeknes,Lempi,LV-4615
Rezeknes,Lizdiki,LV-4615
Rezeknes,Loci,LV-4615
Rezeknes,Mortuzi,LV-4615
Rezeknes,Mosani,LV-4615
Rezeknes,Noviki,LV-4615
Rezeknes,Oziniki,LV-4615
Rezeknes,PiLcine,LV-4615
Rezeknes,PiLcinova,LV-4615
Rezeknes,PiLkas,LV-4615
Rezeknes,Piziki,LV-4615
Rezeknes,Plasi,LV-4615
Rezeknes,Poikas,LV-4615
Rezeknes,Putrani,LV-4615
Rezeknes,Radionovka,LV-4615
Rezeknes,Raibie,LV-4615
Rezeknes,Ratiniki,LV-4615
Rezeknes,Romanovka,LV-4615
Rezeknes,Rubezkolns,LV-4615
Rezeknes,Rubezneica,LV-4615
Rezeknes,Rudzusiki,LV-4615
Rezeknes,Sarkankolns,LV-4615
Rezeknes,Saukavisi,LV-4615
Rezeknes,SemuLi,LV-4615
Rezeknes,SilagaiLi,LV-4615
Rezeknes,Skuskova,LV-4615
Rezeknes,Slaviki,LV-4615
Rezeknes,Smaudzi,LV-4615
Rezeknes,Smuti,LV-4615
Rezeknes,spuni,LV-4615
Rezeknes,StreLci,LV-4615
Rezeknes,SusekLi,LV-4615
Rezeknes,Tarasovka,LV-4615
Rezeknes,Taunaga,LV-4615
Rezeknes,TrimaLniki,LV-4615
Rezeknes,Troskas,LV-4615
Rezeknes,Turcines,LV-4615
Rezeknes,UguLova,LV-4615
Rezeknes,Vacainiki,LV-4615
Rezeknes,Veitulniki,LV-4615
Rezeknes,Versukolns,LV-4615
Rezeknes,ViLumi,LV-4615
Rezeknes,Zahari,LV-4615
Rezeknes,Zakari,LV-4615
Rezeknes,Zalingova,LV-4615
Rezeknes,Zarecka,LV-4615
Rezeknes,Zileni,LV-4615
Rezeknes,Zimkas,LV-4615
Rezeknes,Zuici,LV-4615
Rezeknes,AbabLeva,LV-4616
Rezeknes,Arhipovka,LV-4616
Rezeknes,Astici,LV-4616
Rezeknes,Baranova,LV-4616
Rezeknes,Borovaja,LV-4616
Rezeknes,Bridiski,LV-4616
Rezeknes,cerniki,LV-4616
Rezeknes,DubuLi,LV-4616
Rezeknes,DzerkaLi,LV-4616
Rezeknes,Eisaki,LV-4616
Rezeknes,Golisovka,LV-4616
Rezeknes,Irseva,LV-4616
Rezeknes,Kalinovka,LV-4616
Rezeknes,Karpinje,LV-4616
Rezeknes,KLucki,LV-4616
Rezeknes,Krasnoselka,LV-4616
Rezeknes,Labovka,LV-4616
Rezeknes,Luksteni,LV-4616
Rezeknes,Malinovka,LV-4616
Rezeknes,MatuLi,LV-4616
Rezeknes,Mihailovka,LV-4616
Rezeknes,Mikucanovka,LV-4616
Rezeknes,Noviki,LV-4616
Rezeknes,Orehovka,LV-4616
Rezeknes,Otrie Kromoni,LV-4616
Rezeknes,Partova,LV-4616
Rezeknes,Pintani,LV-4616
Rezeknes,Silvestrina,LV-4616
Rezeknes,sirini,LV-4616
Rezeknes,SoboLi,LV-4616
Rezeknes,Sprestiski,LV-4616
Rezeknes,Spruzevnieki,LV-4616
Rezeknes,Tarasovka,LV-4616
Rezeknes,VaisLi,LV-4616
Rezeknes,ZabeLje,LV-4616
Rezeknes,ZeLonija Gora,LV-4616
Rezeknes,Anci,LV-4617
Rezeknes,Balbisi,LV-4617
Rezeknes,BaLinova,LV-4617
Rezeknes,Baltais Dukstigals,LV-4617
Rezeknes,Bandari,LV-4617
Rezeknes,Besovka,LV-4617
Rezeknes,Bondari,LV-4617
Rezeknes,Bratova,LV-4617
Rezeknes,Bulani,LV-4617
Rezeknes,Busi,LV-4617
Rezeknes,cornaja,LV-4617
Rezeknes,Dergilova,LV-4617
Rezeknes,FoLvarkova,LV-4617
Rezeknes,Golenti,LV-4617
Rezeknes,ivuski,LV-4617
Rezeknes,Kaipi,LV-4617
Rezeknes,Kalnaji,LV-4617
Rezeknes,Karpuskina,LV-4617
Rezeknes,Kasina,LV-4617
Rezeknes,Kazeiki,LV-4617
Rezeknes,Kazusi,LV-4617
Rezeknes,Kisluhina,LV-4617
Rezeknes,Knutova,LV-4617
Rezeknes,Kolpaki,LV-4617
Rezeknes,KovaLi,LV-4617
Rezeknes,Kupcinki,LV-4617
Rezeknes,Ladusi,LV-4617
Rezeknes,Lipuski,LV-4617
Rezeknes,Loci,LV-4617
Rezeknes,Mahonina,LV-4617
Rezeknes,Mazie Barisi,LV-4617
Rezeknes,Melnais Dukstigals,LV-4617
Rezeknes,Mezari,LV-4617
Rezeknes,Mitri,LV-4617
Rezeknes,Osinovka,LV-4617
Rezeknes,Otrie Baltini,LV-4617
Rezeknes,Patrejevka,LV-4617
Rezeknes,Petuski,LV-4617
Rezeknes,Pirmie Baltini,LV-4617
Rezeknes,Plins,LV-4617
Rezeknes,PuncuLi,LV-4617
Rezeknes,Putrisi,LV-4617
Rezeknes,Raciki,LV-4617
Rezeknes,Ratnieki,LV-4617
Rezeknes,Receni,LV-4617
Rezeknes,Rivoni,LV-4617
Rezeknes,Silagoli,LV-4617
Rezeknes,snitniki,LV-4617
Rezeknes,SoboLeva,LV-4617
Rezeknes,Sokorni,LV-4617
Rezeknes,Sprukti,LV-4617
Rezeknes,Suckina,LV-4617
Rezeknes,Tarkilova,LV-4617
Rezeknes,Tilisi,LV-4617
Rezeknes,Treuhi,LV-4617
Rezeknes,Tuci,LV-4617
Rezeknes,Uskani,LV-4617
Rezeknes,VagaLi,LV-4617
Rezeknes,VaicuLi,LV-4617
Rezeknes,Vindaci,LV-4617
Rezeknes,Zapani,LV-4617
Rezeknes,Zidi,LV-4617
Rezeknes,zogotas,LV-4617
Rezeknes,zurili,LV-4617
Rezeknes,Atlaka,LV-4618
Rezeknes,Bikava,LV-4618
Rezeknes,Cimota,LV-4618
Rezeknes,Cimotas FoLvarka,LV-4618
Rezeknes,Dervaniene,LV-4618
Rezeknes,DziLari,LV-4618
Rezeknes,Gaigalava,LV-4618
Rezeknes,Garanci,LV-4618
Rezeknes,Kozori,LV-4618
Rezeknes,KraukLi,LV-4618
Rezeknes,Kresle,LV-4618
Rezeknes,Loci,LV-4618
Rezeknes,Pudinava,LV-4618
Rezeknes,Puisani,LV-4618
Rezeknes,Putni,LV-4618
Rezeknes,Sauleskalns,LV-4618
Rezeknes,saurites,LV-4618
Rezeknes,Staudzi,LV-4618
Rezeknes,Vilnauce,LV-4618
Rezeknes,zogotas,LV-4618
Rezeknes,Aizezere,LV-4619
Rezeknes,Babri,LV-4619
Rezeknes,Blantina,LV-4619
Rezeknes,caksi,LV-4619
Rezeknes,cikuli,LV-4619
Rezeknes,cudarani,LV-4619
Rezeknes,Danci,LV-4619
Rezeknes,Dirsi,LV-4619
Rezeknes,Dubrovka,LV-4619
Rezeknes,Elksni,LV-4619
Rezeknes,erzeLova,LV-4619
Rezeknes,Gleizdi,LV-4619
Rezeknes,Gola caksi,LV-4619
Rezeknes,Goliseva,LV-4619
Rezeknes,Gorsvani,LV-4619
Rezeknes,Ilzeskalns,LV-4619
Rezeknes,Ivgulova,LV-4619
Rezeknes,Ivoni,LV-4619
Rezeknes,Jaungailumi,LV-4619
Rezeknes,Jaunsloboda,LV-4619
Rezeknes,Jekimani,LV-4619
Rezeknes,kipLuki,LV-4619
Rezeknes,KLasica,LV-4619
Rezeknes,Klaugi,LV-4619
Rezeknes,Klomostova,LV-4619
Rezeknes,Kozudauna,LV-4619
Rezeknes,KravaLi,LV-4619
Rezeknes,Krivu caksi,LV-4619
Rezeknes,Kubulova,LV-4619
Rezeknes,Kukoji,LV-4619
Rezeknes,Ladi,LV-4619
Rezeknes,Letki,LV-4619
Rezeknes,Lucatnieki,LV-4619
Rezeknes,Lupiki,LV-4619
Rezeknes,Majevka,LV-4619
Rezeknes,MaLinovka 1,LV-4619
Rezeknes,MaLinovka 2,LV-4619
Rezeknes,Mivrinieki,LV-4619
Rezeknes,Mortuzani,LV-4619
Rezeknes,Plesaunieki,LV-4619
Rezeknes,Puisani,LV-4619
Rezeknes,Puksti,LV-4619
Rezeknes,Puskrivi,LV-4619
Rezeknes,Puskundzi,LV-4619
Rezeknes,Reidzani,LV-4619
Rezeknes,Rogozi,LV-4619
Rezeknes,saraki,LV-4619
Rezeknes,Silarasi,LV-4619
Rezeknes,skerbinieki 1,LV-4619
Rezeknes,Solosnieki,LV-4619
Rezeknes,Stogorsni,LV-4619
Rezeknes,Trikimi,LV-4619
Rezeknes,Turlaji,LV-4619
Rezeknes,Vecgailumi,LV-4619
Rezeknes,VoseLi,LV-4619
Rezeknes,Zaci,LV-4619
Rezeknes,ZaLuksni,LV-4619
Rezeknes,zogoti,LV-4619
Rezeknes,BancuLi,LV-4621
Rezeknes,Brizgi,LV-4621
Rezeknes,Ciskani,LV-4621
Rezeknes,Dundas,LV-4621
Rezeknes,Kantiniki,LV-4621
Rezeknes,Kasi,LV-4621
Rezeknes,Kondroti,LV-4621
Rezeknes,KristceLi,LV-4621
Rezeknes,Krusti,LV-4621
Rezeknes,Leimani,LV-4621
Rezeknes,Leimaniski,LV-4621
Rezeknes,Liuza,LV-4621
Rezeknes,Mizani,LV-4621
Rezeknes,Pauri,LV-4621
Rezeknes,SuLi,LV-4621
Rezeknes,Svecovka,LV-4621
Rezeknes,Akmenisi,LV-4622
Rezeknes,Antropova,LV-4622
Rezeknes,Astici,LV-4622
Rezeknes,Batni,LV-4622
Rezeknes,Bidzani,LV-4622
Rezeknes,Bukateni,LV-4622
Rezeknes,Dilani,LV-4622
Rezeknes,Gajeva,LV-4622
Rezeknes,Grasi,LV-4622
Rezeknes,Idzepole,LV-4622
Rezeknes,Izoti,LV-4622
Rezeknes,Jaunsloboda,LV-4622
Rezeknes,JuguLi,LV-4622
Rezeknes,Katkovski,LV-4622
Rezeknes,Kaunata,LV-4622
Rezeknes,Kromoni,LV-4622
Rezeknes,Kusneri,LV-4622
Rezeknes,Lamasi,LV-4622
Rezeknes,Leini,LV-4622
Rezeknes,Lesinski,LV-4622
Rezeknes,Letnijkuts,LV-4622
Rezeknes,Marguci,LV-4622
Rezeknes,Meski,LV-4622
Rezeknes,Mozgi,LV-4622
Rezeknes,Mukoni,LV-4622
Rezeknes,Namjoti,LV-4622
Rezeknes,Piliki,LV-4622
Rezeknes,Podlesje,LV-4622
Rezeknes,Razna,LV-4622
Rezeknes,Rogs,LV-4622
Rezeknes,Rozalina,LV-4622
Rezeknes,Skadeni,LV-4622
Rezeknes,Skarbovka,LV-4622
Rezeknes,sLakoti,LV-4622
Rezeknes,Spirgini,LV-4622
Rezeknes,Strodi,LV-4622
Rezeknes,Vecsloboda,LV-4622
Rezeknes,Veresovka,LV-4622
Rezeknes,Vilkakrogs,LV-4622
Rezeknes,Virvi,LV-4622
Rezeknes,Adamiski,LV-4623
Rezeknes,cernoste,LV-4623
Rezeknes,CibLi,LV-4623
Rezeknes,cuksti,LV-4623
Rezeknes,Dubina,LV-4623
Rezeknes,Dudari,LV-4623
Rezeknes,Ezergailisi,LV-4623
Rezeknes,Feimani,LV-4623
Rezeknes,Gorbacovka,LV-4623
Rezeknes,Grudes,LV-4623
Rezeknes,GuLani,LV-4623
Rezeknes,KaLvi,LV-4623
Rezeknes,Kancani,LV-4623
Rezeknes,Kazmirova,LV-4623
Rezeknes,Kirkiliski,LV-4623
Rezeknes,Kondrasova,LV-4623
Rezeknes,Kovaliski,LV-4623
Rezeknes,Krace,LV-4623
Rezeknes,Lazareva,LV-4623
Rezeknes,Leinakolns,LV-4623
Rezeknes,Leperi,LV-4623
Rezeknes,Liska,LV-4623
Rezeknes,MaLinovaja Gora,LV-4623
Rezeknes,MaLinovka,LV-4623
Rezeknes,Mazie Pizani,LV-4623
Rezeknes,MeLderi,LV-4623
Rezeknes,Meza Gaileisi,LV-4623
Rezeknes,Nikitiski,LV-4623
Rezeknes,NovokiriLina,LV-4623
Rezeknes,Petrovka,LV-4623
Rezeknes,Pizani,LV-4623
Rezeknes,PoLanka,LV-4623
Rezeknes,Pudniki,LV-4623
Rezeknes,Rogozovka,LV-4623
Rezeknes,Rusenica,LV-4623
Rezeknes,Rusona Petrovka,LV-4623
Rezeknes,sahmovka,LV-4623
Rezeknes,sejevka,LV-4623
Rezeknes,Seksti,LV-4623
Rezeknes,Skrauci,LV-4623
Rezeknes,Stolbovka,LV-4623
Rezeknes,Svatova,LV-4623
Rezeknes,Timosiski,LV-4623
Rezeknes,Tuci,LV-4623
Rezeknes,Vainova,LV-4623
Rezeknes,Valteri,LV-4623
Rezeknes,Veideri,LV-4623
Rezeknes,Vorslovani,LV-4623
Rezeknes,Apsi,LV-4625
Rezeknes,Barzusola,LV-4625
Rezeknes,Bizi,LV-4625
Rezeknes,Brusova,LV-4625
Rezeknes,Ceplisi,LV-4625
Rezeknes,Cimota,LV-4625
Rezeknes,Ciskova,LV-4625
Rezeknes,Daca,LV-4625
Rezeknes,Danski,LV-4625
Rezeknes,Deksni,LV-4625
Rezeknes,Kotani,LV-4625
Rezeknes,Kozlova,LV-4625
Rezeknes,Kozuberzi,LV-4625
Rezeknes,Kozukolni,LV-4625
Rezeknes,Krizini,LV-4625
Rezeknes,Leimani,LV-4625
Rezeknes,Lendzi,LV-4625
Rezeknes,Leski,LV-4625
Rezeknes,Liuza,LV-4625
Rezeknes,Liuziniki,LV-4625
Rezeknes,MezagaiLi,LV-4625
Rezeknes,Midzini,LV-4625
Rezeknes,Morciniki,LV-4625
Rezeknes,Novoselki,LV-4625
Rezeknes,PokuLi,LV-4625
Rezeknes,Poznane,LV-4625
Rezeknes,Pozogi,LV-4625
Rezeknes,Puriski,LV-4625
Rezeknes,Sarkani,LV-4625
Rezeknes,SkangaLi,LV-4625
Rezeknes,skinci,LV-4625
Rezeknes,SkobuLniki,LV-4625
Rezeknes,StapuLi,LV-4625
Rezeknes,Sunova,LV-4625
Rezeknes,Vilkusola,LV-4625
Rezeknes,Voverova,LV-4625
Rezeknes,Zabalotje,LV-4625
Rezeknes,Zalise,LV-4625
Rezeknes,Zeltini,LV-4625
Rezeknes,Berezniki,LV-4626
Rezeknes,Bondari,LV-4626
Rezeknes,Bungas,LV-4626
Rezeknes,Dvarci,LV-4626
Rezeknes,Galdeni,LV-4626
Rezeknes,Ginevici,LV-4626
Rezeknes,Gorelovka,LV-4626
Rezeknes,Grumuzi,LV-4626
Rezeknes,JaunstasuLi,LV-4626
Rezeknes,Jegorova,LV-4626
Rezeknes,Kozuliski,LV-4626
Rezeknes,Kozupka,LV-4626
Rezeknes,Krepsi,LV-4626
Rezeknes,Krievu Virauda,LV-4626
Rezeknes,Latviesu Virauda,LV-4626
Rezeknes,Lipuski,LV-4626
Rezeknes,LoLi,LV-4626
Rezeknes,Luciski,LV-4626
Rezeknes,Maltecka,LV-4626
Rezeknes,Maluksta,LV-4626
Rezeknes,Melteni,LV-4626
Rezeknes,Milka,LV-4626
Rezeknes,Novaja,LV-4626
Rezeknes,Plina Romani,LV-4626
Rezeknes,Rabova,LV-4626
Rezeknes,Rabskova,LV-4626
Rezeknes,Rukmoni,LV-4626
Rezeknes,Rusiski,LV-4626
Rezeknes,skrjabi,LV-4626
Rezeknes,Stepini,LV-4626
Rezeknes,Stikuti,LV-4626
Rezeknes,StiLbi,LV-4626
Rezeknes,Ubogova,LV-4626
Rezeknes,Utani,LV-4626
Rezeknes,VecstasuLi,LV-4626
Rezeknes,Voveri,LV-4626
Rezeknes,Zastenki,LV-4626
Rezeknes,Zelenpole,LV-4626
Rezeknes,ZeLonki,LV-4626
Rezeknes,Zundi,LV-4626
Rezeknes,Astiki,LV-4627
Rezeknes,Grumuzi,LV-4627
Rezeknes,GudeLi,LV-4627
Rezeknes,Harcenki,LV-4627
Rezeknes,Ismeri,LV-4627
Rezeknes,Kivleni,LV-4627
Rezeknes,Ladi,LV-4627
Rezeknes,Luznava,LV-4627
Rezeknes,Maiziki,LV-4627
Rezeknes,Markovka,LV-4627
Rezeknes,Martusovka,LV-4627
Rezeknes,Pusbari,LV-4627
Rezeknes,Pustoska,LV-4627
Rezeknes,Rabskova,LV-4627
Rezeknes,Regzi,LV-4627
Rezeknes,Rubcinska,LV-4627
Rezeknes,Rutki,LV-4627
Rezeknes,SkradeLi,LV-4627
Rezeknes,SoboLi,LV-4627
Rezeknes,Stilbi,LV-4627
Rezeknes,StiLbi,LV-4627
Rezeknes,Turcani,LV-4627
Rezeknes,uzuliski,LV-4627
Rezeknes,Veczosna,LV-4627
Rezeknes,Vertuksne,LV-4627
Rezeknes,Viskeri,LV-4627
Rezeknes,Zosna,LV-4627
Rezeknes,Agejevka,LV-4630
Rezeknes,Antonopole,LV-4630
Rezeknes,BaLucki,LV-4630
Rezeknes,Barauha,LV-4630
Rezeknes,Bicki,LV-4630
Rezeknes,Bikauniki,LV-4630
Rezeknes,Bondari,LV-4630
Rezeknes,Brizgoni,LV-4630
Rezeknes,cernoste,LV-4630
Rezeknes,culki,LV-4630
Rezeknes,Danilovka,LV-4630
Rezeknes,Dupani,LV-4630
Rezeknes,Dupini,LV-4630
Rezeknes,Dzementova,LV-4630
Rezeknes,Dzeniski,LV-4630
Rezeknes,Garkolni,LV-4630
Rezeknes,Gornica,LV-4630
Rezeknes,Griscati,LV-4630
Rezeknes,Gusci,LV-4630
Rezeknes,Jakovici,LV-4630
Rezeknes,Jaudzemi,LV-4630
Rezeknes,Karnopole,LV-4630
Rezeknes,Karnopoles Bikaunieki,LV-4630
Rezeknes,KiseLovka,LV-4630
Rezeknes,Kozlovka,LV-4630
Rezeknes,Lapatiski,LV-4630
Rezeknes,Leimaniski,LV-4630
Rezeknes,Lejniki,LV-4630
Rezeknes,Locukolns,LV-4630
Rezeknes,Malta,LV-4630
Rezeknes,Maltecka,LV-4630
Rezeknes,Meza Pigozni,LV-4630
Rezeknes,Miskoni,LV-4630
Rezeknes,Mostovaja,LV-4630
Rezeknes,Mozgi,LV-4630
Rezeknes,Ostrovski,LV-4630
Rezeknes,Paskevici,LV-4630
Rezeknes,Paski,LV-4630
Rezeknes,Pinki,LV-4630
Rezeknes,Rozentova,LV-4630
Rezeknes,Rubani,LV-4630
Rezeknes,Sergejevka,LV-4630
Rezeknes,Sidorovka,LV-4630
Rezeknes,Silmala,LV-4630
Rezeknes,Skutani,LV-4630
Rezeknes,smeiLi,LV-4630
Rezeknes,Solomenka,LV-4630
Rezeknes,spieLi,LV-4630
Rezeknes,Strodi,LV-4630
Rezeknes,Teiruma Pigozni,LV-4630
Rezeknes,Viezakrugs,LV-4630
Rezeknes,Viskeri,LV-4630
Rezeknes,Zagajevka,LV-4630
Rezeknes,Zaikova,LV-4630
Rezeknes,Zamostje,LV-4630
Rezeknes,Asninis,LV-4631
Rezeknes,Bernani,LV-4631
Rezeknes,Gaigalavas muiza,LV-4631
Rezeknes,idena,LV-4631
Rezeknes,Jumpravsola,LV-4631
Rezeknes,Locakarts,LV-4631
Rezeknes,Lodani,LV-4631
Rezeknes,NagLi,LV-4631
Rezeknes,Nameznica,LV-4631
Rezeknes,Orenisi,LV-4631
Rezeknes,Ozolkalns,LV-4631
Rezeknes,Teirumniki,LV-4631
Rezeknes,Viksnas,LV-4631
Rezeknes,Zvejsola,LV-4631
Rezeknes,Aleksoti,LV-4633
Rezeknes,Andronova,LV-4633
Rezeknes,Balbisi,LV-4633
Rezeknes,Beksi,LV-4633
Rezeknes,Benislavova,LV-4633
Rezeknes,Berjozovka,LV-4633
Rezeknes,CegeLna,LV-4633
Rezeknes,Deimani,LV-4633
Rezeknes,Dzeni,LV-4633
Rezeknes,GaiduLi,LV-4633
Rezeknes,Groveriski,LV-4633
Rezeknes,Jaunsaimnieki,LV-4633
Rezeknes,Jeroscenki,LV-4633
Rezeknes,Kampiski,LV-4633
Rezeknes,Krievu Sloboda,LV-4633
Rezeknes,Krivini,LV-4633
Rezeknes,Krizevniki,LV-4633
Rezeknes,Laizani,LV-4633
Rezeknes,Latviesu Sloboda,LV-4633
Rezeknes,Losi,LV-4633
Rezeknes,Ozolmuiza,LV-4633
Rezeknes,Paulini,LV-4633
Rezeknes,RubuLi,LV-4633
Rezeknes,Runci,LV-4633
Rezeknes,Skujas,LV-4633
Rezeknes,skvarki,LV-4633
Rezeknes,ULjanova,LV-4633
Rezeknes,Usvisi,LV-4633
Rezeknes,Dagumniki,LV-4634
Rezeknes,Kurpiniki,LV-4634
Rezeknes,Liuzi,LV-4634
Rezeknes,Makuzi,LV-4634
Rezeknes,Medinski,LV-4634
Rezeknes,Osnisi,LV-4634
Rezeknes,Piliskolns,LV-4634
Rezeknes,PLuskova,LV-4634
Rezeknes,Sameni,LV-4634
Rezeknes,Skujauniki,LV-4634
Rezeknes,Babri,LV-4635
Rezeknes,Balda,LV-4635
Rezeknes,Butleri,LV-4635
Rezeknes,Ditlovi,LV-4635
Rezeknes,Dorotpole,LV-4635
Rezeknes,Gulinova,LV-4635
Rezeknes,KristceLniki,LV-4635
Rezeknes,Liuki,LV-4635
Rezeknes,Loci,LV-4635
Rezeknes,Ostrovisi,LV-4635
Rezeknes,PatmaLniki,LV-4635
Rezeknes,Peiragi,LV-4635
Rezeknes,Pusa,LV-4635
Rezeknes,SiugaLi,LV-4635
Rezeknes,Virbuli,LV-4635
Rezeknes,Vocisi,LV-4635
Rezeknes,zagari,LV-4635
Rezeknes,Zambari,LV-4635
Rezeknes,zierkLi,LV-4635
Rezeknes,Barzovka,LV-4636
Rezeknes,Belobabina,LV-4636
Rezeknes,Beloglazovka,LV-4636
Rezeknes,Bikaunieki,LV-4636
Rezeknes,Bodrovka,LV-4636
Rezeknes,Borisovka,LV-4636
Rezeknes,caci,LV-4636
Rezeknes,culki,LV-4636
Rezeknes,Deneliski,LV-4636
Rezeknes,Dzeni,LV-4636
Rezeknes,Feklistovka,LV-4636
Rezeknes,GasuLi,LV-4636
Rezeknes,Groveriski,LV-4636
Rezeknes,GruzdeLi,LV-4636
Rezeknes,Hatki,LV-4636
Rezeknes,Ignatovka,LV-4636
Rezeknes,Indricani,LV-4636
Rezeknes,Jaskina,LV-4636
Rezeknes,Jaunruzina,LV-4636
Rezeknes,Jekimovka,LV-4636
Rezeknes,Kalni,LV-4636
Rezeknes,KLonovka,LV-4636
Rezeknes,Kosmacovka,LV-4636
Rezeknes,KovaLovka,LV-4636
Rezeknes,Krasutina,LV-4636
Rezeknes,Kruki,LV-4636
Rezeknes,Kurteni,LV-4636
Rezeknes,Kvasovka,LV-4636
Rezeknes,Lisovski,LV-4636
Rezeknes,Losa,LV-4636
Rezeknes,Losu caci,LV-4636
Rezeknes,Mamulnieki,LV-4636
Rezeknes,Meza GasuLi,LV-4636
Rezeknes,Meza Juri,LV-4636
Rezeknes,Odumani,LV-4636
Rezeknes,Paramonovka,LV-4636
Rezeknes,Patrejevka,LV-4636
Rezeknes,Prezma,LV-4636
Rezeknes,Pustinka,LV-4636
Rezeknes,Putni,LV-4636
Rezeknes,Rogoviki,LV-4636
Rezeknes,Silanzi,LV-4636
Rezeknes,Sopri,LV-4636
Rezeknes,speLi,LV-4636
Rezeknes,Sprinda,LV-4636
Rezeknes,stikani,LV-4636
Rezeknes,sutovka,LV-4636
Rezeknes,Tarakanovka,LV-4636
Rezeknes,Tiskadi,LV-4636
Rezeknes,Trupu caci,LV-4636
Rezeknes,Trupu Zamozi,LV-4636
Rezeknes,Tuci,LV-4636
Rezeknes,Vecruzina,LV-4636
Rezeknes,Zabolotje,LV-4636
Rezeknes,Zahariha,LV-4636
Rezeknes,Zaikovka,LV-4636
Rezeknes,Zakutajevka,LV-4636
Rezeknes,Zemski,LV-4636
Rezeknes,Zuji,LV-4636
Rezeknes,ALhovka,LV-4638
Rezeknes,Apari,LV-4638
Rezeknes,Azara Bodzi,LV-4638
Rezeknes,Boreni,LV-4638
Rezeknes,Bunduli,LV-4638
Rezeknes,Cerkovka,LV-4638
Rezeknes,Ciskadi,LV-4638
Rezeknes,Ciukori,LV-4638
Rezeknes,Deicmani,LV-4638
Rezeknes,DzerkaLi,LV-4638
Rezeknes,Garanci,LV-4638
Rezeknes,Jauna Sloboda,LV-4638
Rezeknes,Kaulini,LV-4638
Rezeknes,Keidani,LV-4638
Rezeknes,Kolna Sloboda,LV-4638
Rezeknes,KudLi,LV-4638
Rezeknes,Kukuci,LV-4638
Rezeknes,Lejas Sloboda,LV-4638
Rezeknes,Liela Markovka,LV-4638
Rezeknes,Lukna,LV-4638
Rezeknes,Maza Markovka,LV-4638
Rezeknes,Mezalovnieki,LV-4638
Rezeknes,Mezasorgi,LV-4638
Rezeknes,Mihejevka,LV-4638
Rezeknes,Odotas,LV-4638
Rezeknes,Papki,LV-4638
Rezeknes,PedeLi,LV-4638
Rezeknes,PilveLi,LV-4638
Rezeknes,PivteLi,LV-4638
Rezeknes,Sakstagals,LV-4638
Rezeknes,Silinieki,LV-4638
Rezeknes,SkangaLi,LV-4638
Rezeknes,Skromeliski,LV-4638
Rezeknes,Somi,LV-4638
Rezeknes,Stirani,LV-4638
Rezeknes,Studeni,LV-4638
Rezeknes,Zaikova,LV-4638
Rezeknes,Barsuki,LV-4641
Rezeknes,capkova,LV-4641
Rezeknes,Dervani,LV-4641
Rezeknes,Dreizi,LV-4641
Rezeknes,Gajeva,LV-4641
Rezeknes,Geikina,LV-4641
Rezeknes,Greiskani,LV-4641
Rezeknes,Ignasani,LV-4641
Rezeknes,Jeroskina,LV-4641
Rezeknes,Jupatovka,LV-4641
Rezeknes,KoseLova,LV-4641
Rezeknes,Kozlova,LV-4641
Rezeknes,Ladusi,LV-4641
Rezeknes,Lipski,LV-4641
Rezeknes,Litavniki,LV-4641
Rezeknes,Manuhina,LV-4641
Rezeknes,Mihalova,LV-4641
Rezeknes,Minkina,LV-4641
Rezeknes,Niperova,LV-4641
Rezeknes,Novaja,LV-4641
Rezeknes,Pazareva,LV-4641
Rezeknes,Podberezje,LV-4641
Rezeknes,Punduri,LV-4641
Rezeknes,Reiki,LV-4641
Rezeknes,Runi,LV-4641
Rezeknes,SkangaLi,LV-4641
Rezeknes,Smuskova,LV-4641
Rezeknes,Spruzeva,LV-4641
Rezeknes,Stolbovka,LV-4641
Rezeknes,Taraputki,LV-4641
Rezeknes,Tihanovka,LV-4641
Rezeknes,Tumenki,LV-4641
Rezeknes,Vipinga,LV-4641
Rezeknes,Voskani,LV-4641
Rezeknes,Zemesgols,LV-4641
Rezeknes,Asani,LV-4642
Rezeknes,Asaniski,LV-4642
Rezeknes,Batari,LV-4642
Rezeknes,Dilani,LV-4642
Rezeknes,Doroskevici,LV-4642
Rezeknes,MadoLesje,LV-4642
Rezeknes,Mihalina,LV-4642
Rezeknes,Ostrovski,LV-4642
Rezeknes,Ostrovskie,LV-4642
Rezeknes,Pokrovka,LV-4642
Rezeknes,Poludni,LV-4642
Rezeknes,Rikopole,LV-4642
Rezeknes,Rosica,LV-4642
Rezeknes,RozeLmuiza,LV-4642
Rezeknes,Rudzati,LV-4642
Rezeknes,Rudzisi,LV-4642
Rezeknes,skinci,LV-4642
Rezeknes,StoLerova,LV-4642
Rezeknes,Veselovka,LV-4642
Rezeknes,Visi,LV-4642
Rezeknes,VorkaLi,LV-4642
Rezeknes,Zakati,LV-4642
Rezeknes,Zatisi,LV-4642
Rezeknes,Zverinci,LV-4642
Rezeknes,ceveri,LV-4643
Rezeknes,Esti,LV-4643
Rezeknes,JurgeLi,LV-4643
Rezeknes,Krogaseta,LV-4643
Rezeknes,Ramaskas,LV-4643
Rezeknes,SeiLi,LV-4643
Rezeknes,Struzani,LV-4643
Rezeknes,ViLumi,LV-4643
Rezeknes,Agafonovka,LV-4645
Rezeknes,Bolbisi,LV-4645
Rezeknes,Bondarevka,LV-4645
Rezeknes,Guriliski,LV-4645
Rezeknes,Jaudzemi,LV-4645
Rezeknes,Komulteni,LV-4645
Rezeknes,KraupeLi,LV-4645
Rezeknes,Laizani,LV-4645
Rezeknes,Laksi,LV-4645
Rezeknes,Mortiski,LV-4645
Rezeknes,Pertniki,LV-4645
Rezeknes,Rjabki,LV-4645
Rezeknes,Spocinoki,LV-4645
Rezeknes,Subinaite,LV-4645
Rezeknes,ULjanova,LV-4645
Rezeknes,VorkaLi,LV-4645
Rezeknes,zabrovka,LV-4645
Rezeknes,Adamova,LV-4647
Rezeknes,Biksiniki,LV-4647
Rezeknes,Burzova,LV-4647
Rezeknes,Gabinova,LV-4647
Rezeknes,GribuLi,LV-4647
Rezeknes,Loborzi,LV-4647
Rezeknes,Petrovka,LV-4647
Rezeknes,PlikpurmaLi,LV-4647
Rezeknes,PurmaLi,LV-4647
Rezeknes,skeneva,LV-4647
Rezeknes,Sondori,LV-4647
Rezeknes,SvikLi,LV-4647
Rezeknes,Tumuzi,LV-4647
Rezeknes,Veremes,LV-4647
Rezeknes,Babrovka,LV-4648
Rezeknes,BaLtina,LV-4648
Rezeknes,Borovaja,LV-4648
Rezeknes,Borovaja Sloboda,LV-4648
Rezeknes,Jaunrikova,LV-4648
Rezeknes,Joksti,LV-4648
Rezeknes,KaLvi,LV-4648
Rezeknes,Kazradzi,LV-4648
Rezeknes,Kelasovka,LV-4648
Rezeknes,Klementinova,LV-4648
Rezeknes,Kolnasata,LV-4648
Rezeknes,Mihalki,LV-4648
Rezeknes,Murani,LV-4648
Rezeknes,Piertniki,LV-4648
Rezeknes,Putni,LV-4648
Rezeknes,Rikava,LV-4648
Rezeknes,Romanovka,LV-4648
Rezeknes,Solaviersi,LV-4648
Rezeknes,UguLova,LV-4648
Rezeknes,zagatnis,LV-4648
Rezeknes,ZimeLovka,LV-4648
Rezeknes,Zirkova,LV-4648
Rezeknes,Zjabki,LV-4648
Rezeknes,Apsinieki,LV-4649
Rezeknes,caksi,LV-4649
Rezeknes,Dulinas,LV-4649
Rezeknes,GribuLi,LV-4649
Rezeknes,Karitoni,LV-4649
Rezeknes,Kuckauski,LV-4649
Rezeknes,Kuderi,LV-4649
Rezeknes,Meirani,LV-4649
Rezeknes,RuskuLi,LV-4649
Rezeknes,Stribas,LV-4649
Rezeknes,Struzani,LV-4649
Rezeknes,Struzanu Jaunsaimnieki,LV-4649
Rezeknes,Struzanu sala,LV-4649
Rezeknes,Svetini,LV-4649
Rezeknes,VejpLavas,LV-4649
Rezeknes,Bierziniki,LV-4652
Rezeknes,Bilinski,LV-4652
Rezeknes,Bliseni,LV-4652
Rezeknes,Brozgola,LV-4652
Rezeknes,caksi,LV-4652
Rezeknes,Caunisi,LV-4652
Rezeknes,Cepleisi,LV-4652
Rezeknes,Cisovka,LV-4652
Rezeknes,Ciukori,LV-4652
Rezeknes,cornie,LV-4652
Rezeknes,Dekteri,LV-4652
Rezeknes,Desetniki,LV-4652
Rezeknes,Drikaskas,LV-4652
Rezeknes,Gabri,LV-4652
Rezeknes,GLaudas,LV-4652
Rezeknes,Gleizdova,LV-4652
Rezeknes,ivulani,LV-4652
Rezeknes,JaudzemLi,LV-4652
Rezeknes,JaundzemLi,LV-4652
Rezeknes,Jurdzi,LV-4652
Rezeknes,Kapini,LV-4652
Rezeknes,Kloneitis,LV-4652
Rezeknes,Korkliniki,LV-4652
Rezeknes,Kristinkas,LV-4652
Rezeknes,Kucinas,LV-4652
Rezeknes,Laigolova,LV-4652
Rezeknes,Laizani,LV-4652
Rezeknes,Leskas,LV-4652
Rezeknes,Livziniki,LV-4652
Rezeknes,Lozdas,LV-4652
Rezeknes,MaigLi,LV-4652
Rezeknes,Mazuri,LV-4652
Rezeknes,MeikaLi,LV-4652
Rezeknes,Migliniki,LV-4652
Rezeknes,Mikitani,LV-4652
Rezeknes,Miuriniki,LV-4652
Rezeknes,Obrumani,LV-4652
Rezeknes,OLhovka,LV-4652
Rezeknes,Opinki,LV-4652
Rezeknes,PiLniki,LV-4652
Rezeknes,Pintani,LV-4652
Rezeknes,Pirmas Drankas,LV-4652
Rezeknes,Pujati,LV-4652
Rezeknes,Puramola,LV-4652
Rezeknes,Putrani,LV-4652
Rezeknes,Rancani,LV-4652
Rezeknes,RasnupLi,LV-4652
Rezeknes,RazgaLi,LV-4652
Rezeknes,Rejenas,LV-4652
Rezeknes,Rogovka,LV-4652
Rezeknes,Rubezniki,LV-4652
Rezeknes,Ruduki,LV-4652
Rezeknes,Rudukova,LV-4652
Rezeknes,Saliniki,LV-4652
Rezeknes,Sarni,LV-4652
Rezeknes,Saukani,LV-4652
Rezeknes,Sila majas,LV-4652
Rezeknes,skesteri,LV-4652
Rezeknes,Smilktinis,LV-4652
Rezeknes,Sosini,LV-4652
Rezeknes,SvikLi,LV-4652
Rezeknes,Upeitniki,LV-4652
Rezeknes,uzuLniki,LV-4652
Rezeknes,Vilkadubisi,LV-4652
Rezeknes,ViLumi,LV-4652
Rezeknes,ZaLmuiza,LV-4652
Rezeknes,Znuteni,LV-4652
Rezeknes,zogotas,LV-4652
Rezeknes,Zusi,LV-4652
Rezeknes,Zvieri,LV-4652
Riebinu,Briski,LV-5301
Riebinu,Kostigi,LV-5301
Riebinu,Lielie Gavari,LV-5301
Riebinu,OndzuLi,LV-5301
Riebinu,Opugi,LV-5301
Riebinu,Patmalnieki,LV-5301
Riebinu,Petrovski,LV-5301
Riebinu,Pivovari,LV-5301
Riebinu,Pizani,LV-5301
Riebinu,Sidorovka,LV-5301
Riebinu,sLomovka,LV-5301
Riebinu,Sprindzi,LV-5301
Riebinu,Vinkova,LV-5301
Riebinu,Zvidri,LV-5301
Riebinu,Akmenaja,LV-5311
Riebinu,Borisovka,LV-5311
Riebinu,Briskas,LV-5311
Riebinu,Ceperi,LV-5311
Riebinu,Galeni,LV-5311
Riebinu,Gribolva,LV-5311
Riebinu,Indani,LV-5311
Riebinu,Lescinski,LV-5311
Riebinu,Lomi-Bortnieki,LV-5311
Riebinu,Makarovka,LV-5311
Riebinu,Maltas Trupi,LV-5311
Riebinu,Marinski,LV-5311
Riebinu,MicuLevka,LV-5311
Riebinu,Prizevoiti,LV-5311
Riebinu,PuncuLi,LV-5311
Riebinu,Skabi,LV-5311
Riebinu,SoboLevka,LV-5311
Riebinu,Sondori,LV-5311
Riebinu,Vecbeci,LV-5311
Riebinu,Voveres,LV-5311
Riebinu,ZeimuLi-Puzaki,LV-5311
Riebinu,Aleksandrovka,LV-5318
Riebinu,Astragini,LV-5318
Riebinu,Daugaviesi,LV-5318
Riebinu,Ezernieki,LV-5318
Riebinu,Firsovas,LV-5318
Riebinu,GracuLi,LV-5318
Riebinu,GudLeva,LV-5318
Riebinu,Jaunmuiza,LV-5318
Riebinu,Kategrade,LV-5318
Riebinu,Kliskovas,LV-5318
Riebinu,Kolna Rubini,LV-5318
Riebinu,Kotani,LV-5318
Riebinu,Ludvigova,LV-5318
Riebinu,OndzuLi,LV-5318
Riebinu,Pirmie PrikuLi,LV-5318
Riebinu,Rezes,LV-5318
Riebinu,Rizevas,LV-5318
Riebinu,saures,LV-5318
Riebinu,Sedezi,LV-5318
Riebinu,snepsti,LV-5318
Riebinu,Sosnovka,LV-5318
Riebinu,Stupani,LV-5318
Riebinu,SvaLbi,LV-5318
Riebinu,Urci,LV-5318
Riebinu,Zeilini,LV-5318
Riebinu,Aizupiesi,LV-5326
Riebinu,Babri,LV-5326
Riebinu,Baibas,LV-5326
Riebinu,Blazevici,LV-5326
Riebinu,Cimani,LV-5326
Riebinu,Dubovka,LV-5326
Riebinu,Duntiski,LV-5326
Riebinu,Ezernieki,LV-5326
Riebinu,Hromina,LV-5326
Riebinu,Ivanovka,LV-5326
Riebinu,Jaunie Rumpi,LV-5326
Riebinu,Kalna Randari,LV-5326
Riebinu,Kalnacki,LV-5326
Riebinu,Kausa,LV-5326
Riebinu,Kazisi,LV-5326
Riebinu,Kokoriesi,LV-5326
Riebinu,Krejani,LV-5326
Riebinu,Leiniski,LV-5326
Riebinu,Lejas Randari,LV-5326
Riebinu,Lielie Rumpi,LV-5326
Riebinu,Lukasiski,LV-5326
Riebinu,Mazie Oriesi,LV-5326
Riebinu,Medvednieki,LV-5326
Riebinu,Muhti,LV-5326
Riebinu,Muhtini,LV-5326
Riebinu,Novini,LV-5326
Riebinu,NovoseLje,LV-5326
Riebinu,Otra Kausa,LV-5326
Riebinu,Pienini,LV-5326
Riebinu,Pusca,LV-5326
Riebinu,Reinieki,LV-5326
Riebinu,Remenieki,LV-5326
Riebinu,Riebini,LV-5326
Riebinu,Runcavnieki,LV-5326
Riebinu,Sadovka,LV-5326
Riebinu,Sakaini,LV-5326
Riebinu,Sauna,LV-5326
Riebinu,SkangeLi,LV-5326
Riebinu,Stabulnieki,LV-5326
Riebinu,Stefanpole,LV-5326
Riebinu,Sunepi,LV-5326
Riebinu,Torogi,LV-5326
Riebinu,Veronikova,LV-5326
Riebinu,Veveri,LV-5326
Riebinu,Zabegi,LV-5326
Riebinu,Zarini,LV-5326
Riebinu,Zaseki,LV-5326
Riebinu,Aizpuriesi,LV-5328
Riebinu,Bernani,LV-5328
Riebinu,Grigi,LV-5328
Riebinu,Kapinieki,LV-5328
Riebinu,Zviergza-Varaza,LV-5328
Riebinu,Aglonas stacija,LV-5329
Riebinu,Antoniski,LV-5329
Riebinu,Asinovka,LV-5329
Riebinu,Augustova,LV-5329
Riebinu,Babri,LV-5329
Riebinu,Baski,LV-5329
Riebinu,BeLetnieki,LV-5329
Riebinu,Berezovka,LV-5329
Riebinu,Breidaki,LV-5329
Riebinu,Caici,LV-5329
Riebinu,Catlaksi,LV-5329
Riebinu,Caunes,LV-5329
Riebinu,Eisagi,LV-5329
Riebinu,Frunciski,LV-5329
Riebinu,Gaileisi,LV-5329
Riebinu,GaiLmuiza,LV-5329
Riebinu,Garsani,LV-5329
Riebinu,GeLenova,LV-5329
Riebinu,Grebezi,LV-5329
Riebinu,GriguLi,LV-5329
Riebinu,Ivanani,LV-5329
Riebinu,Jureisi,LV-5329
Riebinu,Kalnacki,LV-5329
Riebinu,Kamenka,LV-5329
Riebinu,KankuLi,LV-5329
Riebinu,KareLi,LV-5329
Riebinu,Kastire,LV-5329
Riebinu,Kastovna,LV-5329
Riebinu,Kaucera Gailisi,LV-5329
Riebinu,Kazi,LV-5329
Riebinu,Kazupurvs,LV-5329
Riebinu,Keiki,LV-5329
Riebinu,KLins,LV-5329
Riebinu,Kolna Baski,LV-5329
Riebinu,Kolna Rubini,LV-5329
Riebinu,KozuLi,LV-5329
Riebinu,Kristopeni,LV-5329
Riebinu,Kropova,LV-5329
Riebinu,Krupeniski,LV-5329
Riebinu,Kurtosa,LV-5329
Riebinu,Kuzmi,LV-5329
Riebinu,Limani,LV-5329
Riebinu,Lipnaki,LV-5329
Riebinu,Lubani,LV-5329
Riebinu,Makusi,LV-5329
Riebinu,Marianpole,LV-5329
Riebinu,Mazie Joksti,LV-5329
Riebinu,Mezinski,LV-5329
Riebinu,Molniki,LV-5329
Riebinu,Najautas,LV-5329
Riebinu,NovomisLi,LV-5329
Riebinu,Novopole,LV-5329
Riebinu,Otrie PrikuLi,LV-5329
Riebinu,Ozoli,LV-5329
Riebinu,Pastari,LV-5329
Riebinu,Pizani,LV-5329
Riebinu,Poksani,LV-5329
Riebinu,Pudzi,LV-5329
Riebinu,Rogovka,LV-5329
Riebinu,Rusona,LV-5329
Riebinu,Rutkovsku Kazi,LV-5329
Riebinu,RutuLi,LV-5329
Riebinu,samsuri,LV-5329
Riebinu,santi,LV-5329
Riebinu,serespole,LV-5329
Riebinu,silova,LV-5329
Riebinu,Siverina,LV-5329
Riebinu,snitkina,LV-5329
Riebinu,SpuLdzeni,LV-5329
Riebinu,Susojeva,LV-5329
Riebinu,Tisa,LV-5329
Riebinu,Utinani,LV-5329
Riebinu,Veveri,LV-5329
Riebinu,Vigoda,LV-5329
Riebinu,Vilcani,LV-5329
Riebinu,Zbedas,LV-5329
Riebinu,Zeiniski,LV-5329
Riebinu,Zolva,LV-5329
Riebinu,Antani,LV-5330
Riebinu,Arhipova,LV-5330
Riebinu,Bikova,LV-5330
Riebinu,cervoniki,LV-5330
Riebinu,Dumbrova,LV-5330
Riebinu,Golubi,LV-5330
Riebinu,Jacmeniski,LV-5330
Riebinu,Kairisi,LV-5330
Riebinu,Kostigi,LV-5330
Riebinu,KotLarova,LV-5330
Riebinu,Krevi,LV-5330
Riebinu,Krievu Balbarzi,LV-5330
Riebinu,KuLci,LV-5330
Riebinu,Latatujeva,LV-5330
Riebinu,Latviesu Balbarzi,LV-5330
Riebinu,Leitani,LV-5330
Riebinu,Markova,LV-5330
Riebinu,Muktini,LV-5330
Riebinu,Nalobna,LV-5330
Riebinu,Ornisi,LV-5330
Riebinu,PaLsa,LV-5330
Riebinu,Rozalina,LV-5330
Riebinu,scadrinieki,LV-5330
Riebinu,SeveLi,LV-5330
Riebinu,Silajani,LV-5330
Riebinu,spaki,LV-5330
Riebinu,Strazvaldi,LV-5330
Riebinu,Sudari,LV-5330
Riebinu,UspeLi,LV-5330
Riebinu,Bojaru Erini,LV-5331
Riebinu,Brokas,LV-5331
Riebinu,Broki,LV-5331
Riebinu,caunani,LV-5331
Riebinu,EreLi,LV-5331
Riebinu,GraveLi,LV-5331
Riebinu,Grozu Bernani,LV-5331
Riebinu,Icaunieki,LV-5331
Riebinu,JaungaiLi,LV-5331
Riebinu,Kapenieki,LV-5331
Riebinu,Kassaliesi,LV-5331
Riebinu,MadzuLi,LV-5331
Riebinu,Meza Erini,LV-5331
Riebinu,Opolie,LV-5331
Riebinu,Pelsu Zlemesi,LV-5331
Riebinu,Salenieki,LV-5331
Riebinu,SeiLi,LV-5331
Riebinu,SiLukalns,LV-5331
Riebinu,Sondori,LV-5331
Riebinu,Sprukstini,LV-5331
Riebinu,Stikani,LV-5331
Riebinu,Teilani,LV-5331
Riebinu,Upenieki,LV-5331
Riebinu,Bojari,LV-5333
Riebinu,Briski-Balckari,LV-5333
Riebinu,caci,LV-5333
Riebinu,caunani,LV-5333
Riebinu,Cepernieki,LV-5333
Riebinu,DegLi,LV-5333
Riebinu,Grozas,LV-5333
Riebinu,Kalna GudLevski,LV-5333
Riebinu,Kalna Miculisi,LV-5333
Riebinu,Kauperi,LV-5333
Riebinu,KozuLni,LV-5333
Riebinu,Kristobi,LV-5333
Riebinu,Meza Miculisi,LV-5333
Riebinu,Meza Trupi,LV-5333
Riebinu,Pastari,LV-5333
Riebinu,Patmalnieki,LV-5333
Riebinu,Polkorona,LV-5333
Riebinu,Saunas Vulani,LV-5333
Riebinu,Stabulnieki,LV-5333
Riebinu,Troksas,LV-5333
Riebinu,ugaini-PuduLi,LV-5333
Riebinu,Vilcini,LV-5333
Riebinu,Zvergza-Varaza,LV-5333
Riga,Riga,LV-1001
Riga,Riga,LV-1002
Riga,Riga,LV-1003
Riga,Riga,LV-1004
Riga,Riga,LV-1005
Riga,Riga,LV-1006
Riga,Riga,LV-1007
Riga,Riga,LV-1009
Riga,Riga,LV-1010
Riga,Riga,LV-1011
Riga,Riga,LV-1012
Riga,Riga,LV-1013
Riga,Riga,LV-1014
Riga,Riga,LV-1015
Riga,Riga,LV-1016
Riga,Riga,LV-1019
Riga,Riga,LV-1021
Riga,Riga,LV-1023
Riga,Riga,LV-1024
Riga,Riga,LV-1026
Riga,Riga,LV-1029
Riga,Riga,LV-1030
Riga,Riga,LV-1034
Riga,Riga,LV-1035
Riga,Riga,LV-1038
Riga,Riga,LV-1039
Riga,Riga,LV-1045
Riga,Riga,LV-1046
Riga,Riga,LV-1048
Riga,Riga,LV-1050
Riga,Riga,LV-1055
Riga,Riga,LV-1057
Riga,Riga,LV-1058
Riga,Riga,LV-1063
Riga,Riga,LV-1064
Riga,Riga,LV-1067
Riga,Riga,LV-1069
Riga,Riga,LV-1073
Riga,Riga,LV-1076
Riga,Riga,LV-1079
Riga,Riga,LV-1082
Riga,Riga,LV-1083
Riga,Riga,LV-1084
Rojas,Aizklani,LV-3264
Rojas,gipka,LV-3264
Rojas,Kaltene,LV-3264
Rojas,Melnsils,LV-3264
Rojas,Purciems,LV-3264
Rojas,Roja,LV-3264
Rojas,Rude,LV-3264
Rojas,zocene,LV-3264
Rojas,Kaltene,LV-3284
Rojas,Valgalciems,LV-3284
Ropazu,ulupji,LV-2118
Ropazu,Bajari,LV-2133
Ropazu,Bajarkrogs,LV-2133
Ropazu,Gaidas,LV-2133
Ropazu,Jaunbagumi,LV-2133
Ropazu,Kakciems,LV-2133
Ropazu,Nagelmuiza,LV-2133
Ropazu,RotkaLi,LV-2133
Ropazu,Silakrogs,LV-2133
Ropazu,Zakumuiza,LV-2133
Ropazu,Augsciems,LV-2135
Ropazu,Bajari,LV-2135
Ropazu,Bajarkrogs,LV-2135
Ropazu,Kakciems,LV-2135
Ropazu,Kangari,LV-2135
Ropazu,Lielkangari,LV-2135
Ropazu,Podkajas,LV-2135
Ropazu,Ropazi,LV-2135
Ropazu,Tumsupe,LV-2135
Ropazu,Vaverkrogs,LV-2135
Ropazu,Villasmuiza,LV-2135
Ropazu,Mucenieki,LV-2137
Rucavas,kakiske,LV-3477
Rucavas,Nida,LV-3477
Rucavas,Pape,LV-3477
Rucavas,Pesi,LV-3477
Rucavas,Rucava,LV-3477
Rucavas,Dunika,LV-3480
Rucavas,Jeci,LV-3480
Rucavas,Siksni,LV-3480
Rugaju,Rugaji,LV-4570
Rugaju,Tikaini,LV-4570
Rugaju,Benislava,LV-4577
Rugaju,Skujetnieki,LV-4577
Rujienas,Endzele,LV-4234
Rujienas,Jeri,LV-4234
Rujienas,Oleri,LV-4234
Rujienas,Vilpulka,LV-4241
Rujienas,Virkeni,LV-4241
Rujienas,Ipiki,LV-4242
Rujienas,Arakste,LV-4248
Rujienas,Lode,LV-4248
Rundales,Lepsas,LV-3901
Rundales,Priedites,LV-3901
Rundales,Saulaine,LV-3901
Rundales,Ziedoni,LV-3901
Rundales,Svitene,LV-3917
Rundales,Tirumi,LV-3917
Rundales,Gravendale,LV-3921
Rundales,Janukrogs,LV-3921
Rundales,Mazberstele,LV-3921
Rundales,Mazmezotne,LV-3921
Rundales,Pilsrundale,LV-3921
Rundales,Punslavas,LV-3921
Rundales,svirkale,LV-3921
Rundales,Vecrundale,LV-3921
Rundales,Viesturi,LV-3921
Rundales,Berstele,LV-3927
Rundales,Vairogi,LV-3927
Salacgrivas,Tuja,LV-4022
Salacgrivas,Jelgavkrasti,LV-4023
Salacgrivas,Lembuzi,LV-4023
Salacgrivas,Liepupe,LV-4023
Salacgrivas,Lani,LV-4033
Salacgrivas,Svetciems,LV-4033
Salacgrivas,Vecsalaca,LV-4033
Salacgrivas,Vitrupe,LV-4033
Salacgrivas,Mernieki,LV-4035
Salacgrivas,Korgene,LV-4054
Salas,Birzi,LV-5214
Salas,Dolomits,LV-5214
Salas,Gravani,LV-5230
Salas,Indrani,LV-5230
Salas,Osani,LV-5230
Salas,Putnukalni,LV-5230
Salas,Sala,LV-5230
Salas,Selija,LV-5232
Salaspils,Bajari,LV-2117
Salaspils,Mezsturisi,LV-2117
Salaspils,Saulkalne,LV-2117
Salaspils,Bunci,LV-2118
Salaspils,Jaksti,LV-2118
Salaspils,Jaunsauriesi,LV-2118
Salaspils,Pikurgas,LV-2118
Salaspils,Ruki,LV-2118
Salaspils,Sauriesi,LV-2118
Salaspils,Teraudi,LV-2118
Salaspils,Acone,LV-2119
Salaspils,Silabriezi,LV-2119
Salaspils,Mezezeri,LV-2121
Salaspils,Pikurgas,LV-2121
Salaspils,Tilderi,LV-2121
Salaspils,keizarsils,LV-2169
Salaspils,Pikurgas,LV-2169
Salaspils,Pikalne,LV-5015
Saldus,Butnari,LV-3801
Saldus,Draudziba,LV-3801
Saldus,Mezvidi,LV-3801
Saldus,Satini,LV-3801
Saldus,Zirni,LV-3853
Saldus,Lutrini,LV-3861
Saldus,Namiki,LV-3861
Saldus,Druva,LV-3862
Saldus,skede,LV-3875
Saldus,Jaunlutrini,LV-3876
Saldus,Osenieki,LV-3876
Saldus,evarzi,LV-3880
Saldus,Sesile,LV-3880
Saldus,PampaLi,LV-3882
Saldus,Kursi,LV-3883
Saldus,Striki,LV-3883
Saldus,Kursisi,LV-3890
Saldus,Ezere,LV-3891
Saldus,Rubas,LV-3892
Saldus,Jaunauce,LV-3893
Saldus,Ruba,LV-3894
Saldus,Vadakste,LV-3895
Saldus,Ezeres,LV-3896
Saldus,Zanas,LV-3896
Saldus,Baltaiskrogs,LV-3897
Saldus,KareLi,LV-3897
Saldus,Kalni,LV-3898
Saldus,Nigrande,LV-3899
Saulkrastu,Ainava,LV-2160
Saulkrastu,ares,LV-2160
Saulkrastu,Astra,LV-2160
Saulkrastu,Banga,LV-2160
Saulkrastu,Batciems,LV-2160
Saulkrastu,Gaisma,LV-2160
Saulkrastu,Jubileja,LV-2160
Saulkrastu,kisupe 1,LV-2160
Saulkrastu,kisupe 2,LV-2160
Saulkrastu,Lici,LV-2160
Saulkrastu,Liepaine,LV-2160
Saulkrastu,Lilaste,LV-2160
Saulkrastu,Mezvidi,LV-2160
Saulkrastu,Pabazi,LV-2160
Saulkrastu,Peterupe,LV-2160
Saulkrastu,Priedes,LV-2160
Saulkrastu,Roze,LV-2160
Saulkrastu,Saulaina ieleja,LV-2160
Saulkrastu,Saulite,LV-2160
Saulkrastu,Selga,LV-2160
Saulkrastu,Silmala,LV-2160
Saulkrastu,VEF-Bikernieki,LV-2160
Saulkrastu,VEF-Pabazi,LV-2160
Saulkrastu,Veseliba,LV-2160
Saulkrastu,Vesma,LV-2160
Saulkrastu,Zeme,LV-2160
Saulkrastu,Zvejniekciems,LV-2160
Saulkrastu,Zvejniekciems,LV-2161
Sejas,Jaunkrimulda,LV-2142
Sejas,Loja,LV-2142
Sejas,Seja,LV-2142
Sejas,abelite,LV-2160
Sejas,Garsmuiza,LV-2160
Sejas,Vaivarini,LV-2160
Sejas,Pabazi,LV-2162
Siguldas,Kalnabeites,LV-2150
Siguldas,kipari,LV-2150
Siguldas,Nurmizi,LV-2150
Siguldas,Peltes,LV-2150
Siguldas,Vejupite,LV-2150
Siguldas,Judazi,LV-2151
Siguldas,Allazi,LV-2154
Siguldas,Allazmuiza,LV-2154
Siguldas,EgLupe,LV-2154
Siguldas,Planupe,LV-2154
Siguldas,Stiveri,LV-2154
Siguldas,More,LV-2170
Skriveru,Klidzina,LV-5125
Skriveru,Lici,LV-5125
Skriveru,Skriveri,LV-5125
Skriveru,Zemkopibas instituts,LV-5125
Skriveru,Ziedugravas,LV-5125
Skrundas,Jaunmuiza,LV-3307
Skrundas,Dzelda,LV-3320
Skrundas,Ranki,LV-3323
Skrundas,Rudbarzi,LV-3324
Skrundas,Sieksate,LV-3325
Skrundas,Ciecere,LV-3326
Skrundas,Kusaini,LV-3326
Skrundas,Lenas,LV-3326
Skrundas,Runaisi,LV-3326
Skrundas,Smilgas,LV-3326
Smiltenes,Bilska,LV-4706
Smiltenes,Meri,LV-4706
Smiltenes,Blome,LV-4707
Smiltenes,Brantu,LV-4708
Smiltenes,Aumeisteri,LV-4713
Smiltenes,Grundzale,LV-4713
Smiltenes,Vizla,LV-4713
Smiltenes,Launkalne,LV-4718
Smiltenes,Palsmane,LV-4724
Smiltenes,Rauza,LV-4724
Smiltenes,Varini,LV-4726
Smiltenes,BrutuLi,LV-4729
Smiltenes,Ilgas,LV-4729
Smiltenes,Kalnamuiza,LV-4729
Smiltenes,Kamaldina,LV-4729
Smiltenes,Saltupi,LV-4729
Smiltenes,Silva,LV-4729
Smiltenes,Vidzeme,LV-4729
Stopinu,Rumbula,LV-1057
Stopinu,Cekule,LV-2118
Stopinu,Lici,LV-2118
Stopinu,Upeslejas,LV-2118
Stopinu,Rumbula,LV-2119
Stopinu,Rumbula,LV-2121
Stopinu,Dreilini,LV-2130
Stopinu,Dzidrinas,LV-2130
Stopinu,Lici,LV-2130
Stopinu,Ulbroka,LV-2130
Stopinu,Valodzes,LV-2130
Strencu,Jerceni,LV-4715
Strencu,keizi,LV-4715
Strencu,Jaunklidzis,LV-4727
Strencu,Plani,LV-4727
Strencu,Seda,LV-4728
Strencu,keizi,LV-4730
Talsu,Jaunzemes,LV-3201
Talsu,Paugurciems,LV-3201
Talsu,Sukturi,LV-3201
Talsu,Zvirgzdi,LV-3201
Talsu,Arklini,LV-3251
Talsu,Jaunzemes,LV-3251
Talsu,Pastende,LV-3251
Talsu,Talsciems,LV-3251
Talsu,Turkmuiza,LV-3251
Talsu,CiruLi,LV-3253
Talsu,gibzde,LV-3253
Talsu,Lielsalas,LV-3253
Talsu,Punas,LV-3253
Talsu,Valdgale,LV-3253
Talsu,Vecpunas,LV-3253
Talsu,BirzmaLi,LV-3257
Talsu,Aklaisciems,LV-3258
Talsu,Andumi,LV-3258
Talsu,Bekciems,LV-3258
Talsu,Bungciems,LV-3258
Talsu,Dizstende,LV-3258
Talsu,Gailisciems,LV-3258
Talsu,Libagi,LV-3258
Talsu,Linejciems,LV-3258
Talsu,Macitajmuiza,LV-3258
Talsu,Mundigciems,LV-3258
Talsu,Purgalciems,LV-3258
Talsu,Putninciems,LV-3258
Talsu,Smildzejciems,LV-3258
Talsu,Ambrakas,LV-3260
Talsu,Jaunciems,LV-3260
Talsu,Kronmuiza,LV-3260
Talsu,Nogale,LV-3260
Talsu,Dumciems,LV-3261
Talsu,ive,LV-3261
Talsu,kurbe,LV-3261
Talsu,Tingere,LV-3261
Talsu,Anuzi,LV-3262
Talsu,Lubezere,LV-3262
Talsu,Laidze,LV-3280
Talsu,Mieguze,LV-3280
Talsu,Rocezi,LV-3280
Talsu,Sturisi,LV-3280
Talsu,Vigrieze,LV-3280
Talsu,Zvirgzdi,LV-3280
Talsu,Ladzere,LV-3281
Talsu,Vandzene,LV-3281
Talsu,Vandzenes skola,LV-3281
Talsu,Dzedri,LV-3283
Talsu,Krievragciems,LV-3283
Talsu,kuLciems,LV-3283
Talsu,Ugunciems,LV-3284
Talsu,Garlene,LV-3285
Talsu,Ieleja,LV-3285
Talsu,Lauciene,LV-3285
Talsu,Lejaslabini,LV-3285
Talsu,Odre,LV-3285
Talsu,PLavas,LV-3285
Talsu,Plesums,LV-3285
Talsu,Sturisi,LV-3285
Talsu,Dursupe,LV-3287
Talsu,Gravas,LV-3291
Talsu,Kakisi,LV-3291
Talsu,Strazde,LV-3291
Talsu,Bruzis,LV-3292
Talsu,Darzciems,LV-3292
Talsu,Ezerciems,LV-3292
Talsu,Jaunpagasts,LV-3292
Talsu,Ledas,LV-3292
Talsu,Dreimanciems,LV-3294
Talsu,Kalesi,LV-3294
Talsu,Lielvirbi,LV-3294
Talsu,Mazvirbi,LV-3294
Talsu,Pedvale,LV-3294
Talsu,Rinkule,LV-3294
Talsu,Valgale,LV-3294
Talsu,Vegi,LV-3294
Talsu,Aizupes,LV-3297
Talsu,GaviLnieki,LV-3297
Talsu,gibuLi,LV-3297
Talsu,Ilini,LV-3297
Talsu,Kraujas,LV-3297
Talsu,Lici,LV-3297
Talsu,Mordanga,LV-3298
Talsu,Spare,LV-3298
Tervetes,Augstkalne,LV-3709
Tervetes,Dzeguzeni,LV-3709
Tervetes,Bukaisi,LV-3714
Tervetes,Kronauce,LV-3730
Tervetes,Tervete,LV-3730
Tervetes,Zelmeni,LV-3730
Tukuma,Tumes,LV-3104
Tukuma,Kaive,LV-3110
Tukuma,Seme,LV-3110
Tukuma,Slampe,LV-3119
Tukuma,Zentene,LV-3123
Tukuma,Dzintars,LV-3124
Tukuma,Lamini,LV-3124
Tukuma,Pure,LV-3124
Tukuma,Abavnieki,LV-3128
Tukuma,Ozolnieki,LV-3133
Tukuma,Irlava,LV-3137
Tukuma,Sati,LV-3137
Tukuma,Vaski,LV-3137
Tukuma,Kaive,LV-3139
Tukuma,Tume,LV-3139
Tukuma,Degole,LV-3140
Tukuma,Vieniba,LV-3140
Tukuma,Lestene,LV-3146
Tukuma,Dzukste,LV-3147
Tukuma,Lancenieki,LV-3147
Tukuma,Pienava,LV-3147
Vainodes,Vainode,LV-3435
Vainodes,Vibini,LV-3436
Valkas,Lugazi,LV-4701
Valkas,ergeme,LV-4711
Valkas,OmuLi,LV-4711
Valkas,Turna,LV-4711
Valkas,Karki,LV-4716
Valkas,Veckarki,LV-4716
Valkas,Veveri,LV-4716
Valkas,SeLi,LV-4723
Valkas,Vijciems,LV-4733
Valkas,Stepi,LV-4735
Valmiera,Valmiera,LV-4201
Varaklanu,Murmastiene,LV-4835
Varaklanu,Murmastienes,LV-4836
Varaklanu,VarakLanu,LV-4836
Varaklanu,Stirniene,LV-4837
Varaklanu,Kokari,LV-4838
Varkavas,Divkle,LV-5316
Varkavas,EgLupe,LV-5316
Varkavas,KLavinski,LV-5316
Varkavas,Krivore,LV-5316
Varkavas,Macani,LV-5316
Varkavas,Melna Zeme,LV-5316
Varkavas,Pugaini,LV-5316
Varkavas,skiLteri,LV-5316
Varkavas,SvaLbiski,LV-5316
Varkavas,Vanagi,LV-5316
Varkavas,Vilcani,LV-5316
Varkavas,Zosini,LV-5316
Varkavas,Aizalksne,LV-5325
Varkavas,Andini,LV-5325
Varkavas,Aptaciesi,LV-5325
Varkavas,Arendole,LV-5325
Varkavas,Augsmukti,LV-5325
Varkavas,Briezi,LV-5325
Varkavas,CepLuki,LV-5325
Varkavas,Cimuski,LV-5325
Varkavas,DeLusala,LV-5325
Varkavas,Dubenca,LV-5325
Varkavas,Dunciski,LV-5325
Varkavas,Gadzani,LV-5325
Varkavas,Izdegas,LV-5325
Varkavas,Jadvigova,LV-5325
Varkavas,Jaudzemi,LV-5325
Varkavas,Kvedervecumi,LV-5325
Varkavas,Lazdani,LV-5325
Varkavas,Lielie Stradiski,LV-5325
Varkavas,Lozdas,LV-5325
Varkavas,Mizovski,LV-5325
Varkavas,Neicenieki,LV-5325
Varkavas,Paberzi,LV-5325
Varkavas,Persaki,LV-5325
Varkavas,Plocini,LV-5325
Varkavas,Ploni,LV-5325
Varkavas,Rimicani,LV-5325
Varkavas,Romanvecumi,LV-5325
Varkavas,Salenieki,LV-5325
Varkavas,Spricvecumi,LV-5325
Varkavas,Strodi,LV-5325
Varkavas,Vingri,LV-5325
Varkavas,ZeLtovka,LV-5325
Varkavas,Andriveni,LV-5335
Varkavas,arnisi,LV-5335
Varkavas,Asenieki,LV-5335
Varkavas,Baganiski,LV-5335
Varkavas,Berezovka,LV-5335
Varkavas,Bratiski,LV-5335
Varkavas,Broduzi,LV-5335
Varkavas,Brokovski,LV-5335
Varkavas,Buckas,LV-5335
Varkavas,Butkas,LV-5335
Varkavas,cukuri,LV-5335
Varkavas,Dambisi,LV-5335
Varkavas,Dolgais Bors,LV-5335
Varkavas,Dovale,LV-5335
Varkavas,Dzeni,LV-5335
Varkavas,Dzirvaniskas,LV-5335
Varkavas,Gavari,LV-5335
Varkavas,Gavariskas,LV-5335
Varkavas,KaLvi,LV-5335
Varkavas,Kazeri,LV-5335
Varkavas,Kazieri,LV-5335
Varkavas,Ksaverinova,LV-5335
Varkavas,Lauski,LV-5335
Varkavas,Lielkursisi,LV-5335
Varkavas,Margitava,LV-5335
Varkavas,Mazkursisi,LV-5335
Varkavas,Mezarejas,LV-5335
Varkavas,Piliskas,LV-5335
Varkavas,Pogas,LV-5335
Varkavas,Rusini,LV-5335
Varkavas,saripauka,LV-5335
Varkavas,Sitniki,LV-5335
Varkavas,Spules,LV-5335
Varkavas,StabuLniki,LV-5335
Varkavas,stageri,LV-5335
Varkavas,Timenova,LV-5335
Varkavas,Upenieki,LV-5335
Varkavas,Upes ceirani,LV-5335
Varkavas,Vecvarkava,LV-5335
Varkavas,Vepri,LV-5335
Varkavas,Veverauka,LV-5335
Varkavas,Vilkopa,LV-5335
Varkavas,Zabludniki,LV-5335
Varkavas,Zakisi,LV-5335
Varkavas,Aizpurisi,LV-5337
Varkavas,Anckini,LV-5337
Varkavas,BeLetniki,LV-5337
Varkavas,BorbaLi,LV-5337
Varkavas,Briskas,LV-5337
Varkavas,Desetniki,LV-5337
Varkavas,Dzeni,LV-5337
Varkavas,Gruzdinauka,LV-5337
Varkavas,Ignalina,LV-5337
Varkavas,Jaunberze,LV-5337
Varkavas,Jezupova,LV-5337
Varkavas,Ksaverinova,LV-5337
Varkavas,Mazie Klapari,LV-5337
Varkavas,OnckuLi,LV-5337
Varkavas,Putkas,LV-5337
Varkavas,Sila ceirani,LV-5337
Varkavas,skilteri,LV-5337
Varkavas,Spules,LV-5337
Varkavas,Stivrenieki,LV-5337
Varkavas,Varkava,LV-5337
Varkavas,Zibergova,LV-5337
Varkavas,Znotini,LV-5337
Vecpiebalgas,Dzerbene,LV-4118
Vecpiebalgas,Taurene,LV-4119
Vecpiebalgas,Vecpiebalga,LV-4122
Vecpiebalgas,Inesi,LV-4123
Vecpiebalgas,Kaive,LV-4144
Vecumnieku,Barbele,LV-3905
Vecumnieku,Gaisma,LV-3905
Vecumnieku,Misa,LV-3906
Vecumnieku,Memele,LV-3915
Vecumnieku,Putni,LV-3924
Vecumnieku,Skaistkalne,LV-3924
Vecumnieku,Beitini,LV-3925
Vecumnieku,Nizere,LV-3925
Vecumnieku,Stelpe,LV-3925
Vecumnieku,Vecumnieku,LV-3930
Vecumnieku,Beibezi,LV-3933
Vecumnieku,Piebalgas,LV-3933
Vecumnieku,Vecumnieki,LV-3933
Vecumnieku,Taurkalne,LV-5106
Vecumnieku,Valle,LV-5106
Vecumnieku,Kurmene,LV-5115
Ventspils,Akmendziras,LV-3601
Ventspils,Busnieki,LV-3601
Ventspils,Irbene,LV-3601
Ventspils,Jaunciems,LV-3601
Ventspils,Jaunupe,LV-3601
Ventspils,Lielirbe,LV-3601
Ventspils,Liepene,LV-3601
Ventspils,Luzna,LV-3601
Ventspils,MikeLtornis,LV-3601
Ventspils,Ovisi,LV-3601
Ventspils,Rinda,LV-3601
Ventspils,Ventspils,LV-3601
Ventspils,Ventspils,LV-3602
Ventspils,Ventspils,LV-3604
Ventspils,Ance,LV-3612
Ventspils,Jornini,LV-3612
Ventspils,Lonaste,LV-3612
Ventspils,Virpe,LV-3612
Ventspils,Amele,LV-3613
Ventspils,Blazma,LV-3613
Ventspils,Puzenieki,LV-3613
Ventspils,Puzes muiza,LV-3613
Ventspils,Stikli,LV-3613
Ventspils,Desciems,LV-3614
Ventspils,Jaunmuiza,LV-3614
Ventspils,Pope,LV-3614
Ventspils,Spinni,LV-3614
Ventspils,Topciems,LV-3614
Ventspils,Vede,LV-3614
Ventspils,Materi,LV-3615
Ventspils,Ugale,LV-3615
Ventspils,Zlekas,LV-3617
Ventspils,Amjudze,LV-3619
Ventspils,Ragbruzciems,LV-3619
Ventspils,Usma,LV-3619
Ventspils,DziLgi,LV-3620
Ventspils,Garzde,LV-3620
Ventspils,KaraLciems,LV-3620
Ventspils,udrande,LV-3620
Ventspils,Dokupe,LV-3621
Ventspils,Krievlauki,LV-3621
Ventspils,Packules ciems,LV-3621
Ventspils,Standzes ciems,LV-3621
Ventspils,Targale,LV-3621
Ventspils,Cirpstene,LV-3623
Ventspils,Leci,LV-3623
Ventspils,Pasiekste,LV-3623
Ventspils,Varve,LV-3623
Ventspils,Ventava,LV-3623
Ventspils,Zuras,LV-3623
Ventspils,Ziras,LV-3624
Ventspils,Jurkalne,LV-3626
Ventspils,Labrags,LV-3626
Ventspils,Osvalki,LV-3626
Ventspils,Sarnate,LV-3627
Ventspils,Uzava,LV-3627
Ventspils,Vendzavas,LV-3627
Viesites,Apserde,LV-5217
Viesites,Elksni,LV-5217
Viesites,Lone,LV-5224
Viesites,Sauka,LV-5224
Viesites,Rites,LV-5228
Viesites,Klauce,LV-5237
Vilakas,Garsterdele,LV-4501
Vilakas,Mucukalns,LV-4501
Vilakas,Stompaki,LV-4501
Vilakas,Gailava,LV-4582
Vilakas,Irikava,LV-4582
Vilakas,Klani,LV-4582
Vilakas,Krustacelms,LV-4582
Vilakas,Kulpene,LV-4582
Vilakas,Melnrucis,LV-4582
Vilakas,Nastrova,LV-4582
Vilakas,Birznieki,LV-4583
Vilakas,Braslava,LV-4583
Vilakas,Bronti,LV-4583
Vilakas,cabatrova,LV-4583
Vilakas,EgLava,LV-4583
Vilakas,Erzepole,LV-4583
Vilakas,Ezermala,LV-4583
Vilakas,Geinova,LV-4583
Vilakas,Gorsani,LV-4583
Vilakas,Gruzdova,LV-4583
Vilakas,Gurinova,LV-4583
Vilakas,Ilzini,LV-4583
Vilakas,Janapole,LV-4583
Vilakas,Jauji,LV-4583
Vilakas,Kazukalns,LV-4583
Vilakas,Keisi,LV-4583
Vilakas,KravaLi,LV-4583
Vilakas,LeLi,LV-4583
Vilakas,Meirova,LV-4583
Vilakas,Mezarija,LV-4583
Vilakas,Poksova,LV-4583
Vilakas,Posacki,LV-4583
Vilakas,Raci,LV-4583
Vilakas,Skockova,LV-4583
Vilakas,Slipaci,LV-4583
Vilakas,Susaji,LV-4583
Vilakas,Svilpova,LV-4583
Vilakas,Tepenica,LV-4583
Vilakas,Tereskova,LV-4583
Vilakas,Tutinova,LV-4583
Vilakas,ulasi,LV-4583
Vilakas,Vainagi,LV-4583
Vilakas,Vonagova,LV-4583
Vilakas,Brizgova,LV-4584
Vilakas,cernova,LV-4584
Vilakas,Garsa,LV-4584
Vilakas,Glazunova,LV-4584
Vilakas,Karigova,LV-4584
Vilakas,Katlesi,LV-4584
Vilakas,Plesova,LV-4584
Vilakas,Pritikova,LV-4584
Vilakas,salgunova,LV-4584
Vilakas,Sils,LV-4584
Vilakas,Sola,LV-4584
Vilakas,Sosnicas,LV-4584
Vilakas,Sturisi,LV-4584
Vilakas,Vedeniesi,LV-4584
Vilakas,ziguri,LV-4584
Vilakas,zigurova,LV-4584
Vilakas,Badnova,LV-4585
Vilakas,Blinica,LV-4585
Vilakas,Borisova,LV-4585
Vilakas,Cukine,LV-4585
Vilakas,Garsa,LV-4585
Vilakas,Gubeni,LV-4585
Vilakas,Indrici,LV-4585
Vilakas,Kozine,LV-4585
Vilakas,Lauzi,LV-4585
Vilakas,Lavosnieki,LV-4585
Vilakas,Lugi,LV-4585
Vilakas,nemecki,LV-4585
Vilakas,Rejeva,LV-4585
Vilakas,Repkova,LV-4585
Vilakas,Robeznieki,LV-4585
Vilakas,sLopkine,LV-4585
Vilakas,Sola,LV-4585
Vilakas,Talaviesi,LV-4585
Vilakas,Upmala,LV-4585
Vilakas,Vecumi,LV-4585
Vilakas,zogova,LV-4585
Vilakas,Aizgaline,LV-4586
Vilakas,Aizpurve,LV-4586
Vilakas,Bahmatova,LV-4586
Vilakas,Bordova,LV-4586
Vilakas,KLucniki,LV-4586
Vilakas,Laski,LV-4586
Vilakas,Loduma,LV-4586
Vilakas,Lozdova,LV-4586
Vilakas,Medneva,LV-4586
Vilakas,Semenova,LV-4586
Vilakas,Skandine,LV-4586
Vilakas,Slotukalns,LV-4586
Vilakas,Torkova,LV-4586
Vilakas,Viduci,LV-4586
Vilakas,Viksnine,LV-4586
Vilakas,Zaiceva,LV-4586
Vilakas,Ancipova,LV-4587
Vilakas,Antonovka,LV-4587
Vilakas,Bakarova,LV-4587
Vilakas,Borisova,LV-4587
Vilakas,Borovka,LV-4587
Vilakas,Buki,LV-4587
Vilakas,calkova,LV-4587
Vilakas,cerbakova,LV-4587
Vilakas,cilipine,LV-4587
Vilakas,Dagunova,LV-4587
Vilakas,DubLova,LV-4587
Vilakas,Dzjorgova,LV-4587
Vilakas,Eriki,LV-4587
Vilakas,Fabriki,LV-4587
Vilakas,Gabacova,LV-4587
Vilakas,Grohova,LV-4587
Vilakas,Gusakova,LV-4587
Vilakas,ILvezi,LV-4587
Vilakas,Ivanovka,LV-4587
Vilakas,Kangari,LV-4587
Vilakas,Komugreiva,LV-4587
Vilakas,Kozlova,LV-4587
Vilakas,Krutova,LV-4587
Vilakas,Kubulova,LV-4587
Vilakas,Lejastaci,LV-4587
Vilakas,Lemesova,LV-4587
Vilakas,Lipovka,LV-4587
Vilakas,Logini,LV-4587
Vilakas,Lotusi,LV-4587
Vilakas,MaLinovka,LV-4587
Vilakas,Masandrovka,LV-4587
Vilakas,Mukausova,LV-4587
Vilakas,Nikolajevka,LV-4587
Vilakas,Olutova,LV-4587
Vilakas,Pakasova,LV-4587
Vilakas,Peksine,LV-4587
Vilakas,Pikusola,LV-4587
Vilakas,Plesova,LV-4587
Vilakas,Porskova,LV-4587
Vilakas,Pridovka,LV-4587
Vilakas,Prisjolova,LV-4587
Vilakas,RaipoLi,LV-4587
Vilakas,Rekosari,LV-4587
Vilakas,Rekova,LV-4587
Vilakas,Riosari,LV-4587
Vilakas,Rogovski,LV-4587
Vilakas,RoguLeva,LV-4587
Vilakas,Rozumegi,LV-4587
Vilakas,Saucine,LV-4587
Vilakas,Sisova,LV-4587
Vilakas,skilbani,LV-4587
Vilakas,StabLova,LV-4587
Vilakas,Stiglova,LV-4587
Vilakas,Supretka,LV-4587
Vilakas,Svicova,LV-4587
Vilakas,SviLova,LV-4587
Vilakas,Tribunova,LV-4587
Vilakas,Upite,LV-4587
Vilakas,Viduci,LV-4587
Vilakas,Vilkova,LV-4587
Vilakas,ZaLcupe,LV-4587
Vilakas,Zatisje,LV-4587
Vilakas,ZeLci,LV-4587
Vilakas,Zogadi,LV-4587
Vilanu,Bokani,LV-4614
Vilanu,Brangova,LV-4614
Vilanu,Deksares,LV-4614
Vilanu,Griuzinieki,LV-4614
Vilanu,Jaunsaimnieki,LV-4614
Vilanu,MadzuLi,LV-4614
Vilanu,Malnieki,LV-4614
Vilanu,Obeliskas,LV-4614
Vilanu,Ozinieki,LV-4614
Vilanu,Pastari,LV-4614
Vilanu,PuduLi,LV-4614
Vilanu,Stiukas,LV-4614
Vilanu,Troksas,LV-4614
Vilanu,Trupeni,LV-4614
Vilanu,ALni,LV-4628
Vilanu,Armuskas,LV-4628
Vilanu,Broki,LV-4628
Vilanu,Cakuli,LV-4628
Vilanu,ceveri,LV-4628
Vilanu,Garanci,LV-4628
Vilanu,Garvacainieki,LV-4628
Vilanu,Ikaunieki,LV-4628
Vilanu,Jaunsaimnieki,LV-4628
Vilanu,Jaunsaimnieki 2,LV-4628
Vilanu,Juski,LV-4628
Vilanu,KristceLi,LV-4628
Vilanu,Lazdenieki,LV-4628
Vilanu,Lielie Tuci,LV-4628
Vilanu,Lucani,LV-4628
Vilanu,Meza Tuci,LV-4628
Vilanu,Priedaine,LV-4628
Vilanu,Rubeznieki,LV-4628
Vilanu,Solta,LV-4628
Vilanu,Storas,LV-4628
Vilanu,Akremi,LV-4640
Vilanu,Antoniski,LV-4640
Vilanu,Bokani,LV-4640
Vilanu,Dilmani,LV-4640
Vilanu,Garjusa,LV-4640
Vilanu,Jakuski,LV-4640
Vilanu,Jaunmurani,LV-4640
Vilanu,Jugermani,LV-4640
Vilanu,Mezkokti,LV-4640
Vilanu,Parapani,LV-4640
Vilanu,PodLizovka,LV-4640
Vilanu,Repsi,LV-4640
Vilanu,Rogoviki,LV-4640
Vilanu,Skudnovka,LV-4640
Vilanu,Sokolki,LV-4640
Vilanu,StrupLi,LV-4640
Vilanu,TaukuLi,LV-4640
Vilanu,Tumuski,LV-4640
Vilanu,Ustroni,LV-4640
Vilanu,Vecmurani,LV-4640
Vilanu,Zavarujevka,LV-4640
Vilanu,Zvidrini,LV-4640
Vilanu,Aleksandropole,LV-4650
Vilanu,Beci,LV-4650
Vilanu,Bluzmi,LV-4650
Vilanu,BrikuLi,LV-4650
Vilanu,Brivci,LV-4650
Vilanu,Dervanka,LV-4650
Vilanu,Frolovka,LV-4650
Vilanu,JaunviLani,LV-4650
Vilanu,Kukoji,LV-4650
Vilanu,Lagoni,LV-4650
Vilanu,Lauzinieki,LV-4650
Vilanu,Lavrovka,LV-4650
Vilanu,Malmeznieki,LV-4650
Vilanu,Malta,LV-4650
Vilanu,MasaLski,LV-4650
Vilanu,MukuLi,LV-4650
Vilanu,Notra,LV-4650
Vilanu,Ornicani,LV-4650
Vilanu,Pizici,LV-4650
Vilanu,Poci,LV-4650
Vilanu,Privsi,LV-4650
Vilanu,Radopole,LV-4650
Vilanu,Rampani,LV-4650
Vilanu,Rimsi,LV-4650
Vilanu,sautines,LV-4650
Vilanu,Solaskungi,LV-4650
Vilanu,Tevenani,LV-4650
Vilanu,Trupi,LV-4650
Vilanu,Ugrinieki,LV-4650
Vilanu,ViLanu muiza,LV-4650
Zilupes,Bondari,LV-5705
Zilupes,Bukatina,LV-5705
Zilupes,ciucisi,LV-5705
Zilupes,Duboviki,LV-5705
Zilupes,Juceva,LV-5705
Zilupes,Kalpinka,LV-5705
Zilupes,Kastricina,LV-5705
Zilupes,Naumki,LV-5705
Zilupes,PodavaLina,LV-5705
Zilupes,Sovani,LV-5705
Zilupes,Surmaci,LV-5705
Zilupes,ZaLescina,LV-5705
Zilupes,ZaLesje,LV-5705
Zilupes,Janovole,LV-5707
Zilupes,Rakovci,LV-5707
Zilupes,Rutki,LV-5707
Zilupes,Guzenki,LV-5711
Zilupes,Kolnacova,LV-5711
Zilupes,Kozlova,LV-5711
Zilupes,Latisonki,LV-5711
Zilupes,Meiksani,LV-5711
Zilupes,PedeLova,LV-5711
Zilupes,Rieci,LV-5711
Zilupes,seski,LV-5711
Zilupes,skauna,LV-5711
Zilupes,suskova,LV-5711
Zilupes,TiuLova,LV-5711
Zilupes,Zaborje,LV-5711
Zilupes,zoglova,LV-5711
Zilupes,BeLaji,LV-5722
Zilupes,Bidrija,LV-5722
Zilupes,Blonti,LV-5722
Zilupes,Bortniki,LV-5722
Zilupes,ciucisi,LV-5722
Zilupes,Cucuri,LV-5722
Zilupes,Dongi,LV-5722
Zilupes,Gumineica,LV-5722
Zilupes,ILjonki,LV-5722
Zilupes,ILjusi,LV-5722
Zilupes,Kazimirova,LV-5722
Zilupes,Kirili,LV-5722
Zilupes,Konova,LV-5722
Zilupes,Kornovka,LV-5722
Zilupes,Lauderi,LV-5722
Zilupes,Litovskie,LV-5722
Zilupes,Maslova,LV-5722
Zilupes,Morozi,LV-5722
Zilupes,Navinskie,LV-5722
Zilupes,Osinniki,LV-5722
Zilupes,Paideri,LV-5722
Zilupes,ParaLi,LV-5722
Zilupes,Piteri,LV-5722
Zilupes,PLepLi,LV-5722
Zilupes,Rjabije,LV-5722
Zilupes,Rudovi,LV-5722
Zilupes,skirpani,LV-5722
Zilupes,SkredeLi,LV-5722
Zilupes,SmoLskie,LV-5722
Zilupes,Solosi,LV-5722
Zilupes,Staraja MeLnica,LV-5722
Zilupes,Turovka,LV-5722
Zilupes,Vacumniki,LV-5722
Zilupes,zlobnova,LV-5722
Zilupes,Adamova,LV-5732
Zilupes,Biksi,LV-5732
Zilupes,DauguLova,LV-5732
Zilupes,Dolgije,LV-5732
Zilupes,Garani,LV-5732
Zilupes,Gorbaci,LV-5732
Zilupes,Gorniki,LV-5732
Zilupes,Grisina,LV-5732
Zilupes,Horoseva,LV-5732
Zilupes,Katalova,LV-5732
Zilupes,Kazaki,LV-5732
Zilupes,KoLesniki,LV-5732
Zilupes,Konovalova,LV-5732
Zilupes,Noviki,LV-5732
Zilupes,Pasiene,LV-5732
Zilupes,Pirdova,LV-5732
Zilupes,Sapatni,LV-5732
Zilupes,Tarcilova,LV-5732
Zilupes,Trubilova,LV-5732
Zilupes,Belomoje,LV-5751
Zilupes,cernova,LV-5751
Zilupes,CibuLi,LV-5751
Zilupes,Derjagina,LV-5751
Zilupes,Gubina,LV-5751
Zilupes,Gumnisce,LV-5751
Zilupes,Kamenka,LV-5751
Zilupes,Lomosi,LV-5751
Zilupes,Marcinpole,LV-5751
Zilupes,Ploski,LV-5751
Zilupes,Rabova,LV-5751
Zilupes,Radiskina,LV-5751
Zilupes,Raksina,LV-5751
Zilupes,Riucani,LV-5751
Zilupes,Romasenki,LV-5751
Zilupes,Savelinki,LV-5751
Zilupes,Skaistova,LV-5751
Zilupes,SLadzeva,LV-5751
Zilupes,Strugi,LV-5751
Zilupes,SurbeLi,LV-5751
Zilupes,SviLova,LV-5751
Zilupes,Terehova,LV-5751
Zilupes,Troski,LV-5751
Zilupes,ZiLi,LV-5751
Zilupes,zizeva,LV-5751
