state,city,zipcode
Alytus County,Alytus,62001
Alytus County,Aniskio k.,62001
Alytus County,Arminu k.,62001
Alytus County,Baksiu k.,62001
Alytus County,Bazoru k.,62001
Alytus County,Bemotiskiu k.,62001
Alytus County,Budos k.,62001
Alytus County,Bundoriu k.,62001
Alytus County,ciziku k.,62001
Alytus County,Dubenkos k.,62001
Alytus County,Dubenu k.,62001
Alytus County,Geistariskiu k.,62001
Alytus County,Geistaru k.,62001
Alytus County,Geistaruku k.,62001
Alytus County,Gervenu k.,62001
Alytus County,Jasunsku k.,62001
Alytus County,Jovaisoniu k.,62001
Alytus County,Juociskiu k.,62001
Alytus County,Jurgelianka,62001
Alytus County,Jurgelioniu l k.,62001
Alytus County,Jurgelioniu ll k.,62001
Alytus County,Jurgiskiu k.,62001
Alytus County,Kaniuku k.,62001
Alytus County,Karkliniskiu k.,62001
Alytus County,Kibirksciu k.,62001
Alytus County,Kriauniu k.,62001
Alytus County,Lelioniu k.,62001
Alytus County,Likiskeliu k.,62001
Alytus County,Likiskiu k.,62001
Alytus County,Luksnenu k.,62001
Alytus County,Margaravos k.,62001
Alytus County,Miknolesu k.,62001
Alytus County,Mikutiskiu k.,62001
Alytus County,Navasodu k.,62001
Alytus County,Navicku k.,62001
Alytus County,Nemunaicio k.,62001
Alytus County,Norunu k.,62001
Alytus County,Padagles k.,62001
Alytus County,Panemuninku k.,62001
Alytus County,Praniunu k.,62001
Alytus County,Pusenu k,62001
Alytus County,Putinu k.,62001
Alytus County,Radviloniu k.,62001
Alytus County,Radziunu k.,62001
Alytus County,Rauboniu k.,62001
Alytus County,Revu k.,62001
Alytus County,Rumboniu k.,62001
Alytus County,SB ?Dobilas?,62001
Alytus County,SB ?Pusele?,62001
Alytus County,SB ?Rugelis?,62001
Alytus County,SB ?Sakalas?,62001
Alytus County,SB ?silas?,62001
Alytus County,SB ?Volungele?,62001
Alytus County,Skraicioniu k.,62001
Alytus County,Sudvaju k.,62001
Alytus County,Tabalenkos k.,62001
Alytus County,Takniskiu k.,62001
Alytus County,Talokiu k.,62001
Alytus County,Ulyskiu k.,62001
Alytus County,Volunges k.,62001
Alytus County,Zaidu k.,62001
Alytus County,zaunieriskiu k.,62001
Alytus County,zemaiteliu k.,62001
Alytus County,Alytus,62014
Alytus County,Butrimiskiu k.,62014
Alytus County,Daugirdeliu k.,62014
Alytus County,Likiskiu k.,62014
Alytus County,Miklusenu k.,62014
Alytus County,Putinu vienk.,62014
Alytus County,Uzubaliu k.,62014
Alytus County,Alytus,63001
Alytus County,Alytaus k.,64001
Alytus County,Domantoniu k.,64001
Alytus County,Jurkioniu k.,64001
Alytus County,Kalesninku k.,64001
Alytus County,Kaniuku k.,64001
Alytus County,Mikalavo k.,64001
Alytus County,Muizelenu k.,64001
Alytus County,Poteroniu k.,64001
Alytus County,SB ?Berzelis?,64001
Alytus County,SB ?Nemunas ?,64001
Alytus County,Skernes k.,64001
Alytus County,Terpiniu k.,64001
Alytus County,Ulysku k.,64001
Alytus County,Vaidaugu k.,64001
Alytus County,Venciunu k.,64001
Alytus County,venciunu pastas,64001
Alytus County,Veziskiu k.,64001
Alytus County,zidoniu k.,64001
Alytus County,Akalycios k.,64005
Alytus County,Aloves k.,64005
Alytus County,Bokstu k.,64005
Alytus County,Davainiskiu k.,64005
Alytus County,Dobrovoles k.,64005
Alytus County,Ilgu k.,64005
Alytus County,Janapolio k.,64005
Alytus County,Kaciolku k.,64005
Alytus County,Kampu k.,64005
Alytus County,Klausiskiu k.,64005
Alytus County,Kudariskiu k.,64005
Alytus County,Kutiskiu k.,64005
Alytus County,Laukininku k.,64005
Alytus County,Margeliu k.,64005
Alytus County,Meskasalio k.,64005
Alytus County,Obelaiciu k.,64005
Alytus County,Pagurniu k.,64005
Alytus County,Plikioniu k.,64005
Alytus County,Poteroniu k.,64005
Alytus County,Raudonosios Aloves k.,64005
Alytus County,saukenu k.,64005
Alytus County,Skirgailiu k.,64005
Alytus County,Slabadeles k.,64005
Alytus County,svabalaukio k.,64005
Alytus County,svobiskiu k.,64005
Alytus County,Vabaliu k.,64005
Alytus County,Valeniskiu k.,64005
Alytus County,zarnoniu k.,64005
Alytus County,Arciunu k.,64009
Alytus County,Atzalyno k.,64009
Alytus County,Bogusiskiu k.,64009
Alytus County,Budos k.,64009
Alytus County,Bukauciskiu k.,64009
Alytus County,Daugai,64009
Alytus County,Daugu k.,64009
Alytus County,Doskoniu k.,64009
Alytus County,Dvarcenu k.,64009
Alytus County,Giniskiu k.,64009
Alytus County,Griciunu k.,64009
Alytus County,Kancenu k.,64009
Alytus County,Karliskiu k.,64009
Alytus County,Melnyteles k.,64009
Alytus County,Meskuciu k.,64009
Alytus County,Mieliunu k.,64009
Alytus County,Novoplentos k.,64009
Alytus County,Pagiles k.,64009
Alytus County,Pavartenu k.,64009
Alytus County,Pavartes k.,64009
Alytus County,Poceloniu k.,64009
Alytus County,Pociuniskiu k.,64009
Alytus County,Purveliu k.,64009
Alytus County,Rakatansku k.,64009
Alytus County,Rakscios k.,64009
Alytus County,Rimenu k.,64009
Alytus County,Rodzios k.,64009
Alytus County,Rokanciu k.,64009
Alytus County,Salos k.,64009
Alytus County,siuksciakalnio k.,64009
Alytus County,Skabeikiu k.,64009
Alytus County,Slavinciskiu k.,64009
Alytus County,Tamasavos k.,64009
Alytus County,Vaikantoniu k.,64009
Alytus County,Vezioniu k.,64009
Alytus County,Vieciunu k.,64009
Alytus County,Vinksnines k.,64009
Alytus County,zilinciskiu k.,64009
Alytus County,zvirgzdenu k.,64009
Alytus County,Bugoniu k.,64017
Alytus County,Druskininku k.,64017
Alytus County,Ezeryno k.,64017
Alytus County,Galintankos k.,64017
Alytus County,Galintenu k.,64017
Alytus County,Jaujakaimio k.,64017
Alytus County,Jociunu k.,64017
Alytus County,Klepociu k.,64017
Alytus County,Lizdu k.,64017
Alytus County,Lydekininku k.,64017
Alytus County,Makniunu k.,64017
Alytus County,Miezioniu k.,64017
Alytus County,Noskunu k.,64017
Alytus County,Pieriskiu k.,64017
Alytus County,Piliakalnio k.,64017
Alytus County,Raitininku k.,64017
Alytus County,Ryliskiu k.,64017
Alytus County,Savilioniu k.,64017
Alytus County,Tarucioniu k.,64017
Alytus County,Veismunu k.,64017
Alytus County,Vertelku k.,64017
Alytus County,zivulciskes k.,64017
Alytus County,Balninku k.,64021
Alytus County,Butrimiskiu k.,64021
Alytus County,Dubriu k.,64021
Alytus County,Dusnioniu k.,64021
Alytus County,Einoru k.,64021
Alytus County,Fermos k.,64021
Alytus County,Gecialaukio k.,64021
Alytus County,Geisciunu k.,64021
Alytus County,Kalnenu k.,64021
Alytus County,Kastriskiu k.,64021
Alytus County,Lanku k.,64021
Alytus County,Manciunu k.,64021
Alytus County,Nemunaicio k.,64021
Alytus County,Nemunaitis,64021
Alytus County,Obelaiciu k.,64021
Alytus County,Poteroniu k.,64021
Alytus County,Sudvaju k.,64021
Alytus County,Uzupiu k.,64021
Alytus County,Vangeloniu k.,64021
Alytus County,Arciskoniu k.,64025
Alytus County,Balkasodzio k.,64025
Alytus County,Balkunu k.,64025
Alytus County,Bendriu k.,64025
Alytus County,Burbiskiu k.,64025
Alytus County,Cigoniskiu k.,64025
Alytus County,Dapkiskiu k.,64025
Alytus County,Dirmiskiu k.,64025
Alytus County,Geistariskiu k.,64025
Alytus County,Geistaru k.,64025
Alytus County,Geistaruku k.,64025
Alytus County,Gudiniskiu k.,64025
Alytus County,Kurnenu k.,64025
Alytus County,Kurtiniskiu k.,64025
Alytus County,Laburdiskiu k.,64025
Alytus County,Laukinciu k.,64025
Alytus County,Laukintuku k.,64025
Alytus County,Manciunu k.,64025
Alytus County,Mankunu k.,64025
Alytus County,Maslauciskiu k.,64025
Alytus County,Milastoniu k.,64025
Alytus County,Miroslavo k.,64025
Alytus County,Mociskenu k.,64025
Alytus County,Obelijos k.,64025
Alytus County,Padirmiskio k.,64025
Alytus County,Plentos k.,64025
Alytus County,Pupasodzio k.,64025
Alytus County,Rozuciu k.,64025
Alytus County,SB ?saltinelis?,64025
Alytus County,Seimeniskiu k.,64025
Alytus County,Striminos k.,64025
Alytus County,Tolkunu k.,64025
Alytus County,Vankiskiu k.,64025
Alytus County,Vovu k.,64025
Alytus County,Zizenu k.,64025
Alytus County,Atesninku k.,64029
Alytus County,Buckunu k.,64029
Alytus County,Cigoniskiu k.,64029
Alytus County,Kauku l k.,64029
Alytus County,Kauku ll k.,64029
Alytus County,Kumeciu k.,64029
Alytus County,Obelninkeliu k.,64029
Alytus County,Obelninku k.,64029
Alytus County,Obelytes k.,64029
Alytus County,Papeciu k.,64029
Alytus County,Parecenu k.,64029
Alytus County,Persekininku k.,64029
Alytus County,Remeikiu k.,64029
Alytus County,Varnagiriu k.,64029
Alytus County,Viesnagiu k.,64029
Alytus County,Aleknoniu k.,64037
Alytus County,Angininku k.,64037
Alytus County,Atesninku k.,64037
Alytus County,Atesnykeliu k.,64037
Alytus County,azuoliniu k.,64037
Alytus County,Bambininku k.,64037
Alytus County,Bazavos k.,64037
Alytus County,Buktininku k.,64037
Alytus County,Giluiciu k.,64037
Alytus County,Gluosninku k.,64037
Alytus County,Grazuliu k.,64037
Alytus County,Kaimynu k.,64037
Alytus County,Kalesninku k.,64037
Alytus County,Kavalciuku k.,64037
Alytus County,Kolonistu k.,64037
Alytus County,Komisaruvkos k.,64037
Alytus County,Litvanciskiu k.,64037
Alytus County,Marinkos k.,64037
Alytus County,Mergalaukio k.,64037
Alytus County,Metelytes k.,64037
Alytus County,Ostampo k.,64037
Alytus County,Pasimniu k.,64037
Alytus County,Ponkiskiu k.,64037
Alytus County,Radastu k.,64037
Alytus County,sarkiskiu k.,64037
Alytus County,Saulenu k.,64037
Alytus County,Simnas,64037
Alytus County,Skituriu k.,64037
Alytus County,Skovagaliu k.,64037
Alytus County,Spernios k.,64037
Alytus County,Zailiu k.,64037
Alytus County,zuvintu k.,64037
Alytus County,Aleknoniu k.,64041
Alytus County,Arminu l k.,64041
Alytus County,Balkunu k.,64041
Alytus County,ciurlioniu k.,64041
Alytus County,Dapkiskiu k.,64041
Alytus County,Daugirdu k.,64041
Alytus County,Dingiskiu k.,64041
Alytus County,Dirvonu k.,64041
Alytus County,Grinkiskiu k.,64041
Alytus County,Gudeliu k.,64041
Alytus County,Krekstenu k.,64041
Alytus County,Krokialaukis,64041
Alytus County,Krokininku k.,64041
Alytus County,Liepakoju k.,64041
Alytus County,Liuklingenu k.,64041
Alytus County,Mastalieriu k.,64041
Alytus County,Navininku k.,64041
Alytus County,Persekininku k.,64041
Alytus County,Posnios k.,64041
Alytus County,Radastu k.,64041
Alytus County,Santaikos k.,64041
Alytus County,Sapatiskiu k.,64041
Alytus County,sipultiskiu k.,64041
Alytus County,siugzdu k.,64041
Alytus County,Struogiskiu k.,64041
Alytus County,Varanausko k.,64041
Alytus County,Vardos k.,64041
Alytus County,Varnagiriu k.,64041
Alytus County,Verebieju k.,64041
Alytus County,Arminu k.,64045
Alytus County,Barkuniskiu k.,64045
Alytus County,Cibilieku k.,64045
Alytus County,ciziku k.,64045
Alytus County,Duselninku k.,64045
Alytus County,Jackoniu k.,64045
Alytus County,Kabiniu k.,64045
Alytus County,Kalesniniku k.,64045
Alytus County,Kirmeliskiu k.,64045
Alytus County,Naujosios udrijos k.,64045
Alytus County,Paberzines k.,64045
Alytus County,Pakasavo k.,64045
Alytus County,Persekes k.,64045
Alytus County,udrijos k.,64045
Alytus County,Butkunu k.,64053
Alytus County,Dubenu k.,64053
Alytus County,Dubiu k.,64053
Alytus County,Geniu k.,64053
Alytus County,Junoniu k.,64053
Alytus County,Karklynu k.,64053
Alytus County,Kelmanoniu k.,64053
Alytus County,Paplansku k.,64053
Alytus County,Raudonikiu k.,64053
Alytus County,Rutkos k.,64053
Alytus County,Taukotiskiu k.,64053
Alytus County,Vytautiskiu k.,64053
Alytus County,Aleksandravos k.,64057
Alytus County,Kulabiskio k.,64057
Alytus County,Misiskiu k.,64057
Alytus County,Pievagaliu k.,64057
Alytus County,Punios k.,64057
Alytus County,Staniavos k.,64057
Alytus County,Strielciu k.,64057
Alytus County,zagariu k.,64057
Alytus County,Apyneliu k.,64061
Alytus County,Azuolenu k.,64061
Alytus County,Buriskiu k.,64061
Alytus County,Butrimiskiu k.,64061
Alytus County,Butrimonys,64061
Alytus County,Darbalaukio k.,64061
Alytus County,Dudiskiu k.,64061
Alytus County,Dukiskiu k.,64061
Alytus County,Eiciunu k.,64061
Alytus County,Eigeloniu k.,64061
Alytus County,Gailiakiemio k.,64061
Alytus County,Geruliu k.,64061
Alytus County,Greikoniu k.,64061
Alytus County,Griskoniu k.,64061
Alytus County,Janaukos k.,64061
Alytus County,Kedoniu k.,64061
Alytus County,Klydzioniu k.,64061
Alytus County,Leoniskiu k.,64061
Alytus County,Likiskiu k.,64061
Alytus County,Maziunu k.,64061
Alytus County,Navasodu k.,64061
Alytus County,Olendernes k.,64061
Alytus County,Pabaliu k.,64061
Alytus County,Pikuskiu k.,64061
Alytus County,Plasapninku k.,64061
Alytus County,Ratininku k.,64061
Alytus County,Silvanavos k.,64061
Alytus County,Trakininku k.,64061
Alytus County,Vanageliu k.,64061
Alytus County,zadiskiu k.,64061
Alytus County,zaliosios k.,64061
Alytus County,Adamoniu k.,64065
Alytus County,Ardiskiu k.,64065
Alytus County,Gajauciskio k.,64065
Alytus County,Gemaitiskiu k.,64065
Alytus County,Gerkiskiu k.,64065
Alytus County,Jurkioniu k.,64065
Alytus County,Karvelninku k.,64065
Alytus County,Keru k.,64065
Alytus County,Kruziunu k.,64065
Alytus County,Kulabiskio k.,64065
Alytus County,Medukstos k.,64065
Alytus County,Navasiolku k.,64065
Alytus County,Norgeliskiu k.,64065
Alytus County,Padvariskiu k.,64065
Alytus County,Paliepiu k.,64065
Alytus County,Panemuninkeliu k.,64065
Alytus County,Peckunu k.,64065
Alytus County,Raganiskiu k.,64065
Alytus County,Raizavos k.,64065
Alytus County,Raiziu k.,64065
Alytus County,Rauboniu k.,64065
Alytus County,SB ?Dzukija?,64065
Alytus County,SB ?Versme?,64065
Alytus County,Silgioniu k.,64065
Alytus County,Strielciu k.,64065
Alytus County,Taucioniu k.,64065
Alytus County,Vaidaugu k.,64065
Alytus County,Vaisodziu k.,64065
Alytus County,Vaisupio k.,64065
Alytus County,Valiunu k.,64065
Alytus County,zagariu k.,64065
Alytus County,ziuku k.,64065
Alytus County,Aleksandravos k.,64069
Alytus County,Anykstenu k.,64069
Alytus County,Bundziu k.,64069
Alytus County,ciziunu k.,64069
Alytus County,Dusmeneliu k.,64069
Alytus County,Eigeloniu k.,64069
Alytus County,Eigirdoniu k.,64069
Alytus County,Einoroniu k.,64069
Alytus County,Juncioniu k.,64069
Alytus County,Jurkoniu k.,64069
Alytus County,Kaniuku k.,64069
Alytus County,Kazimieravo k.,64069
Alytus County,Krumiju k.,64069
Alytus County,Lacioniu k.,64069
Alytus County,Lelioniu k.,64069
Alytus County,Liesioniu k.,64069
Alytus County,Liubartiskiu k.,64069
Alytus County,Mickunavos k.,64069
Alytus County,Mikalavo k.,64069
Alytus County,Pasilio k.,64069
Alytus County,Paskuniskiu k.,64069
Alytus County,Pavarenio k.,64069
Alytus County,Petravinos k.,64069
Alytus County,Pivasiunu k.,64069
Alytus County,Remesiskiu k.,64069
Alytus County,Stanuliskiu k.,64069
Alytus County,Statkiskiu k.,64069
Alytus County,Sudvariskiu k.,64069
Alytus County,Teletnyku k.,64069
Alytus County,utos k.,64069
Alytus County,Uzukalniu k.,64069
Alytus County,Vanzadiskiu k.,64069
Alytus County,Liepines k.,67067
Kaunas County,Druskininkai,66001
Kaunas County,Gailiunu k.,66001
Kaunas County,Gruto k.,66001
Kaunas County,Jaskoniu k.,66001
Kaunas County,Kermusijos k.,66001
Kaunas County,Latezerio k.,66001
Kaunas County,Masnyciu k.,66001
Kaunas County,Miciunu k.,66001
Kaunas County,Naujasodes k.,66001
Kaunas County,Neravu k.,66001
Kaunas County,Randamoniu k.,66001
Kaunas County,Ringeliskes k.,66001
Kaunas County,SB ?Dainava?,66001
Kaunas County,SB ?Raigardas?,66001
Kaunas County,Snaigupes k.,66001
Kaunas County,svendubres k.,66001
Kaunas County,ziogeliu k.,66001
Kaunas County,Neravu k.,66007
Kaunas County,SB ?Papartis?,66007
Kaunas County,Vieciunu k.,66007
Kaunas County,Barzdziunu k.,67027
Kaunas County,Berziniu k.,67027
Kaunas County,cerniausku k.,67027
Kaunas County,Cimaniunu k.,67027
Kaunas County,Degesiu k.,67027
Kaunas County,Didziasalio k.,67027
Kaunas County,Drapaliu k.,67027
Kaunas County,Druskininkeliu k.,67027
Kaunas County,Dulgininku k.,67027
Kaunas County,Guobiniu k.,67027
Kaunas County,Janavo k.,67027
Kaunas County,Jovaisiu k.,67027
Kaunas County,Kamorunu k.,67027
Kaunas County,Karalinavos k.,67027
Kaunas County,Kaziuliu k.,67027
Kaunas County,Leipalingio k.,67027
Kaunas County,Leipalingis,67027
Kaunas County,Liepiskiu k.,67027
Kaunas County,Margu k.,67027
Kaunas County,Mazoniu k.,67027
Kaunas County,Panemunes k.,67027
Kaunas County,Paseires k.,67027
Kaunas County,Radviloniu k.,67027
Kaunas County,Raudonikiu k.,67027
Kaunas County,Ricieliu k.,67027
Kaunas County,Saltoniskes k.,67027
Kaunas County,saulenu k.,67027
Kaunas County,Savanoriu k.,67027
Kaunas County,Straciunu k.,67027
Kaunas County,Taikunu k.,67027
Kaunas County,Tautenu k.,67027
Kaunas County,Vaiksnoriskes k.,67027
Kaunas County,Varnenu k.,67027
Kaunas County,Versiu k.,67027
Kaunas County,Vileikiu k.,67027
Kaunas County,Vilkanastru k.,67027
Kaunas County,Vilkininku k.,67027
Kaunas County,Voveriu k.,67027
Kaunas County,Zasciuniskes k.,67027
Kaunas County,Baltosios Ancios k.,67035
Kaunas County,Bugiedos k.,67035
Kaunas County,Dirzu k.,67035
Kaunas County,Gerdasiu k.,67035
Kaunas County,Guroniu k.,67035
Kaunas County,Krivoniu k.,67035
Kaunas County,Lipliunu k.,67035
Kaunas County,Maceviciu k.,67035
Kaunas County,Mizaru k.,67035
Kaunas County,Simaniskes k.,67035
Kaunas County,Sirguskes k.,67035
Kaunas County,Sventijansko k.,67035
Kaunas County,Varviskes k.,67035
Klaipeda County,Aukstakalniu k.,67001
Klaipeda County,Avizoniu k.,67001
Klaipeda County,Bajoriskiu k.,67001
Klaipeda County,Bevirsiu k.,67001
Klaipeda County,Budos k.,67001
Klaipeda County,Buktos k.,67001
Klaipeda County,Buniskiu k.,67001
Klaipeda County,Burbiskiu k.,67001
Klaipeda County,Dumblio k.,67001
Klaipeda County,Dyviliskiu k.,67001
Klaipeda County,Galiniu k.,67001
Klaipeda County,Gilbiecio k.,67001
Klaipeda County,Giraiteliu k.,67001
Klaipeda County,Janaslavo k.,67001
Klaipeda County,Juozapavo k.,67001
Klaipeda County,Jurciunu k.,67001
Klaipeda County,Kaimeliu k.,67001
Klaipeda County,Kasteliskiu k.,67001
Klaipeda County,Katkiskes k.,67001
Klaipeda County,Kukliu k.,67001
Klaipeda County,Lazdijai,67001
Klaipeda County,Lazdiju k.,67001
Klaipeda County,Leonordavo k.,67001
Klaipeda County,Marciukoniu k.,67001
Klaipeda County,Nekrunu k.,67001
Klaipeda County,Nemajunu k.,67001
Klaipeda County,Neravu k.,67001
Klaipeda County,Padumbliu k.,67001
Klaipeda County,Palazdiju k.,67001
Klaipeda County,Panarves k.,67001
Klaipeda County,Papalazdiju k.,67001
Klaipeda County,sadziunu k.,67001
Klaipeda County,Salu k.,67001
Klaipeda County,Staidaru k.,67001
Klaipeda County,sulneliu k.,67001
Klaipeda County,Tarnaukos k.,67001
Klaipeda County,udininku k.,67001
Klaipeda County,Viestartu k.,67001
Klaipeda County,zemaitkiemio k.,67001
Klaipeda County,Agarinu k.,67006
Klaipeda County,Babru k.,67006
Klaipeda County,Baksiu k.,67006
Klaipeda County,Barciu k.,67006
Klaipeda County,Burakavo k.,67006
Klaipeda County,Ezereliu k.,67006
Klaipeda County,Giraites k.,67006
Klaipeda County,Grikapalio k.,67006
Klaipeda County,Janenu k.,67006
Klaipeda County,Kirtiliskes k.,67006
Klaipeda County,Marciukoniu k.,67006
Klaipeda County,Mikyciu k.,67006
Klaipeda County,Nemajunu k.,67006
Klaipeda County,Petraviciu k.,67006
Klaipeda County,Posnios k.,67006
Klaipeda County,Prapuntu k.,67006
Klaipeda County,Raistu k.,67006
Klaipeda County,Sabinavo k.,67006
Klaipeda County,Staigunu k.,67006
Klaipeda County,sventezerio k.,67006
Klaipeda County,Teizininku k.,67006
Klaipeda County,Teizu k.,67006
Klaipeda County,zaliskes k.,67006
Klaipeda County,Zebrenu k.,67006
Klaipeda County,Akuociu k.,67010
Klaipeda County,Bagdanoniu k.,67010
Klaipeda County,Barauciskes k.,67010
Klaipeda County,Barciunu k.,67010
Klaipeda County,Bestraigiskes k.,67010
Klaipeda County,Bukauciu k.,67010
Klaipeda County,Cibuliu k.,67010
Klaipeda County,Cijuniskes k.,67010
Klaipeda County,Gervenu k.,67010
Klaipeda County,Gincioniu k.,67010
Klaipeda County,Jonkiskio k.,67010
Klaipeda County,Juozapaviciu k.,67010
Klaipeda County,Kudrineliu k.,67010
Klaipeda County,Lapsiu k.,67010
Klaipeda County,Linksmosios k.,67010
Klaipeda County,Mankuneliu k.,67010
Klaipeda County,Miesto Kolonijos k.,67010
Klaipeda County,Mockoniu k.,67010
Klaipeda County,Nakruniskes k.,67010
Klaipeda County,Norageliu k.,67010
Klaipeda County,Oktos k.,67010
Klaipeda County,Onciskiu k.,67010
Klaipeda County,Paliunu k.,67010
Klaipeda County,Parockes k.,67010
Klaipeda County,Paserninku k.,67010
Klaipeda County,Posnios k.,67010
Klaipeda County,Raganiskes k.,67010
Klaipeda County,Rockiu k.,67010
Klaipeda County,Roiciu k.,67010
Klaipeda County,Rusoniu k.,67010
Klaipeda County,Seiliunu k.,67010
Klaipeda County,Seirijai,67010
Klaipeda County,Seirijociu k.,67010
Klaipeda County,silaiciu k.,67010
Klaipeda County,Statiskiu k.,67010
Klaipeda County,Straigiskes k.,67010
Klaipeda County,Straigiu k.,67010
Klaipeda County,Sutres k.,67010
Klaipeda County,Vaickuniskes k.,67010
Klaipeda County,Vainiunu k.,67010
Klaipeda County,Vozbuciu k.,67010
Klaipeda County,zagariu k.,67010
Klaipeda County,Buciniskes k.,67014
Klaipeda County,Dubrovu k.,67014
Klaipeda County,Gudoniu k.,67014
Klaipeda County,Krikstoniu k.,67014
Klaipeda County,Kuciuliskes k.,67014
Klaipeda County,Makariskes k.,67014
Klaipeda County,Mangaroto k.,67014
Klaipeda County,slapiku k.,67014
Klaipeda County,zilviciu k.,67014
Klaipeda County,Aleksejiskes k.,67019
Klaipeda County,Avizieniu k.,67019
Klaipeda County,Babru k.,67019
Klaipeda County,Bajoriskes k.,67019
Klaipeda County,Buteliunu k.,67019
Klaipeda County,Demeniskiu k.,67019
Klaipeda County,Gegutes k.,67019
Klaipeda County,Kanauku k.,67019
Klaipeda County,Mikabaliu k.,67019
Klaipeda County,Naujasodzio k.,67019
Klaipeda County,Paliunu k.,67019
Klaipeda County,slavantu k.,67019
Klaipeda County,Spartu k.,67019
Klaipeda County,Vabaliunu k.,67019
Klaipeda County,Abarausku k.,67027
Klaipeda County,Bertasiunu k.,67027
Klaipeda County,Dvarciskes k.,67027
Klaipeda County,Juskoniu k.,67027
Klaipeda County,Kuoloniu k.,67027
Klaipeda County,Mikalinos k.,67027
Klaipeda County,Neliuboniu k.,67027
Klaipeda County,Norkunu k.,67027
Klaipeda County,Paliepio k.,67027
Klaipeda County,Saluciu k.,67027
Klaipeda County,sapuru k.,67027
Klaipeda County,Senkoniu k.,67027
Klaipeda County,Smaliskes k.,67027
Klaipeda County,sutroniu k.,67027
Klaipeda County,Valanciunu k.,67027
Klaipeda County,Viktarino k.,67027
Klaipeda County,Alekniskiu k.,67039
Klaipeda County,Burbu k.,67039
Klaipeda County,Dumbliausku k.,67039
Klaipeda County,Gerveliu k.,67039
Klaipeda County,Gryckavo k.,67039
Klaipeda County,Ivosku k.,67039
Klaipeda County,Janciuliu k.,67039
Klaipeda County,Jezdo k.,67039
Klaipeda County,Kalviu k.,67039
Klaipeda County,Kapciamiestis,67039
Klaipeda County,Kareivoniu k.,67039
Klaipeda County,Kauknorio k.,67039
Klaipeda County,Kuodziu k.,67039
Klaipeda County,Menciskes k.,67039
Klaipeda County,Mikaliskes k.,67039
Klaipeda County,Nasutu k.,67039
Klaipeda County,Padumbliu k.,67039
Klaipeda County,Palacioniu k.,67039
Klaipeda County,Paveisininku k.,67039
Klaipeda County,Pertako k.,67039
Klaipeda County,Purviniu k.,67039
Klaipeda County,Stalu k.,67039
Klaipeda County,Subaciu k.,67039
Klaipeda County,Vainiunu k.,67039
Klaipeda County,Valentu k.,67039
Klaipeda County,Volsku k.,67039
Klaipeda County,zmirkliu k.,67039
Klaipeda County,Ancios k.,67043
Klaipeda County,Aradninku k.,67043
Klaipeda County,Aukstadvario k.,67043
Klaipeda County,Barciu k.,67043
Klaipeda County,Barteliu k.,67043
Klaipeda County,Berziniu k.,67043
Klaipeda County,civoniu k.,67043
Klaipeda County,Dainaviskiu k.,67043
Klaipeda County,Galstu k.,67043
Klaipeda County,Galves k.,67043
Klaipeda County,Gudeliu k.,67043
Klaipeda County,Gulbiniskes k.,67043
Klaipeda County,Ilgininku k.,67043
Klaipeda County,Jakoniu k.,67043
Klaipeda County,Juskoniu k.,67043
Klaipeda County,Kailiniu k.,67043
Klaipeda County,Kalveliu k.,67043
Klaipeda County,Klepociu k.,67043
Klaipeda County,Laibagaliu k.,67043
Klaipeda County,Meciunu k.,67043
Klaipeda County,Naviku k.,67043
Klaipeda County,Novartiskes k.,67043
Klaipeda County,Paliunu k.,67043
Klaipeda County,Paliunu ll k.,67043
Klaipeda County,Pateru k.,67043
Klaipeda County,Paveisieju k.,67043
Klaipeda County,Petrosku k.,67043
Klaipeda County,Radviloniu k.,67043
Klaipeda County,Rudos k.,67043
Klaipeda County,sadziunu k.,67043
Klaipeda County,Saknevos k.,67043
Klaipeda County,Sapiegiskiu k.,67043
Klaipeda County,Semosku k.,67043
Klaipeda County,Smarliunu k.,67043
Klaipeda County,Snaigyno k.,67043
Klaipeda County,Stankunu k.,67043
Klaipeda County,Vainezerio k.,67043
Klaipeda County,Veisiejai,67043
Klaipeda County,Vytautu k.,67043
Klaipeda County,Akmeniu k.,67047
Klaipeda County,Briniu k.,67047
Klaipeda County,Kalediskiu k.,67047
Klaipeda County,Kazaniu k.,67047
Klaipeda County,Kuciunu k.,67047
Klaipeda County,Miskiniu k.,67047
Klaipeda County,Pazapsiu k.,67047
Klaipeda County,Puodziskes k.,67047
Klaipeda County,Salociu k.,67047
Klaipeda County,sulneliu k.,67047
Klaipeda County,Astriosios Kirsnos k.,67055
Klaipeda County,Bielenu k.,67055
Klaipeda County,Bilvyciu k.,67055
Klaipeda County,Budviecio k.,67055
Klaipeda County,Bulotiskes k.,67055
Klaipeda County,Dainaveles k.,67055
Klaipeda County,Derviniu k.,67055
Klaipeda County,Dzuku k.,67055
Klaipeda County,Gurciskes k.,67055
Klaipeda County,Jeseniaukos k.,67055
Klaipeda County,Kelmaiciu k.,67055
Klaipeda County,Kybartu k.,67055
Klaipeda County,Mastaukos k.,67055
Klaipeda County,Natalinos k.,67055
Klaipeda County,Pagrudu k.,67055
Klaipeda County,Paliunu k.,67055
Klaipeda County,Paparteliu k.,67055
Klaipeda County,Strumbagalves k.,67055
Klaipeda County,Varnakampio k.,67055
Klaipeda County,Vidzgailu k.,67055
Klaipeda County,Vingrenu k.,67055
Klaipeda County,Virbaliu k.,67055
Klaipeda County,Zelionkos k.,67055
Klaipeda County,Budos k.,67067
Klaipeda County,Delnicos k.,67067
Klaipeda County,Didziosios Kirsnos k.,67067
Klaipeda County,Jukneliskes k.,67067
Klaipeda County,Makauciskes k.,67067
Klaipeda County,Naujosios Kirsnos k.,67067
Klaipeda County,Pakirsniu k.,67067
Klaipeda County,sestokai,67067
Klaipeda County,Birsciu k.,67071
Klaipeda County,Birutos k.,67071
Klaipeda County,Grabaukos k.,67071
Klaipeda County,Krasenkos k.,67071
Klaipeda County,Krosna,67071
Klaipeda County,Krosnenu k.,67071
Klaipeda County,Naujavalakiu k.,67071
Klaipeda County,Olendru k.,67071
Klaipeda County,Pediskiu k.,67071
Klaipeda County,Ramanavo k.,67071
Klaipeda County,Saltininku k.,67071
Klaipeda County,Smalininku k.,67071
Klaipeda County,Tautrimu k.,67071
Klaipeda County,Turiskiu k.,67071
Klaipeda County,Vartu k.,67071
Klaipeda County,Vytautiskes k.,67071
Klaipeda County,Babrauninku k.,67083
Klaipeda County,Bagateliaus k.,67083
Klaipeda County,Balabostes k.,67083
Klaipeda County,Baravos k.,67083
Klaipeda County,Barciu k.,67083
Klaipeda County,Bevirsiu k.,67083
Klaipeda County,Bludiskiu k.,67083
Klaipeda County,Buckunu k.,67083
Klaipeda County,cesniskes k.,67083
Klaipeda County,Egliskiu k.,67083
Klaipeda County,Elveriskes k.,67083
Klaipeda County,Grauzu k.,67083
Klaipeda County,Gudeliskes k.,67083
Klaipeda County,Gumbeliu k.,67083
Klaipeda County,Gurciskes k.,67083
Klaipeda County,Kamenkos k.,67083
Klaipeda County,Karuzu k.,67083
Klaipeda County,Keistutiskes k.,67083
Klaipeda County,Kelmynu k.,67083
Klaipeda County,Kirsneles k.,67083
Klaipeda County,Kurdimaksciu k.,67083
Klaipeda County,Lopiskiu k.,67083
Klaipeda County,Lozarkos k.,67083
Klaipeda County,Maisymu k.,67083
Klaipeda County,Margu k.,67083
Klaipeda County,Marinkos k.,67083
Klaipeda County,Meteliu k.,67083
Klaipeda County,Mikniskiu k.,67083
Klaipeda County,Neravu k.,67083
Klaipeda County,Padusio k.,67083
Klaipeda County,Papeciu k.,67083
Klaipeda County,Prelomciskes k.,67083
Klaipeda County,Prygos k.,67083
Klaipeda County,Randiskes k.,67083
Klaipeda County,Rimiecio k.,67083
Klaipeda County,Roliu k.,67083
Klaipeda County,Rudamina,67083
Klaipeda County,Seimeniskiu k.,67083
Klaipeda County,silenu k.,67083
Klaipeda County,Skaistuciu k.,67083
Klaipeda County,Skovagaliu k.,67083
Klaipeda County,Staidaru k.,67083
Klaipeda County,Stebuliu k.,67083
Klaipeda County,svedakampio k.,67083
Klaipeda County,Vaickuniskes k.,67083
Klaipeda County,Vaideliotu k.,67083
Klaipeda County,Verstaminu k.,67083
Klaipeda County,Znicos k.,67083
Marijampole County,Berzupio k.,65001
Marijampole County,Girazerio k.,65001
Marijampole County,Mergezerio k.,65001
Marijampole County,Moliadugnio k.,65001
Marijampole County,Palkabano k.,65001
Marijampole County,Senosios Varenos k.,65001
Marijampole County,Varena,65001
Marijampole County,Barciu k.,65007
Marijampole County,cepelunu k.,65007
Marijampole County,Ciboniu k.,65007
Marijampole County,Dainavos k.,65007
Marijampole County,Gojaus k.,65007
Marijampole County,Juociu k.,65007
Marijampole County,Kaledoniu k.,65007
Marijampole County,Kamarauciskiu k.,65007
Marijampole County,Kamorunu k.,65007
Marijampole County,Kijuciu k.,65007
Marijampole County,Kijutiskiu k.,65007
Marijampole County,Milvydos k.,65007
Marijampole County,Pavainikio k.,65007
Marijampole County,Ramonu k.,65007
Marijampole County,Razumnos k.,65007
Marijampole County,Ryliskiu k.,65007
Marijampole County,Ulbinu k.,65007
Marijampole County,Vaidagu k.,65007
Marijampole County,Vydeniu k.,65007
Marijampole County,Aladiskiu k.,65011
Marijampole County,Bagociu k.,65011
Marijampole County,Budos k.,65011
Marijampole County,Dalinos k.,65011
Marijampole County,Darzininku k.,65011
Marijampole County,Drucminu k.,65011
Marijampole County,Dzipiskiu k.,65011
Marijampole County,Grisoniskiu k.,65011
Marijampole County,Gumbiskiu k.,65011
Marijampole County,Jasausku k.,65011
Marijampole County,Kaniaveles k.,65011
Marijampole County,Kaniavos k.,65011
Marijampole County,Kaniuku k.,65011
Marijampole County,Kaziukoniu k.,65011
Marijampole County,Kriviliu k.,65011
Marijampole County,Krukliu k.,65011
Marijampole County,Melekoniu k.,65011
Marijampole County,Mikalciunu k.,65011
Marijampole County,Molines k.,65011
Marijampole County,Paazuoles k.,65011
Marijampole County,Pakaniavio k.,65011
Marijampole County,Panociu k.,65011
Marijampole County,Papiskiu k.,65011
Marijampole County,Pikiskiu k.,65011
Marijampole County,Praudos k.,65011
Marijampole County,Ramoniskiu k.,65011
Marijampole County,Senkoniu k.,65011
Marijampole County,Stoniunu k.,65011
Marijampole County,Streziunu k.,65011
Marijampole County,Asasninku k.,65023
Marijampole County,Darzineliu k.,65023
Marijampole County,Dubo k.,65023
Marijampole County,Kabeliu k.,65023
Marijampole County,Kapiniskiu k.,65023
Marijampole County,Margioniu k.,65023
Marijampole County,Musteikos k.,65023
Marijampole County,Piesciu k.,65023
Marijampole County,Senoves k.,65023
Marijampole County,skleriu k.,65023
Marijampole County,Darzeliu k.,65027
Marijampole County,Grybaulios k.,65027
Marijampole County,Manciagires k.,65027
Marijampole County,Marcinkoniu k.,65027
Marijampole County,Zervynu k.,65027
Marijampole County,Ausrines k.,65031
Marijampole County,Geniu k.,65031
Marijampole County,Gudeliu k.,65031
Marijampole County,Janaukos k.,65031
Marijampole County,Kudrenu k.,65031
Marijampole County,Liskiavos k.,65031
Marijampole County,Naviku k.,65031
Marijampole County,Panaros k.,65031
Marijampole County,Papiskiu k.,65031
Marijampole County,Radysciaus k.,65031
Marijampole County,Tetervines k.,65031
Marijampole County,Ulciciu k.,65031
Marijampole County,Vilkiautinio k.,65031
Marijampole County,Voveriu k.,65031
Marijampole County,zeimiu k.,65031
Marijampole County,Apsinges k.,65035
Marijampole County,Bingeliu k.,65035
Marijampole County,cesuku k.,65035
Marijampole County,Dubaklonio k.,65035
Marijampole County,Dubininko k.,65035
Marijampole County,Gelovines k.,65035
Marijampole County,Gudakiemio k.,65035
Marijampole County,Ilgininku k.,65035
Marijampole County,Jablanavo k.,65035
Marijampole County,Jakubiskiu k.,65035
Marijampole County,Janioniu k.,65035
Marijampole County,Kacinges k.,65035
Marijampole County,Kampu k.,65035
Marijampole County,Kasciunu k.,65035
Marijampole County,Kasetu k.,65035
Marijampole County,Kibysiu k.,65035
Marijampole County,Krusoniu k.,65035
Marijampole County,Kuciunu k.,65035
Marijampole County,Kurmiskiu k.,65035
Marijampole County,Lankininku k.,65035
Marijampole County,Laparaiscio k.,65035
Marijampole County,Lemkaraiscio k.,65035
Marijampole County,Maksimoniu k.,65035
Marijampole County,Maksimu k.,65035
Marijampole County,Mantvilu k.,65035
Marijampole County,Mardasavo k.,65035
Marijampole County,Masaliskiu k.,65035
Marijampole County,Merkine,65035
Marijampole County,Merkines vienk.,65035
Marijampole County,Navasodu k.,65035
Marijampole County,Netiesu k.,65035
Marijampole County,Noruliu k.,65035
Marijampole County,Pagilsio k.,65035
Marijampole County,Pagronycio k.,65035
Marijampole County,Parudnios k.,65035
Marijampole County,Pasilinges k.,65035
Marijampole County,Pelekiskiu k.,65035
Marijampole County,Purpliu k.,65035
Marijampole County,Puvociu k.,65035
Marijampole County,Raitininku k.,65035
Marijampole County,Rodukos k.,65035
Marijampole County,Rudnios k.,65035
Marijampole County,Rusinges k.,65035
Marijampole County,Samuniskiu k.,65035
Marijampole County,Sarkajiedu k.,65035
Marijampole County,Spyriu k.,65035
Marijampole County,Subartoniu k.,65035
Marijampole County,sunupio k.,65035
Marijampole County,Trasninko k.,65035
Marijampole County,Utiekos k.,65035
Marijampole County,Vaiciskes k.,65035
Marijampole County,Virsuradukes k.,65035
Marijampole County,Zakavoliu k.,65035
Marijampole County,Bizu k.,65039
Marijampole County,Lavyso k.,65039
Marijampole County,Milioniskes k.,65039
Marijampole County,Pauliu k.,65039
Marijampole County,Perlojos k.,65039
Marijampole County,saciu k.,65039
Marijampole County,Trakiskiu k.,65039
Marijampole County,ziuru k.,65039
Marijampole County,Arciunu k.,65043
Marijampole County,Bieniunu k.,65043
Marijampole County,Burokaraiscio k.,65043
Marijampole County,Burokaraisteles k.,65043
Marijampole County,Degsnes k.,65043
Marijampole County,Dubaklonio k.,65043
Marijampole County,Dvarciu k.,65043
Marijampole County,Gabenioniu k.,65043
Marijampole County,Giraites k.,65043
Marijampole County,Kaibuciu k.,65043
Marijampole County,Karuzu k.,65043
Marijampole County,Kazimieravo k.,65043
Marijampole County,Kucakiemio k.,65043
Marijampole County,Laiciu k.,65043
Marijampole County,Laukininkeliu k.,65043
Marijampole County,Laukininku k.,65043
Marijampole County,Lesaguru k.,65043
Marijampole County,Margiu k.,65043
Marijampole County,Mikniunu k.,65043
Marijampole County,Nedzinges k.,65043
Marijampole County,Pagires k.,65043
Marijampole County,Pakarsio k.,65043
Marijampole County,Panedingio k.,65043
Marijampole County,Pilvingiu k.,65043
Marijampole County,Sapiegiskiu k.,65043
Marijampole County,Slabotkos k.,65043
Marijampole County,Sukarepkos k.,65043
Marijampole County,Suvalku k.,65043
Marijampole County,Tolkunu k.,65043
Marijampole County,Vadenu k.,65043
Marijampole County,Valakeliu k.,65043
Marijampole County,Vartavalakio k.,65043
Marijampole County,Aleksandravos k.,65051
Marijampole County,Dirzameniu k.,65051
Marijampole County,Genioniu k.,65051
Marijampole County,Grumiskiu k.,65051
Marijampole County,Kirklioniu k.,65051
Marijampole County,Meskuciu k.,65051
Marijampole County,Miguicioniu k.,65051
Marijampole County,Pamuseliu k.,65051
Marijampole County,Pamusiu k.,65051
Marijampole County,Pavarenio k.,65051
Marijampole County,Rudnios k.,65051
Marijampole County,Sarapiniskiu k.,65051
Marijampole County,utos k.,65051
Marijampole County,Burboniu k.,65055
Marijampole County,Bytautoniu k.,65055
Marijampole County,Damanoniu k.,65055
Marijampole County,Ginakiemio k.,65055
Marijampole County,Kalenu k.,65055
Marijampole County,Kaniuku k.,65055
Marijampole County,Kareivoniu k.,65055
Marijampole County,Radziunu k.,65055
Marijampole County,Uztilciu k.,65055
Marijampole County,Verbatiskiu k.,65055
Marijampole County,Vergakiemio k.,65055
Marijampole County,Voniskiu k.,65055
Marijampole County,zilinu k.,65055
Marijampole County,Aukstakalnio k.,65059
Marijampole County,Jakenu k.,65059
Marijampole County,Karpiskiu k.,65059
Marijampole County,Kukliu k.,65059
Marijampole County,Laukiapusio k.,65059
Marijampole County,Maskaukos k.,65059
Marijampole County,Norvydiskiu k.,65059
Marijampole County,Pabezninku k.,65059
Marijampole County,Paruciu k.,65059
Marijampole County,Puodziu k.,65059
Marijampole County,Salos k.,65059
Marijampole County,Strielciskiu k.,65059
Marijampole County,Vazgirdoniu k.,65059
Marijampole County,Zakoriu k.,65059
Marijampole County,zilineliu k.,65059
Marijampole County,Butvydoniu k.,65063
Marijampole County,cebatoriu k.,65063
Marijampole County,ciziunu k.,65063
Marijampole County,Darguziu k.,65063
Marijampole County,Darzininku k.,65063
Marijampole County,Degsniu k.,65063
Marijampole County,Jakenu k.,65063
Marijampole County,Kursiu k.,65063
Marijampole County,Maceliu k.,65063
Marijampole County,Naujuju Naniskiu k.,65063
Marijampole County,Paklestares k.,65063
Marijampole County,Pirciupiu k.,65063
Marijampole County,Posalciu k.,65063
Marijampole County,Puckorniu k.,65063
Marijampole County,Senuju Naniskiu k.,65063
Marijampole County,slaito k.,65063
Marijampole County,Spenglos k.,65063
Marijampole County,Uzuperkasio k.,65063
Marijampole County,Vaitakarcmio k.,65063
Marijampole County,Valkininkai,65063
Marijampole County,Valkininku glzk. st.,65067
Marijampole County,Barteliu k.,65071
Marijampole County,Bieksiu k.,65071
Marijampole County,Giniunu k.,65071
Marijampole County,Giraites k.,65071
Marijampole County,Jurgiskiu k.,65071
Marijampole County,Kruminiu k.,65071
Marijampole County,Kukiskiu k.,65071
Marijampole County,Marijanavo k.,65071
Marijampole County,Matuizu k.,65071
Marijampole County,Mielupio k.,65071
Marijampole County,Moliu k.,65071
Marijampole County,Pabarones k.,65071
Marijampole County,Pamerkiu k.,65071
Marijampole County,Papiskiu k.,65071
Marijampole County,Paversekio k.,65071
Marijampole County,Pazgrindos k.,65071
Marijampole County,sarkiskiu k.,65071
Marijampole County,SB ?Atzalynas?,65071
Marijampole County,Semosku k.,65071
Marijampole County,Smalininku k.,65071
Marijampole County,Urkioniu k.,65071
Marijampole County,Voriskiu k.,65071
Marijampole County,zagariu k.,65071
Marijampole County,Gluko k.,65075
Marijampole County,Salovartes k.,65075
Marijampole County,SB ?Berzupis?,65075
Marijampole County,SB ?Epusine?,65075
Marijampole County,SB ?Glukas?,65075
Marijampole County,SB ?Salovarte?,65075
Marijampole County,Senosios Varenos k.,65075
Marijampole County,Varena,65075
Marijampole County,Andriunu k.,65079
Marijampole County,Balbutu k.,65079
Marijampole County,Bobriskiu k.,65079
Marijampole County,Druckunu k.,65079
Marijampole County,Dubiciu k.,65079
Marijampole County,Ezereku k.,65079
Marijampole County,Geidukoniu k.,65079
Marijampole County,Gribasos k.,65079
Marijampole County,Gudziu k.,65079
Marijampole County,Kalviu k.,65079
Marijampole County,Karaviskiu k.,65079
Marijampole County,Kasetu k.,65079
Marijampole County,Katros k.,65079
Marijampole County,Krokslio k.,65079
Marijampole County,Lynezerio k.,65079
Marijampole County,Mantotu k.,65079
Marijampole County,Margiu k.,65079
Marijampole County,Martinavos k.,65079
Marijampole County,Noskunu k.,65079
Marijampole County,Padauges k.,65079
Marijampole County,Pakuliskiu k.,65079
Marijampole County,Papiskiu k.,65079
Marijampole County,Paramelio k.,65079
Marijampole County,Pauosupes k.,65079
Marijampole County,Pavardaunio k.,65079
Marijampole County,Podubiciu k.,65079
Marijampole County,Raku k.,65079
Marijampole County,Rudnios k.,65079
Marijampole County,Sakoniu k.,65079
Marijampole County,siliniu k.,65079
Marijampole County,Stoju k.,65079
Marijampole County,sulu k.,65079
Marijampole County,utos k.,65079
Marijampole County,zelniunu k.,65079
Panevezys County,Birstonas,59001
Panevezys County,Babroniu k.,59009
Panevezys County,Birstonas,59009
Panevezys County,Birstono Viens. k.,59009
Panevezys County,Buciunu k.,59009
Panevezys County,Budu k.,59009
Panevezys County,Dimsiskiu k.,59009
Panevezys County,Dirvoniskiu k.,59009
Panevezys County,Dzingeliskes k.,59009
Panevezys County,Gelezunu k.,59009
Panevezys County,Grikapedzio k.,59009
Panevezys County,Gudakalnio k.,59009
Panevezys County,Ivoniskes k.,59009
Panevezys County,Jackoniu k.,59009
Panevezys County,Jundeliskiu k.,59009
Panevezys County,Kamiliavos k.,59009
Panevezys County,Kernuviu k,59009
Panevezys County,Lengveniskes k.,59009
Panevezys County,Martinoniu k.,59009
Panevezys County,Matiesioniu k.,59009
Panevezys County,Medeikoniu k.,59009
Panevezys County,Moibeles k.,59009
Panevezys County,Muliskes k.,59009
Panevezys County,Naudziunu k.,59009
Panevezys County,Neciunu k.,59009
Panevezys County,Nemajunu k.,59009
Panevezys County,Padvariskiu k.,59009
Panevezys County,Panartiskes k.,59009
Panevezys County,Panemunes k.,59009
Panevezys County,Paverkniu k.,59009
Panevezys County,Pelesiskiu k.,59009
Panevezys County,Puzoniu k.,59009
Panevezys County,saltinenu k.,59009
Panevezys County,SB ?Ruta?,59009
Panevezys County,silenu k.,59009
Panevezys County,Siponiu k.,59009
Panevezys County,sirviniu k.,59009
Panevezys County,skevoniu k.,59009
Panevezys County,sutupio k.,59009
Panevezys County,Tauliuku k.,59009
Panevezys County,Trakeliu k.,59009
Panevezys County,Vaitiskiu k.,59009
Panevezys County,Vanagu k.,59009
Panevezys County,Voseliunu k.,59009
Panevezys County,Zaju k.,59009
Panevezys County,zemaitkiemio k.,59009
Panevezys County,zvirgzdenu k.,59009
Siauliai County,Aklojo Ezero k.,55001
Siauliai County,azuolynes k.,55001
Siauliai County,Bajoriskiu k.,55001
Siauliai County,Baltromiskes k.,55001
Siauliai County,Bazilioniu k.,55001
Siauliai County,cicinu k.,55001
Siauliai County,ciudu k.,55001
Siauliai County,Dijokiskiu k.,55001
Siauliai County,Gaiziunu glzk. st.,55001
Siauliai County,Gaiziunu k.,55001
Siauliai County,Gegutes k.,55001
Siauliai County,Gudzioniu k.,55001
Siauliai County,Ilgabradu k.,55001
Siauliai County,Jadvygavos k.,55001
Siauliai County,Jakimauka,55001
Siauliai County,Jonava,55001
Siauliai County,Jurkoniu k.,55001
Siauliai County,Kausankos k.,55001
Siauliai County,Konstantinavos k.,55001
Siauliai County,Kryziaukos k.,55001
Siauliai County,Kuniskiu k.,55001
Siauliai County,Kurmagalos k.,55001
Siauliai County,Laikiskiu k.,55001
Siauliai County,Laukogalio k.,55001
Siauliai County,Lokeneliu k.,55001
Siauliai County,Makstavos k.,55001
Siauliai County,Mantromiskiu k.,55001
Siauliai County,Markutiskiu k.,55001
Siauliai County,Marvilius,55001
Siauliai County,Melnyteles II k.,55001
Siauliai County,Melnyteles k.,55001
Siauliai County,Meskoniu k.,55001
Siauliai County,Pabartoniu k.,55001
Siauliai County,Palokes k.,55001
Siauliai County,Paupes k.,55001
Siauliai County,Pustelninku k.,55001
Siauliai County,Ragoziu k.,55001
Siauliai County,Rimku k.,55001
Siauliai County,Samanynes k.,55001
Siauliai County,SB ?Lokys?,55001
Siauliai County,SB ?Stumbras?,55001
Siauliai County,SB ?Uzuoveja?,55001
Siauliai County,SB Taurosta,55001
Siauliai County,siaudines k.,55001
Siauliai County,silelis,55001
Siauliai County,smatu k.,55001
Siauliai County,Stosku k.,55001
Siauliai County,Tabalu k.,55001
Siauliai County,Varnutes k.,55001
Siauliai County,Varpenu k.,55001
Siauliai County,Vaseikiu k.,55001
Siauliai County,Virbalu k.,55001
Siauliai County,Jonava,55014
Siauliai County,Jonalaukio k.,55022
Siauliai County,Arnotiskiu k.,55025
Siauliai County,Gegutes k.,55025
Siauliai County,Geguzines k.,55025
Siauliai County,Kamsalu k.,55025
Siauliai County,Kernaviskiu k.,55025
Siauliai County,Padaigu k.,55025
Siauliai County,Rukla,55025
Siauliai County,Ruklos k.,55025
Siauliai County,Saleninku k.,55025
Siauliai County,SB ?Neris?,55025
Siauliai County,Tartoku k.,55025
Siauliai County,Vanagiskiu k.,55025
Siauliai County,Venecijos k.,55025
Siauliai County,Albertavos k.,55041
Siauliai County,Bagdonavos k.,55041
Siauliai County,Barborlaukio k.,55041
Siauliai County,Bartoniu k.,55041
Siauliai County,Bulatu k.,55041
Siauliai County,Dirvaliu k.,55041
Siauliai County,Dumsiskiu k.,55041
Siauliai County,Dumsiu glzk. st.,55041
Siauliai County,Dumsiu k.,55041
Siauliai County,Gulbiniskiu k.,55041
Siauliai County,Gumbiskiu k.,55041
Siauliai County,Kisieliskiu k.,55041
Siauliai County,Klimynes k.,55041
Siauliai County,Londono k.,55041
Siauliai County,Lukosiskiu k.,55041
Siauliai County,Marinaukos k.,55041
Siauliai County,Naujatrobiu k.,55041
Siauliai County,Paryziaus k.,55041
Siauliai County,Petrynes k.,55041
Siauliai County,Prapuolynes k.,55041
Siauliai County,Pusyneliu k.,55041
Siauliai County,Ratuseliu k.,55041
Siauliai County,salugiskiu k.,55041
Siauliai County,Salupiu k.,55041
Siauliai County,SB ?azuolas?,55041
Siauliai County,SB ?Baravykas?,55041
Siauliai County,SB ?Bartonys?,55041
Siauliai County,SB ?Dailininku?,55041
Siauliai County,SB ?Egle?,55041
Siauliai County,SB ?Ezerelis?,55041
Siauliai County,SB ?Giraite?,55041
Siauliai County,SB ?Gojelis?,55041
Siauliai County,SB ?Inkaras-2?,55041
Siauliai County,SB ?Inkaras?,55041
Siauliai County,SB ?Londonas?,55041
Siauliai County,SB ?Naujatrobiai?,55041
Siauliai County,SB ?Pusynas?,55041
Siauliai County,SB ?Ridikas?,55041
Siauliai County,SB ?Salupiai?,55041
Siauliai County,SB ?zilvitis?,55041
Siauliai County,SB ?zvirgzde?,55041
Siauliai County,sileikiu k.,55041
Siauliai County,Skarbinu k.,55041
Siauliai County,Spanenu k.,55041
Siauliai County,Stasenu k.,55041
Siauliai County,Steponavos k.,55041
Siauliai County,sveicarijos k.,55041
Siauliai County,Tartoku k.,55041
Siauliai County,Varpiu k.,55041
Siauliai County,Budu IV k.,55044
Siauliai County,Budu ll k.,55044
Siauliai County,Budu lll k.,55044
Siauliai County,Budu V k.,55044
Siauliai County,Daukliunu k.,55044
Siauliai County,Didziojo Raisto k.,55044
Siauliai County,Galijevkos k.,55044
Siauliai County,Girininku II k.,55044
Siauliai County,Guldynu k.,55044
Siauliai County,Isoru k.,55044
Siauliai County,Kalnenu glzk. st.,55044
Siauliai County,Kalnenu k.,55044
Siauliai County,Kreslynu k.,55044
Siauliai County,Mikainiu k.,55044
Siauliai County,Pagojo k.,55044
Siauliai County,Pasiliu k.,55044
Siauliai County,Paskutiskiu k.,55044
Siauliai County,safarkos k.,55044
Siauliai County,SB ?Klevas?,55044
Siauliai County,SB ?Pasile?,55044
Siauliai County,SB ?Slenis?,55044
Siauliai County,SB ?Vairas?,55044
Siauliai County,SB ?zara?,55044
Siauliai County,sesuvos k.,55044
Siauliai County,Sunkiniu k.,55044
Siauliai County,Sviloneliu k.,55044
Siauliai County,Sviloniu k.,55044
Siauliai County,Turzenu k.,55044
Siauliai County,Uzusaliu k.,55044
Siauliai County,Veseluvkos k.,55044
Siauliai County,Aukstigaliu k.,55052
Siauliai County,Balenu k.,55052
Siauliai County,Barsukynes k.,55052
Siauliai County,Bategalos k.,55052
Siauliai County,Berzu k.,55052
Siauliai County,Besiu k.,55052
Siauliai County,Birzuliu k.,55052
Siauliai County,Bogusiu k.,55052
Siauliai County,Boreisiu k.,55052
Siauliai County,Bukoniu k.,55052
Siauliai County,Daiguciu k.,55052
Siauliai County,Davidoniu k.,55052
Siauliai County,Gaizunu k.,55052
Siauliai County,Geciu k.,55052
Siauliai County,Gineikiu k.,55052
Siauliai County,Gireles k.,55052
Siauliai County,Gureliu k.,55052
Siauliai County,Jankuciu k.,55052
Siauliai County,Jasudu k.,55052
Siauliai County,Jaugeliskiu k.,55052
Siauliai County,Jegelavos k.,55052
Siauliai County,Juljanavos k.,55052
Siauliai County,Juodziu k.,55052
Siauliai County,Kacenu k.,55052
Siauliai County,Karaliunu k.,55052
Siauliai County,Koncepolio k.,55052
Siauliai County,Koncepto k.,55052
Siauliai County,Kuigaliu k.,55052
Siauliai County,Kulsiskiu k.,55052
Siauliai County,Kulvos k.,55052
Siauliai County,Liepiu k.,55052
Siauliai County,Liepkalnio k.,55052
Siauliai County,Liepu k.,55052
Siauliai County,Linksmavietes k.,55052
Siauliai County,Liutkunu k.,55052
Siauliai County,Luksiu k.,55052
Siauliai County,Macioniu k.,55052
Siauliai County,Madlinavos k.,55052
Siauliai County,Mardosiskiu k.,55052
Siauliai County,Martyniskio k.,55052
Siauliai County,Mazuju zinenu k.,55052
Siauliai County,Milagainiu k.,55052
Siauliai County,Milasiskiu k.,55052
Siauliai County,Mimainiu k.,55052
Siauliai County,Mogeniu k.,55052
Siauliai County,Mykoliskiu k.,55052
Siauliai County,Narauninkiskiu k.,55052
Siauliai County,Naujasodzio k.,55052
Siauliai County,Paberzes k.,55052
Siauliai County,Padlokes k.,55052
Siauliai County,Paduobiu k.,55052
Siauliai County,Panoteriai,55052
Siauliai County,Pasieku k.,55052
Siauliai County,Pasodos k.,55052
Siauliai County,Pasrauciu k.,55052
Siauliai County,Petrasiunu k.,55052
Siauliai County,Piliakalniu k.,55052
Siauliai County,Prauliu k.,55052
Siauliai County,Preisiogaleles k.,55052
Siauliai County,Pupkuliu k.,55052
Siauliai County,Ruciunu k.,55052
Siauliai County,Rukuizu k.,55052
Siauliai County,sabuniskiu k.,55052
Siauliai County,Sangailiskiu k.,55052
Siauliai County,sapovos k.,55052
Siauliai County,Satkunu k.,55052
Siauliai County,semetiskiu k.,55052
Siauliai County,silu k.,55052
Siauliai County,sirviu k.,55052
Siauliai County,Skrebinu k.,55052
Siauliai County,Skryniu k.,55052
Siauliai County,Smickiu k.,55052
Siauliai County,Tarakeliu k.,55052
Siauliai County,Taukadaziu k.,55052
Siauliai County,Terespoles k.,55052
Siauliai County,Traku k.,55052
Siauliai County,Uzmiskes k.,55052
Siauliai County,Vainiu k.,55052
Siauliai County,Vaivadiskiu k.,55052
Siauliai County,Vanagiskiu k.,55052
Siauliai County,Vatenu k.,55052
Siauliai County,zeimeliu k.,55052
Siauliai County,zinenu k.,55052
Siauliai County,Akliu k.,55066
Siauliai County,Biliuskiu k.,55066
Siauliai County,Blauzdziu k.,55066
Siauliai County,Darguziu k.,55066
Siauliai County,Drabusiskiu k.,55066
Siauliai County,Drobiskiu k.,55066
Siauliai County,Juskoniu k.,55066
Siauliai County,Liubaviskes k.,55066
Siauliai County,Mimaliu k.,55066
Siauliai County,Miteniskiu k.,55066
Siauliai County,Naujoku k.,55066
Siauliai County,Normaineliu k.,55066
Siauliai County,Normainiu II k.,55066
Siauliai County,Normainiu k.,55066
Siauliai County,Palankesio k.,55066
Siauliai County,Pauliuku k.,55066
Siauliai County,zeimiai,55066
Siauliai County,zeimiu glzk. st.,55066
Siauliai County,zieveliskiu k.,55066
Siauliai County,Alekniskio k.,55096
Siauliai County,Apeikiskiu k.,55096
Siauliai County,Aukstakaimio k.,55096
Siauliai County,Bajoriskiu k.,55096
Siauliai County,Dagilioniu k.,55096
Siauliai County,Dienovidziu k.,55096
Siauliai County,Dubiu k.,55096
Siauliai County,Eglines k.,55096
Siauliai County,Karciskiu k.,55096
Siauliai County,Karciu k.,55096
Siauliai County,Karveliskiu k.,55096
Siauliai County,Keizioniu k.,55096
Siauliai County,Kunigiskiu k.,55096
Siauliai County,Lazdynu k.,55096
Siauliai County,Liudvikiskiu k.,55096
Siauliai County,Liukoneliu k.,55096
Siauliai County,Manciusenu k.,55096
Siauliai County,Mediniu k.,55096
Siauliai County,Pakalniskiu k.,55096
Siauliai County,Perelozu k.,55096
Siauliai County,Podguniu k.,55096
Siauliai County,Rizgoniu k.,55096
Siauliai County,sakiu k.,55096
Siauliai County,Sergiejevkos k.,55096
Siauliai County,siloniu k.,55096
Siauliai County,Upninkeliu k.,55096
Siauliai County,Upninkeliu l k.,55096
Siauliai County,Upninkeliu ll k.,55096
Siauliai County,Upninkeliu lll k.,55096
Siauliai County,Upninku k.,55096
Siauliai County,Uzupio k.,55096
Siauliai County,Vareikiu k.,55096
Siauliai County,Vysnialaukio k.,55096
Taurage County,Antakalnio k.,56001
Taurage County,Aviliu k.,56001
Taurage County,Bartaiciu k.,56001
Taurage County,Beistrakiu k.,56001
Taurage County,Bijautoniu k.,56001
Taurage County,Bubliu k.,56001
Taurage County,Dambravos k.,56001
Taurage County,Dubes k.,56001
Taurage County,Eitekoniu k.,56001
Taurage County,Geru Vakaru k.,56001
Taurage County,Grebliauciskiu k.,56001
Taurage County,Gudienos k.,56001
Taurage County,Gudzenkos k.,56001
Taurage County,Guroniu k.,56001
Taurage County,Ilgakiemio k.,56001
Taurage County,Juodiskiu k.,56001
Taurage County,Kaisiadoreliu k.,56001
Taurage County,Kaisiadorys,56001
Taurage County,Kalniskiu k.,56001
Taurage County,Kasciukiskiu k.,56001
Taurage County,Kaspariskiu k.,56001
Taurage County,Keturoku k.,56001
Taurage County,Kieliskiu k.,56001
Taurage County,Kiemeliu k.,56001
Taurage County,Klampiniu Krusoniu k.,56001
Taurage County,Kriauciskiu k.,56001
Taurage County,Krusoniu k.,56001
Taurage County,Kurniskiu k.,56001
Taurage County,Leitiskiu k.,56001
Taurage County,Livintu k.,56001
Taurage County,Mackunu k.,56001
Taurage County,Mazuju Vladikiskiu k.,56001
Taurage County,Miezoniu k.,56001
Taurage County,Muldiskiu k.,56001
Taurage County,Naujasodzio k.,56001
Taurage County,Navasodu k.,56001
Taurage County,Pagiriu k.,56001
Taurage County,Paliepio k.,56001
Taurage County,Pamierio k.,56001
Taurage County,Paromates Krusoniu k.,56001
Taurage County,Pasuliu k.,56001
Taurage County,Pavuolio k.,56001
Taurage County,Pazardzio k.,56001
Taurage County,Pentiskiu k.,56001
Taurage County,Petriskiu k.,56001
Taurage County,Pypliu k.,56001
Taurage County,Recioniu k.,56001
Taurage County,Romato k.,56001
Taurage County,SB ?Berzelis?,56001
Taurage County,SB ?Girele?,56001
Taurage County,SB ?Sodzius?,56001
Taurage County,siliniu k.,56001
Taurage County,simkauciskiu k.,56001
Taurage County,Stasiunu k.,56001
Taurage County,sukiskiu k.,56001
Taurage County,Tarpumiskiu k.,56001
Taurage County,Tauckunu k.,56001
Taurage County,Titnagu k.,56001
Taurage County,Uogintu k.,56001
Taurage County,Uternos k.,56001
Taurage County,Vilioniu k.,56001
Taurage County,Vilkiskiu k.,56001
Taurage County,Vladikiskiu k.,56001
Taurage County,Aleksejuniskiu k.,56017
Taurage County,Babiliu k.,56017
Taurage County,Backoniu k.,56017
Taurage County,Balceriskiu k.,56017
Taurage County,Bendreliu k.,56017
Taurage County,Briediskiu k.,56017
Taurage County,Budiskiu k.,56017
Taurage County,Buivydoniu k.,56017
Taurage County,Bulotu k.,56017
Taurage County,Burbiskiu k.,56017
Taurage County,Butkiskiu k.,56017
Taurage County,Butku k.,56017
Taurage County,Dainiu k.,56017
Taurage County,Dauginavos k.,56017
Taurage County,Dirgaloniu k.,56017
Taurage County,Dubnioku k.,56017
Taurage County,Dudiskiu k.,56017
Taurage County,Dugneliu k.,56017
Taurage County,Eigeniskiu k.,56017
Taurage County,Gajauciznos k.,56017
Taurage County,Gireles k.,56017
Taurage County,Grauzu k.,56017
Taurage County,Juknoniu k.,56017
Taurage County,Kairiskeles k.,56017
Taurage County,Kairiskiu k.,56017
Taurage County,Karalinavos k.,56017
Taurage County,Karveliskiu k.,56017
Taurage County,Kaukines k.,56017
Taurage County,Kertauninku k.,56017
Taurage County,Kibuciu k.,56017
Taurage County,Klenaukos k.,56017
Taurage County,Kleriskiu k.,56017
Taurage County,Kogeliskiu k.,56017
Taurage County,Krasnaselio k.,56017
Taurage County,Kudoniu k.,56017
Taurage County,Kulukiskiu k.,56017
Taurage County,Liutoniu k.,56017
Taurage County,Malinaukos k.,56017
Taurage County,Martiniskiu k.,56017
Taurage County,Matelsku k.,56017
Taurage County,Mediniu Strevininku k.,56017
Taurage County,Medinu k.,56017
Taurage County,Miciunu k.,56017
Taurage County,Muro Strevininku k.,56017
Taurage County,Nemaitoniu k.,56017
Taurage County,Padumio k.,56017
Taurage County,Pakertiskiu k.,56017
Taurage County,Pakertu k.,56017
Taurage County,Palimsio k.,56017
Taurage County,Pasvencio k.,56017
Taurage County,Piktakiemio k.,56017
Taurage County,Radutiskiu k.,56017
Taurage County,Ringailiu k.,56017
Taurage County,sapinavos k.,56017
Taurage County,sarkiskiu k.,56017
Taurage County,Skarbiskiu k.,56017
Taurage County,Skudeniu k.,56017
Taurage County,Slabados k.,56017
Taurage County,soliskiu k.,56017
Taurage County,Stepijoniskiu k.,56017
Taurage County,Stoniavos k.,56017
Taurage County,Strosiunu k.,56017
Taurage County,Strumilu k.,56017
Taurage County,Sutartiskiu k.,56017
Taurage County,Taduliskiu k.,56017
Taurage County,Triliskiu k.,56017
Taurage County,Turloviskiu k.,56017
Taurage County,Vaitkunu k.,56017
Taurage County,Varkaliu k.,56017
Taurage County,Verdines k.,56017
Taurage County,zalvarniu k.,56017
Taurage County,Zaslones k.,56017
Taurage County,ziezmariai,56017
Taurage County,ziezmariu vienk.,56017
Taurage County,zirgaiciu k.,56017
Taurage County,ziukiskiu k.,56017
Taurage County,zostautu k.,56017
Taurage County,zydiskiu k.,56017
Taurage County,Basoniu I k.,56028
Taurage County,Basoniu k.,56028
Taurage County,Butkiemio k.,56028
Taurage County,Girgzdu k.,56028
Taurage County,Kalviu k.,56028
Taurage County,Karveliskiu k.,56028
Taurage County,Kazoku k.,56028
Taurage County,Kovaiciu k.,56028
Taurage County,Kubiliu k.,56028
Taurage County,Miciunu k.,56028
Taurage County,Navapolio k.,56028
Taurage County,Paukstiskiu k.,56028
Taurage County,Plaskunu Budos k.,56028
Taurage County,Plaskunu k.,56028
Taurage County,Rokiskio k.,56028
Taurage County,Sevelioniu k.,56028
Taurage County,snipeliu k.,56028
Taurage County,Vigados k.,56028
Taurage County,Vladipolio k.,56028
Taurage County,ziuronu k.,56028
Taurage County,Adomeliu k.,56037
Taurage County,Andriunu k.,56037
Taurage County,Anglininku k.,56037
Taurage County,Apidemio k.,56037
Taurage County,Apsuonos k.,56037
Taurage County,Armanu k.,56037
Taurage County,Astragu k.,56037
Taurage County,Avineliu k.,56037
Taurage County,azuolines k.,56037
Taurage County,Baranavos k.,56037
Taurage County,Bareviciu k.,56037
Taurage County,Bundiskiu k.,56037
Taurage County,Butkiemio k.,56037
Taurage County,Dabintos k.,56037
Taurage County,Daktariskiu k.,56037
Taurage County,Darsuniskio k.,56037
Taurage County,Dijokiskiu k.,56037
Taurage County,Domeikiemio k.,56037
Taurage County,Geguzinio k.,56037
Taurage County,Ginteikiskiu k.,56037
Taurage County,Gliebiskio k.,56037
Taurage County,Grabuciskiu k.,56037
Taurage County,Grezieniskiu k.,56037
Taurage County,Ignalinos k.,56037
Taurage County,Jakavos k.,56037
Taurage County,Joniliskiu k.,56037
Taurage County,Jugalinos k.,56037
Taurage County,Kleboniskio k.,56037
Taurage County,Kriauciskiu k.,56037
Taurage County,Kruonio vienk.,56037
Taurage County,Kruonis,56037
Taurage County,Lankakiemio k.,56037
Taurage County,Lapainios k.,56037
Taurage County,Lukiskiu k.,56037
Taurage County,Maisiejunu k.,56037
Taurage County,Mankuviskiu k.,56037
Taurage County,Margu k.,56037
Taurage County,Meskuciu k.,56037
Taurage County,Migoniu k.,56037
Taurage County,Moliju k.,56037
Taurage County,Morkunu k.,56037
Taurage County,Norkunu k.,56037
Taurage County,Paduobriu k.,56037
Taurage County,Palimsiu k.,56037
Taurage County,Pavuolio k.,56037
Taurage County,Plytniku k.,56037
Taurage County,Pratkunu k.,56037
Taurage County,Pridotku k.,56037
Taurage County,Purvininku k.,56037
Taurage County,Ruckakiemio k.,56037
Taurage County,Sauluciu k.,56037
Taurage County,Seibutu k.,56037
Taurage County,Sekioniu k.,56037
Taurage County,Stebeikiu k.,56037
Taurage County,Surgantiskiu k.,56037
Taurage County,sventininku k.,56037
Taurage County,Tadaravos k.,56037
Taurage County,Toliskiu k.,56037
Taurage County,Truseikiskiu k.,56037
Taurage County,Uzgirelio k.,56037
Taurage County,Vaiguvos k.,56037
Taurage County,Varkaliskiu k.,56037
Taurage County,Vekoniu k.,56037
Taurage County,Vilcku k.,56037
Taurage County,Vilunu k.,56037
Taurage County,Visginu k.,56037
Taurage County,Zauliskiu k.,56037
Taurage County,Zavadnos k.,56037
Taurage County,zydeikiskiu k.,56037
Taurage County,Bartkunu k.,56040
Taurage County,Dovainoniu k.,56040
Taurage County,Grabuciskiu k.,56040
Taurage County,Jakstoniu k.,56040
Taurage County,Kapitoniskiu k.,56040
Taurage County,Karciupio k.,56040
Taurage County,Lasiniu k.,56040
Taurage County,Leliusiu k.,56040
Taurage County,Milzinu k.,56040
Taurage County,Rumsiskes,56040
Taurage County,Rusoniu k.,56040
Taurage County,Salomiskiu k.,56040
Taurage County,SB ?Karciupis?,56040
Taurage County,SB ?Kelininkas?,56040
Taurage County,SB ?Marios?,56040
Taurage County,SB ?Puntukas?,56040
Taurage County,SB ?silas?,56040
Taurage County,Tadaravos k.,56040
Taurage County,Uztaku k.,56040
Taurage County,Vajakiskiu k.,56040
Taurage County,Vosyliskiu k.,56040
Taurage County,Aleksandruvkos k.,56048
Taurage County,Baniskiu k.,56048
Taurage County,Jurgiskiu k.,56048
Taurage County,Piktavyzio k.,56048
Taurage County,Pravieniskiu l k.,56048
Taurage County,Pravieniskiu ll k.,56048
Taurage County,utos k.,56048
Taurage County,Bagdoniskiu k.,56054
Taurage County,Beloniskiu k.,56054
Taurage County,Karklaukos k.,56054
Taurage County,Klusu k.,56054
Taurage County,Lapeles k.,56054
Taurage County,Lomeniu k.,56054
Taurage County,Neprekstos k.,56054
Taurage County,Palomenes k.,56054
Taurage County,silagaliu Medinu k.,56054
Taurage County,Smilgiu k.,56054
Taurage County,Svirplioniu k.,56054
Taurage County,Aponiskiu k.,56060
Taurage County,Ardosu k.,56060
Taurage County,Baruoliu k.,56060
Taurage County,Bertasiunu k.,56060
Taurage County,Bucioniu k.,56060
Taurage County,Budeliu k.,56060
Taurage County,Buivunu k.,56060
Taurage County,Butkunu k.,56060
Taurage County,Cineikiu k.,56060
Taurage County,ciukiskiu k.,56060
Taurage County,Civiskeliu k.,56060
Taurage County,Civiskiu k.,56060
Taurage County,Dabravoles k.,56060
Taurage County,Dalinoniu k.,56060
Taurage County,Daubaros k.,56060
Taurage County,Eiriogalos k.,56060
Taurage County,Gecioniu k.,56060
Taurage County,Geguzines k.,56060
Taurage County,Gureliu k.,56060
Taurage County,Guroniu k.,56060
Taurage County,Gyvatiskiu k.,56060
Taurage County,Juodo Gojaus k.,56060
Taurage County,Jursiskiu k.,56060
Taurage County,Kapciskiu k.,56060
Taurage County,Karsaku k.,56060
Taurage County,Kasilioniu k.,56060
Taurage County,Kaspariskiu k.,56060
Taurage County,Kasparu k.,56060
Taurage County,Krivoniu k.,56060
Taurage County,Kurniskiu k.,56060
Taurage County,Leliu k.,56060
Taurage County,Liauriskiu k.,56060
Taurage County,Litviniskiu k.,56060
Taurage County,Manciunu k.,56060
Taurage County,Mikalauciskiu k.,56060
Taurage County,Naujazerio k.,56060
Taurage County,Neveliskiu k.,56060
Taurage County,Obuchovkos k.,56060
Taurage County,Padaliu k.,56060
Taurage County,Pajautiskiu k.,56060
Taurage County,Paltininku k.,56060
Taurage County,Paparteliu k.,56060
Taurage County,Petkauciznos k.,56060
Taurage County,Prozariskiu k.,56060
Taurage County,Puriskiu k.,56060
Taurage County,Putriskiu k.,56060
Taurage County,Rasavos k.,56060
Taurage County,Rusines k.,56060
Taurage County,Rusiu k.,56060
Taurage County,Savarines k.,56060
Taurage County,Senkoniu k.,56060
Taurage County,siloniu k.,56060
Taurage County,Skeriu k.,56060
Taurage County,Slajos k.,56060
Taurage County,Stabintiskiu k.,56060
Taurage County,Surveliu k.,56060
Taurage County,Talpunu k.,56060
Taurage County,Tartoku k.,56060
Taurage County,Totoriskiu k.,56060
Taurage County,Vaiduciu k.,56060
Taurage County,Vaidzioniu k.,56060
Taurage County,Valkakiemio k.,56060
Taurage County,zasliai,56060
Taurage County,zasliu glzk. st.,56060
Taurage County,zasliu k.,56060
Taurage County,zasliu vienk.,56060
Taurage County,zibaviciu k.,56060
Taurage County,Zubiskiu k.,56060
Taurage County,zuvu k.,56060
Taurage County,Antakalinio k.,56063
Taurage County,Anupravos k.,56063
Taurage County,Aukstuoju k.,56063
Taurage County,Bekstoniu k.,56063
Taurage County,Benkunu k.,56063
Taurage County,Burbiskiu k.,56063
Taurage County,Dainaveles k.,56063
Taurage County,Dainavos k.,56063
Taurage County,Galviskiu k.,56063
Taurage County,Gonsoniu k.,56063
Taurage County,Kaugoniu k.,56063
Taurage County,Kmitu k.,56063
Taurage County,Krasnasiolkos k.,56063
Taurage County,Lalenu k.,56063
Taurage County,Laukagalio k.,56063
Taurage County,Lemucioniu k.,56063
Taurage County,Miciunu k.,56063
Taurage County,Naslenu k.,56063
Taurage County,Neravu k.,56063
Taurage County,Niauriskiu k.,56063
Taurage County,Padvariu k.,56063
Taurage County,Pakalniskiu k.,56063
Taurage County,Palapojes k.,56063
Taurage County,Paneriu k.,56063
Taurage County,Paparciu k.,56063
Taurage County,Prudninku k.,56063
Taurage County,sesoniu k.,56063
Taurage County,Skynimu k.,56063
Taurage County,Tatarkos k.,56063
Taurage County,Vareikoniu k.,56063
Taurage County,Varniskiu k.,56063
Taurage County,zaliojo Rago k.,56063
Telsiai County,Kaunas,44001
Telsiai County,Naujasodzio k.,44001
Telsiai County,SB ?Naujasodis?,44001
Telsiai County,SB ?Politechnika?,44001
Telsiai County,Kaunas,44037
Telsiai County,Kaunas,45001
Telsiai County,Girioniu k.,45009
Telsiai County,Kaunas,45009
Telsiai County,SB ?Ajeras?,45009
Telsiai County,SB ?Dubrava?,45009
Telsiai County,SB ?Gintaras?,45009
Telsiai County,SB ?Girionys?,45009
Telsiai County,SB ?Metalas?,45009
Telsiai County,SB ?Semena?,45009
Telsiai County,SB ?Zuikine?,45009
Telsiai County,Vaisvydavos k.,45009
Telsiai County,Dangstytes k.,46001
Telsiai County,Girininku k.,46001
Telsiai County,Kaunas,46001
Telsiai County,Pamoterio k.,46001
Telsiai County,Parazeliu k.,46001
Telsiai County,Patamulselio k.,46001
Telsiai County,Pavytes k.,46001
Telsiai County,Razeliu k.,46001
Telsiai County,Rokeliu k.,46001
Telsiai County,Roku k.,46001
Telsiai County,Roku Misko Kelmyno k.,46001
Telsiai County,SB ?Jiesia?,46001
Telsiai County,SB ?Silva?,46001
Telsiai County,Vainatrakio k.,46001
Telsiai County,Vingytes k.,46001
Telsiai County,Kaunas,46005
Telsiai County,SB ?Alsenai?,46005
Telsiai County,SB ?Freda?,46005
Telsiai County,Kaunas,47001
Telsiai County,Kaunas,47009
Telsiai County,SB ?Pusynelis?,47009
Telsiai County,Kaunas,47015
Telsiai County,Kumpiu k.,47015
Telsiai County,sakiu k.,47015
Telsiai County,SB ?Kampas?,47015
Telsiai County,Kaunas,48001
Telsiai County,Kaunas,48005
Telsiai County,SB ?Panerys?,48005
Telsiai County,SB ?Saliai?,48005
Telsiai County,SB ?slaitas?,48005
Telsiai County,Kaunas,48009
Telsiai County,Kaunas,49001
Telsiai County,Kaunas,50001
Telsiai County,Kaunas,50019
Telsiai County,Kaunas,51001
Telsiai County,SB ?Dainava?,51001
Telsiai County,SB ?Levintai?,51001
Telsiai County,SB ?Romuva?,51001
Telsiai County,SB ?Serbenta?,51001
Telsiai County,Kaunas,52001
Telsiai County,SB ?Amaliai?,52001
Telsiai County,Kaunas,52005
Telsiai County,Dubravu k.,53015
Telsiai County,Gervenupio k.,53015
Telsiai County,Kluoniskiu k.,53015
Telsiai County,Laumenu k.,53015
Telsiai County,Samylu k.,53015
Telsiai County,SB ?Aguona?,53015
Telsiai County,SB ?Aitvaras?,53015
Telsiai County,SB ?Aleksotas?,53015
Telsiai County,SB ?Aras?,53015
Telsiai County,SB ?Automobilistas?,53015
Telsiai County,SB ?azuolas?,53015
Telsiai County,SB ?Banga?,53015
Telsiai County,SB ?Berzelis?,53015
Telsiai County,SB ?Bitukas?,53015
Telsiai County,SB ?Centrolitas?,53015
Telsiai County,SB ?Dauba?,53015
Telsiai County,SB ?Diemedis?,53015
Telsiai County,SB ?Dobilelis?,53015
Telsiai County,SB ?Egle?,53015
Telsiai County,SB ?Genys?,53015
Telsiai County,SB ?Gervena?,53015
Telsiai County,SB ?Gervenupis?,53015
Telsiai County,SB ?Gluosnis?,53015
Telsiai County,SB ?Guboja?,53015
Telsiai County,SB ?Guzutis?,53015
Telsiai County,SB ?Kaspinas?,53015
Telsiai County,SB ?Kauno baldai?,53015
Telsiai County,SB ?Klevas?,53015
Telsiai County,SB ?Klevelis?,53015
Telsiai County,SB ?Kristalas?,53015
Telsiai County,SB ?Lakstingala?,53015
Telsiai County,SB ?Laume?,53015
Telsiai County,SB ?Laumenai?,53015
Telsiai County,SB ?Liepa?,53015
Telsiai County,SB ?Misko aidas?,53015
Telsiai County,SB ?Monolitas?,53015
Telsiai County,SB ?Naglis?,53015
Telsiai County,SB ?Neringa?,53015
Telsiai County,SB ?Pajuris?,53015
Telsiai County,SB ?Pamarys?,53015
Telsiai County,SB ?Pamiske?,53015
Telsiai County,SB ?Papartis?,53015
Telsiai County,SB ?Pavasaris?,53015
Telsiai County,SB ?Putinas?,53015
Telsiai County,SB ?saltinis?,53015
Telsiai County,SB ?saltukas?,53015
Telsiai County,SB ?Saulute?,53015
Telsiai County,SB ?siluma?,53015
Telsiai County,SB ?Simfonija?,53015
Telsiai County,SB ?slienava?,53015
Telsiai County,SB ?Sodzius?,53015
Telsiai County,SB ?Sveikata?,53015
Telsiai County,SB ?sypsena?,53015
Telsiai County,SB ?Tulpe?,53015
Telsiai County,SB ?Vasara?,53015
Telsiai County,SB ?Vetrunge?,53015
Telsiai County,SB ?Vieverselis?,53015
Telsiai County,SB ?zaisa?,53015
Telsiai County,SB ?zasma?,53015
Telsiai County,SB ?zilvitis?,53015
Telsiai County,SB ?zuvedra?,53015
Telsiai County,slienavos k.,53015
Telsiai County,ziegzdriu k.,53015
Telsiai County,Arlaviskiu k.,53021
Telsiai County,Dobilijos k.,53021
Telsiai County,Guogu k.,53021
Telsiai County,Leonavo k.,53021
Telsiai County,Margininku k.,53021
Telsiai County,Piliuonos k.,53021
Telsiai County,SB ?Atletas?,53021
Telsiai County,SB ?Drobe?,53021
Telsiai County,SB ?Piliuona?,53021
Telsiai County,SB ?Pramprojektas?,53021
Telsiai County,SB ?Sauletekis?,53021
Telsiai County,SB ?Skardis?,53021
Telsiai County,SB ?Streva?,53021
Telsiai County,SB ?Technika?,53021
Telsiai County,SB ?Uzupiai?,53021
Telsiai County,Sietyno k.,53021
Telsiai County,Taurakiemio k.,53021
Telsiai County,Tursono k.,53021
Telsiai County,Uzupiu k.,53021
Telsiai County,Vainatrakio k.,53021
Telsiai County,Virsuziglio k.,53021
Telsiai County,Vyciaus k.,53021
Telsiai County,Budriu k.,53030
Telsiai County,Garanciskes k.,53030
Telsiai County,Garliava,53030
Telsiai County,Grabavos k.,53030
Telsiai County,Ilgakiemio k.,53030
Telsiai County,Ireniskiu k.,53030
Telsiai County,Jonuciu k.,53030
Telsiai County,Jonuciu ll k.,53030
Telsiai County,Juragiu k.,53030
Telsiai County,Juraitiskes k.,53030
Telsiai County,Jurginiskiu k.,53030
Telsiai County,Kairiuksciu k.,53030
Telsiai County,Kalinavos k.,53030
Telsiai County,Karkazu k.,53030
Telsiai County,Kaunas,53030
Telsiai County,Linksmakalnio k.,53030
Telsiai County,Mastaiciu k.,53030
Telsiai County,Naugardiskes k.,53030
Telsiai County,Pagiriu k.,53030
Telsiai County,Pajiesio k.,53030
Telsiai County,Rasnavos k.,53030
Telsiai County,Raziskiu k.,53030
Telsiai County,Rinkunu k.,53030
Telsiai County,SB ?Apynys?,53030
Telsiai County,SB ?Ausra?,53030
Telsiai County,SB ?Energija?,53030
Telsiai County,SB ?Hidrotechnikas?,53030
Telsiai County,SB ?Kolegos?,53030
Telsiai County,SB ?Medikas?,53030
Telsiai County,SB ?Melioratorius?,53030
Telsiai County,SB ?Pagiriai?,53030
Telsiai County,SB ?Pajiesys?,53030
Telsiai County,SB ?Renetas?,53030
Telsiai County,SB ?Stanaiciai?,53030
Telsiai County,Seniavos k.,53030
Telsiai County,Sprindiskiu k.,53030
Telsiai County,Stanaiciu k.,53030
Telsiai County,Teleiciu k.,53030
Telsiai County,Tvarkiskiu k.,53030
Telsiai County,Bijunu k.,53056
Telsiai County,Bliovu k.,53056
Telsiai County,Dievogalos k.,53056
Telsiai County,Girininku l k.,53056
Telsiai County,Girininku ll k.,53056
Telsiai County,Jonuciu k.,53056
Telsiai County,Kampiskiu k.,53056
Telsiai County,Kujagalviu k.,53056
Telsiai County,Macijausku k.,53056
Telsiai County,Mastaiciu k.,53056
Telsiai County,Narsieciu k.,53056
Telsiai County,Pabartupio k.,53056
Telsiai County,Padainupio k.,53056
Telsiai County,Pamaisupio k.,53056
Telsiai County,Pazeru k.,53056
Telsiai County,SB ?Bijunas?,53056
Telsiai County,silenu k.,53056
Telsiai County,Smailiu k.,53056
Telsiai County,sniuru k.,53056
Telsiai County,Tirkiliskiu k.,53056
Telsiai County,Tumpu k.,53056
Telsiai County,Akademija,53067
Telsiai County,Alsenu k.,53067
Telsiai County,Armaniskiu k.,53067
Telsiai County,Bajoru k.,53067
Telsiai County,cebeliskiu k.,53067
Telsiai County,Digriu k.,53067
Telsiai County,Karkiskiu k.,53067
Telsiai County,Kazliskiu k.,53067
Telsiai County,Miriniskiu k.,53067
Telsiai County,Mitkunu k.,53067
Telsiai County,Noreikiskiu k.,53067
Telsiai County,Poderiskiu k.,53067
Telsiai County,Ringaudu k.,53067
Telsiai County,Sakalu k.,53067
Telsiai County,SB ?Nemunas?,53067
Telsiai County,SB ?Rasa?,53067
Telsiai County,SB ?Uzuoveja?,53067
Telsiai County,Tabariskiu k.,53067
Telsiai County,Durpyno k.,53079
Telsiai County,Ezerelis,53079
Telsiai County,Krusinsku k.,53079
Telsiai County,SB ?Ezerelis?,53079
Telsiai County,SB ?Pagirys?,53079
Telsiai County,Altoniskiu k.,53083
Telsiai County,Braziuku k.,53083
Telsiai County,Dievogalos k.,53083
Telsiai County,Jadagoniu k.,53083
Telsiai County,Judraiciu k.,53083
Telsiai County,Kelmeriu k.,53083
Telsiai County,Kluoniskiu k.,53083
Telsiai County,Kuro k.,53083
Telsiai County,Novos k.,53083
Telsiai County,Papiskiu k.,53083
Telsiai County,Riogliskiu k.,53083
Telsiai County,Rupinu k.,53083
Telsiai County,SB ?Agrochemija?,53083
Telsiai County,SB ?Altoniskes?,53083
Telsiai County,SB ?Apdaila?,53083
Telsiai County,SB ?Apynelis?,53083
Telsiai County,SB ?Baldininkas?,53083
Telsiai County,SB ?Judre?,53083
Telsiai County,SB ?Karklynas?,53083
Telsiai County,SB ?Kelmeriai?,53083
Telsiai County,SB ?Kerupe?,53083
Telsiai County,SB ?Nemunelis?,53083
Telsiai County,SB ?Ova?,53083
Telsiai County,SB ?Pagirnis?,53083
Telsiai County,SB ?Vandenis?,53083
Telsiai County,SB ?zara?,53083
Telsiai County,siuliu k.,53083
Telsiai County,Vilemu k.,53083
Telsiai County,Vincentavos k.,53083
Telsiai County,Zapyskis,53083
Telsiai County,Zizu k.,53083
Telsiai County,Domeikavos k.,53088
Telsiai County,Gaizeneliu k.,53088
Telsiai County,Gaizenu k.,53088
Telsiai County,Garliava,53088
Telsiai County,Kacergine,53088
Telsiai County,Kuodiskiu k.,53088
Telsiai County,Luobines k.,53088
Telsiai County,Mitkunai,53088
Telsiai County,Pypliu k.,53088
Telsiai County,SB ?Gaizeneliai?,53088
Telsiai County,Virbaliskiu k.,53088
Telsiai County,Kalnyciu k.,53093
Telsiai County,Kulautuva,53093
Telsiai County,Luksakaimio k.,53093
Telsiai County,Mozuriskiu k.,53093
Telsiai County,SB ?Kernave?,53093
Telsiai County,SB ?Kulautuva?,53093
Telsiai County,Tirksliu k.,53093
Telsiai County,Virbaliunu k.,53093
Telsiai County,Bernatoniu k.,54001
Telsiai County,Biliunu k.,54001
Telsiai County,Didvyriu k.,54001
Telsiai County,Dumino k.,54001
Telsiai County,Kaciuniskes k.,54001
Telsiai County,Karnaves k.,54001
Telsiai County,Lomankos k.,54001
Telsiai County,Maksvos k.,54001
Telsiai County,Miskiniu k.,54001
Telsiai County,Naujuju Bernatoniu k.,54001
Telsiai County,Netoniu k.,54001
Telsiai County,Raudondvario k.,54001
Telsiai County,SB ?Girios?,54001
Telsiai County,SB ?Jurginas?,54001
Telsiai County,SB ?Lazdynas?,54001
Telsiai County,SB ?Netoniai?,54001
Telsiai County,SB ?saltuona?,54001
Telsiai County,SB ?silas?,54001
Telsiai County,SB ?silelis?,54001
Telsiai County,SB ?Sonata?,54001
Telsiai County,SB ?Traukupis?,54001
Telsiai County,SB ?Upyte?,54001
Telsiai County,SB ?Vejuona?,54001
Telsiai County,Senuju Bernatoniu k.,54001
Telsiai County,silelio k.,54001
Telsiai County,Upytes k.,54001
Telsiai County,Batniavos k.,54011
Telsiai County,Beiniunu k.,54011
Telsiai County,Bruzes k.,54011
Telsiai County,Bubiu k.,54011
Telsiai County,Dulkiu k.,54011
Telsiai County,Gineitu k.,54011
Telsiai County,Kriemalos k.,54011
Telsiai County,Kvesu k.,54011
Telsiai County,Naujienos k.,54011
Telsiai County,Pastuvos k.,54011
Telsiai County,Ruckunu k.,54011
Telsiai County,Rupunionu k.,54011
Telsiai County,SB ?Batniava?,54011
Telsiai County,SB ?Kriemala?,54011
Telsiai County,SB ?Pastuva?,54011
Telsiai County,Tolivardziu k.,54011
Telsiai County,zebiskiu k.,54011
Telsiai County,zvirgzdes k.,54011
Telsiai County,Akuotu k.,54015
Telsiai County,Antalkiu k.,54015
Telsiai County,Aukstakalniu k.,54015
Telsiai County,Baravu k.,54015
Telsiai County,Bernotiskiu k.,54015
Telsiai County,Buivydu k.,54015
Telsiai County,Daucioniu k.,54015
Telsiai County,Daugeliskiu k.,54015
Telsiai County,Dauguziu k.,54015
Telsiai County,Dokeliu k.,54015
Telsiai County,Dokiu k.,54015
Telsiai County,Gaideliskiu k.,54015
Telsiai County,Gaigalu k.,54015
Telsiai County,Gailiunu k.,54015
Telsiai County,Gineikiu k.,54015
Telsiai County,Godenu k.,54015
Telsiai County,Jagminiskiu k.,54015
Telsiai County,Jauciakiu k.,54015
Telsiai County,Jokavu k.,54015
Telsiai County,Jotautu k.,54015
Telsiai County,Juodziu k.,54015
Telsiai County,Juozapavos k.,54015
Telsiai County,Karalgiris,54015
Telsiai County,Kruvandu k.,54015
Telsiai County,Lauksvydu k.,54015
Telsiai County,Lazduoniu k.,54015
Telsiai County,Lebedziu k.,54015
Telsiai County,Lelerviskiu k.,54015
Telsiai County,Liepdvario k.,54015
Telsiai County,Lipikiskiu k.,54015
Telsiai County,Liuciunu k.,54015
Telsiai County,Lygainiu k.,54015
Telsiai County,Miskalaukio k.,54015
Telsiai County,Naujatriobiu k.,54015
Telsiai County,Pabaliu k.,54015
Telsiai County,Padauguveles k.,54015
Telsiai County,Padauguvos k.,54015
Telsiai County,Padubysio k.,54015
Telsiai County,Pagiriu k.,54015
Telsiai County,Palazduonio k.,54015
Telsiai County,Paprudziu k.,54015
Telsiai County,Partiku k.,54015
Telsiai County,Pasiliu k.,54015
Telsiai County,Pastriunio k.,54015
Telsiai County,Purviskiu k.,54015
Telsiai County,Ramonu k.,54015
Telsiai County,Raubatoniu k.,54015
Telsiai County,Ringoves k.,54015
Telsiai County,Ruckoniu k.,54015
Telsiai County,Sauletekiu k.,54015
Telsiai County,SB ?Jauciakiai?,54015
Telsiai County,SB ?Rasakila?,54015
Telsiai County,SB ?Vilkija?,54015
Telsiai County,Severinavos k.,54015
Telsiai County,Skrebenu k.,54015
Telsiai County,soliu k.,54015
Telsiai County,Stanislavos k.,54015
Telsiai County,Uzdulinskiu k.,54015
Telsiai County,Vaitkunu k.,54015
Telsiai County,Valmantiskiu k.,54015
Telsiai County,Vilkija,54015
Telsiai County,Vilkijos k.,54015
Telsiai County,Vyziausiu k.,54015
Telsiai County,Zauniskiu k.,54015
Telsiai County,Antkalniu k.,54046
Telsiai County,Besmerciu k.,54046
Telsiai County,cekiske,54046
Telsiai County,Eiksciu k.,54046
Telsiai County,Geguzenu k.,54046
Telsiai County,Juskaiciu k.,54046
Telsiai County,Kairiu k.,54046
Telsiai County,Kilovos k.,54046
Telsiai County,Mikliunu k.,54046
Telsiai County,Mikniavos k.,54046
Telsiai County,Padubysio k.,54046
Telsiai County,Paprieniu k.,54046
Telsiai County,Prienu k.,54046
Telsiai County,Purvaiciu k.,54046
Telsiai County,Radviliskiu k.,54046
Telsiai County,Raudones k.,54046
Telsiai County,Teklinavos k.,54046
Telsiai County,Algupio k.,54050
Telsiai County,Cinkiskiu k.,54050
Telsiai County,Eglynu k.,54050
Telsiai County,Gaizuveles k.,54050
Telsiai County,Kaniuku k.,54050
Telsiai County,Karalgirio k.,54050
Telsiai County,Krivenu k.,54050
Telsiai County,Lazdynes k.,54050
Telsiai County,Naujasodziu k.,54050
Telsiai County,Paneveziuko k.,54050
Telsiai County,Pavejuonio k.,54050
Telsiai County,Piepaliu k.,54050
Telsiai County,SB ?Aluona?,54050
Telsiai County,SB ?Nevezis?,54050
Telsiai County,SB ?Vija?,54050
Telsiai County,Selveravos k.,54050
Telsiai County,Vareikoniu k.,54050
Telsiai County,Vikunu k.,54050
Telsiai County,Vosiskiu k.,54050
Telsiai County,Zacisiaus k.,54050
Telsiai County,zemaitkiemio k.,54050
Telsiai County,Bivyliu k.,54055
Telsiai County,Giraites k.,54055
Telsiai County,Kudrenu k.,54055
Telsiai County,Kumpiu k.,54055
Telsiai County,Naujuju Muniskiu k.,54055
Telsiai County,Paltiskiu k.,54055
Telsiai County,Paparciu k.,54055
Telsiai County,Romainiu k.,54055
Telsiai County,Romainiu Kaimeles k.,54055
Telsiai County,Sausines k.,54055
Telsiai County,SB ?Granitas?,54055
Telsiai County,SB ?Guoba?,54055
Telsiai County,SB ?Lokomotyvas?,54055
Telsiai County,SB ?Vanagyne?,54055
Telsiai County,SB ?Volunge?,54055
Telsiai County,Uzliedziu k.,54055
Telsiai County,Vijuku k.,54055
Telsiai County,zemaitkiemio k.,54055
Telsiai County,Antagyneliu k.,54059
Telsiai County,Antagynes k.,54059
Telsiai County,Babtai,54059
Telsiai County,Babtu k.,54059
Telsiai County,Berlainiu k.,54059
Telsiai County,Dasiunu k.,54059
Telsiai County,Dirviniu k.,54059
Telsiai County,Gailiusiu k.,54059
Telsiai County,Janusoniu k.,54059
Telsiai County,Jugintu k.,54059
Telsiai County,Juodoniu k.,54059
Telsiai County,Kacergiu k.,54059
Telsiai County,Kikoniu k.,54059
Telsiai County,Muniskiu k.,54059
Telsiai County,Pagynes k.,54059
Telsiai County,Pakapiu k.,54059
Telsiai County,sasiu k.,54059
Telsiai County,SB ?Verupe?,54059
Telsiai County,Sitkunu k.,54059
Telsiai County,Stabaunyciaus k.,54059
Telsiai County,Urnieziu k.,54059
Telsiai County,Vilkenu k.,54059
Telsiai County,Domeikavos k.,54066
Telsiai County,Eigirgalos k.,54066
Telsiai County,Radikiu k.,54066
Telsiai County,Raziu k.,54066
Telsiai County,Romaskiu k.,54066
Telsiai County,Saliu k.,54066
Telsiai County,SB ?Ginenai?,54066
Telsiai County,SB ?Keramikas?,54066
Telsiai County,SB ?Lantainiai?,54066
Telsiai County,SB ?Lietuvos Mis?,54066
Telsiai County,SB ?Neris?,54066
Telsiai County,SB ?Piliakalinis?,54066
Telsiai County,SB ?Piliakalnis?,54066
Telsiai County,SB ?Pusynas?,54066
Telsiai County,SB ?Radikiai?,54066
Telsiai County,Smiltynu l k.,54066
Telsiai County,Varluvos k.,54066
Telsiai County,Voskoniu k.,54066
Telsiai County,zemaitkiemio k.,54066
Telsiai County,Antoniskiu k.,54073
Telsiai County,Bitvano k.,54073
Telsiai County,Boniskiu k.,54073
Telsiai County,Boriko k.,54073
Telsiai County,Butkunu k.,54073
Telsiai County,Didziuju Ibenu k.,54073
Telsiai County,Galulaukes k.,54073
Telsiai County,Geranoniu k.,54073
Telsiai County,Jackiskiu k.,54073
Telsiai County,Jalinkos k.,54073
Telsiai County,Juozapavos k.,54073
Telsiai County,Karaliunu k.,54073
Telsiai County,Kazimieravos k.,54073
Telsiai County,Kekstynes k.,54073
Telsiai County,Kovaliskiu k.,54073
Telsiai County,Mazuju Ibenu k.,54073
Telsiai County,Nartavos k.,54073
Telsiai County,Norkunu k.,54073
Telsiai County,Padaugupes k.,54073
Telsiai County,Pagiriu k.,54073
Telsiai County,Pociunu k.,54073
Telsiai County,Preisiogalos k.,54073
Telsiai County,Puikoniu k.,54073
Telsiai County,Skrebiniskiu k.,54073
Telsiai County,Stankunu k.,54073
Telsiai County,Uzumiskiu k.,54073
Telsiai County,Valeravos k.,54073
Telsiai County,Vandziogala,54073
Telsiai County,Vigiu k.,54073
Telsiai County,Vimbaru k.,54073
Telsiai County,Andriuskoniu k.,54078
Telsiai County,Barsuniskiu k.,54078
Telsiai County,Didziuju Lapiu k.,54078
Telsiai County,Draseikiu k.,54078
Telsiai County,Ginenu k.,54078
Telsiai County,Lapes,54078
Telsiai County,Lepsiskiu k.,54078
Telsiai County,Masteikiu k.,54078
Telsiai County,Pakalniskiu k.,54078
Telsiai County,Rokiskio k.,54078
Telsiai County,sanciu k.,54078
Telsiai County,satiju k.,54078
Telsiai County,SB ?Agnapolis?,54078
Telsiai County,SB ?Aidas?,54078
Telsiai County,SB ?Alksnyne?,54078
Telsiai County,SB ?Atzala?,54078
Telsiai County,SB ?Atzalynas?,54078
Telsiai County,SB ?Berzotas?,54078
Telsiai County,SB ?Biciulis?,54078
Telsiai County,SB ?Draseikiai?,54078
Telsiai County,SB ?Energetikas?,54078
Telsiai County,SB ?Kadugys?,54078
Telsiai County,SB ?Kalneliai?,54078
Telsiai County,SB ?Kankles?,54078
Telsiai County,SB ?Kastonas?,54078
Telsiai County,SB ?Kotonietis?,54078
Telsiai County,SB ?Laguna?,54078
Telsiai County,SB ?Lapene?,54078
Telsiai County,SB ?Lelija?,54078
Telsiai County,SB ?Lepsiskiai?,54078
Telsiai County,SB ?Liepaite?,54078
Telsiai County,SB ?Margupis?,54078
Telsiai County,SB ?Narupis?,54078
Telsiai County,SB ?Nonporelis?,54078
Telsiai County,SB ?Pasvaiste?,54078
Telsiai County,SB ?Pempyne?,54078
Telsiai County,SB ?Pilenai?,54078
Telsiai County,SB ?Restauratorius?,54078
Telsiai County,SB ?Rytas?,54078
Telsiai County,SB ?satijai?,54078
Telsiai County,SB ?Slenis?,54078
Telsiai County,SB ?Smiltele?,54078
Telsiai County,SB ?Smiltyne?,54078
Telsiai County,SB ?Stiklas?,54078
Telsiai County,SB ?Svajone?,54078
Telsiai County,SB ?Tauradubre?,54078
Telsiai County,SB ?Tauralaukis?,54078
Telsiai County,SB ?Tauraupis?,54078
Telsiai County,SB ?Versme?,54078
Telsiai County,SB ?Vilija?,54078
Telsiai County,SB ?Vingis?,54078
Telsiai County,SB ?ziburelis?,54078
Telsiai County,SB ?ziedas?,54078
Telsiai County,Smiltynu l k.,54078
Telsiai County,Smiltynu ll k.,54078
Telsiai County,Stavidvario k.,54078
Telsiai County,Tauralaukio k.,54078
Telsiai County,Biruliskiu k.,54085
Telsiai County,Karmelava,54085
Telsiai County,Karmelavos ll k.,54085
Telsiai County,Kaukazo k.,54085
Telsiai County,Margavos k.,54085
Telsiai County,Martinavos k.,54085
Telsiai County,Narepu k.,54085
Telsiai County,Peleniu k.,54085
Telsiai County,Ramuciu k.,54085
Telsiai County,Rykstynes k.,54085
Telsiai County,SB ?Biruliskiai?,54085
Telsiai County,SB ?Pelainiai?,54085
Telsiai County,SB ?Rykstyne?,54085
Telsiai County,SB ?Tiekejas?,54085
Telsiai County,Sergeiciku l k.,54085
Telsiai County,Sergeiciku ll k.,54085
Telsiai County,Vaistariskiu k.,54085
Telsiai County,Neveroniu k.,54093
Telsiai County,Pabirzio k.,54093
Telsiai County,SB ?Harmonija?,54093
Telsiai County,SB ?Pabirze?,54093
Telsiai County,Kaunas,56001
Utena County,Aristaveles k.,57001
Utena County,Aristavos k.,57001
Utena County,Bajeniskiu k.,57001
Utena County,Bartkuniskiu k.,57001
Utena County,Bogusiskiu k.,57001
Utena County,Bubliu k.,57001
Utena County,cireliu k.,57001
Utena County,Daskoniu k.,57001
Utena County,Daukainiu k.,57001
Utena County,Dauksiu k.,57001
Utena County,Daumantu k.,57001
Utena County,Dilgiu k.,57001
Utena County,Dvarcininku k.,57001
Utena County,Juodkiskio k.,57001
Utena County,Katku k.,57001
Utena County,Keboniu k.,57001
Utena County,Kedainiai,57001
Utena County,Keleriskiu k.,57001
Utena County,Klamputes k.,57001
Utena County,Koliupes k.,57001
Utena County,Kropilu k.,57001
Utena County,Ledu k.,57001
Utena County,Lipliunu k.,57001
Utena County,Mantviloniu k.,57001
Utena County,Melagiu k.,57001
Utena County,Mistautu k.,57001
Utena County,Novocebes k.,57001
Utena County,Pasmilgio k.,57001
Utena County,Pikeliu k.,57001
Utena County,Ruminiu k.,57001
Utena County,Ruosciu k.,57001
Utena County,SB ?Daumantai?,57001
Utena County,SB ?Justinava II?,57001
Utena County,SB ?Justinava?,57001
Utena County,Sirutiskio k.,57001
Utena County,siukstiliskiu k.,57001
Utena County,Stasiunu k.,57001
Utena County,Stebuliu k.,57001
Utena County,sventoniskio k.,57001
Utena County,Tauciunu k.,57001
Utena County,Tubiu k.,57001
Utena County,Uzlukiu k.,57001
Utena County,Valkaiciu k.,57001
Utena County,Varenu k.,57001
Utena County,Varkoliu k.,57001
Utena County,Vilainiu k.,57001
Utena County,Janusavos k.,57005
Utena County,Kedainiai,57005
Utena County,Aukstuju Kapliu k.,58005
Utena County,Bladikiu k.,58005
Utena County,Daratavos k.,58005
Utena County,Glausru k.,58005
Utena County,Jaskaiciu k.,58005
Utena County,Joniskiu k.,58005
Utena County,Lioliu k.,58005
Utena County,Miteniskiu k.,58005
Utena County,Paezeriu k.,58005
Utena County,Papurviu k.,58005
Utena County,Pasetes ll k.,58005
Utena County,Pasumerio k.,58005
Utena County,Petraiciu k.,58005
Utena County,Pruciu k.,58005
Utena County,Sangailu k.,58005
Utena County,seta,58005
Utena County,Taujankos k.,58005
Utena County,Taujenu k.,58005
Utena County,Trakuciu k.,58005
Utena County,Uzbalos k.,58005
Utena County,zeimeliu k.,58005
Utena County,zemuju Kapliu k.,58005
Utena County,Akmeniu k.,58011
Utena County,Aukupenu k.,58011
Utena County,Baldinkos k.,58011
Utena County,Beinaiciu k.,58011
Utena County,Eiguliu k.,58011
Utena County,Gelnu k.,58011
Utena County,Ivaniskiu k.,58011
Utena County,Jagminu k.,58011
Utena County,Juciunu k.,58011
Utena County,Kudzioniu k.,58011
Utena County,Liogailiskio k.,58011
Utena County,Luksiu k.,58011
Utena County,Medeksiu k.,58011
Utena County,Nartautu k.,58011
Utena County,Nociunu k.,58011
Utena County,Paobelys k.,58011
Utena County,Pasiliu k.,58011
Utena County,Pedziu k.,58011
Utena County,Pelednagiu k.,58011
Utena County,Rimuoliu k.,58011
Utena County,Savieciu k.,58011
Utena County,SB ?Pasiliai I?,58011
Utena County,SB ?Pasiliai II?,58011
Utena County,silaineliu k.,58011
Utena County,silainiu k.,58011
Utena County,Slikiu k.,58011
Utena County,Stasaiciu k.,58011
Utena County,Uzkapiu k.,58011
Utena County,Vainiunu k.,58011
Utena County,Zabieliskio k.,58011
Utena County,ziogaiciu k.,58011
Utena County,Ansainiu k.,58014
Utena County,Buciunu k.,58014
Utena County,Kruopiu k.,58014
Utena County,Labunavos k.,58014
Utena County,Pamekliu k.,58014
Utena County,Serbinu k.,58014
Utena County,Sicioniu k.,58014
Utena County,Angiriu k.,58017
Utena County,Antanavos k.,58017
Utena County,Bajenu l k.,58017
Utena County,Bajenu ll k.,58017
Utena County,Barsukynes k.,58017
Utena County,Budu k.,58017
Utena County,Budvieciu k.,58017
Utena County,ciukiskiu k.,58017
Utena County,Daubaru k.,58017
Utena County,Degimu k.,58017
Utena County,Gailiakaimio k.,58017
Utena County,Galulaukio k.,58017
Utena County,Grasvos k.,58017
Utena County,Grauziu k.,58017
Utena County,Grauzu k.,58017
Utena County,Ivainiskiu k.,58017
Utena County,Jasnagurkos k.,58017
Utena County,Josvainiai,58017
Utena County,Josvainiu k.,58017
Utena County,Juodkaimiu k.,58017
Utena County,Kampu l k.,58017
Utena County,Kampu ll k.,58017
Utena County,Karunavos k.,58017
Utena County,Kilbisu k.,58017
Utena County,Kunioniu k.,58017
Utena County,Macgaliu k.,58017
Utena County,Paliepiu k.,58017
Utena County,Paliepiuku k.,58017
Utena County,Paviksrupio k.,58017
Utena County,Plaktiniu k.,58017
Utena County,Prapuoleniu k.,58017
Utena County,Ruseineliu k.,58017
Utena County,Ruseiniu k.,58017
Utena County,saravu k.,58017
Utena County,singaliu k.,58017
Utena County,Skaistgiriu k.,58017
Utena County,Sviliu k.,58017
Utena County,Sviliuku k.,58017
Utena County,Vainiku k.,58017
Utena County,Varnupes k.,58017
Utena County,Aukstadvario k.,58026
Utena County,Aukstkalniu k.,58026
Utena County,Blandziu k.,58026
Utena County,Dauksu k.,58026
Utena County,Dratkalnio k.,58026
Utena County,Geguziu k.,58026
Utena County,Giziemiu k.,58026
Utena County,Goziu k.,58026
Utena County,Griniu k.,58026
Utena County,Guckampio k.,58026
Utena County,Jaksiu k.,58026
Utena County,Jankunu k.,58026
Utena County,Juodgirio k.,58026
Utena County,Juodziu k.,58026
Utena County,Kantrimu k.,58026
Utena County,Kupsciu k.,58026
Utena County,Langakiu k.,58026
Utena County,Laucynes k.,58026
Utena County,Lesciu k.,58026
Utena County,Lesciuku k.,58026
Utena County,Mantigailiu k.,58026
Utena County,Milvydu k.,58026
Utena County,Paaluonio k.,58026
Utena County,Pagojaus k.,58026
Utena County,Pakalniskiu k.,58026
Utena County,Paliediskiu k.,58026
Utena County,Pavinksniu k.,58026
Utena County,Pelutavos k.,58026
Utena County,Pernarava,58026
Utena County,Pesliskiu k.,58026
Utena County,Preikapes k.,58026
Utena County,Rudakiu k.,58026
Utena County,Rugenu k.,58026
Utena County,Vainikoniu k.,58026
Utena County,Vencloviskiu k.,58026
Utena County,Vincentavos k.,58026
Utena County,Voskaiciu k.,58026
Utena County,Vytauteliu k.,58026
Utena County,zostautu k.,58026
Utena County,Ambraziunu k.,58032
Utena County,Antezerio k.,58032
Utena County,Antkalniu k.,58032
Utena County,Apusroto k.,58032
Utena County,Aukstuoliuku k.,58032
Utena County,azuolytes k.,58032
Utena County,Azytenu k.,58032
Utena County,Barkuneliu k.,58032
Utena County,cistapolio k.,58032
Utena County,Darzbalio k.,58032
Utena County,Deveikiskiu k.,58032
Utena County,Digraiciu k.,58032
Utena County,Diksiu k.,58032
Utena County,Donavos k.,58032
Utena County,Dovydiskiu k.,58032
Utena County,Gaideliu k.,58032
Utena County,Gersones k.,58032
Utena County,Girvainiu k.,58032
Utena County,Girynes k.,58032
Utena County,Gudaiciu k.,58032
Utena County,Guptilciu k.,58032
Utena County,Jankunu k.,58032
Utena County,Jaugiliu k.,58032
Utena County,Jaugilkos k.,58032
Utena County,Jurgaiciu k,58032
Utena County,Keturkiemio k.,58032
Utena County,Krakes,58032
Utena County,Krakiu k.,58032
Utena County,Kukuriskiu k.,58032
Utena County,Lenciu k.,58032
Utena County,Maconiu k.,58032
Utena County,Mastautu k.,58032
Utena County,Medininku k.,58032
Utena County,Meironiskeliu k.,58032
Utena County,Meironiskio k.,58032
Utena County,Milvydu k.,58032
Utena County,Mumaiciu k.,58032
Utena County,Norkunu k.,58032
Utena County,Pajieslio k.,58032
Utena County,Pakarkliu k.,58032
Utena County,Palainiskiu k.,58032
Utena County,Paliskiu k.,58032
Utena County,Paskardziu k.,58032
Utena County,Paskerdumio k.,58032
Utena County,Paskerdumiuko k.,58032
Utena County,Pasusvio k.,58032
Utena County,Patranio k.,58032
Utena County,Pestiniuku k.,58032
Utena County,Pilsupiu k.,58032
Utena County,Plaukiu k.,58032
Utena County,Plinkaigalio k.,58032
Utena County,Reguliu k.,58032
Utena County,Rezgiu k.,58032
Utena County,Ruku k.,58032
Utena County,silainiu k.,58032
Utena County,Skinderiskiu k.,58032
Utena County,Skirgailynes k.,58032
Utena County,Slabados k.,58032
Utena County,smotiskiu k.,58032
Utena County,spitolpievio k.,58032
Utena County,sulaiciu k.,58032
Utena County,sulcavos k.,58032
Utena County,Sutkunu k.,58032
Utena County,Ustrones k.,58032
Utena County,Uzvarciu k.,58032
Utena County,Vailainiu k.,58032
Utena County,Ventainiu k.,58032
Utena County,Vosbuciu k.,58032
Utena County,Vytautynes k.,58032
Utena County,zebgrauziu k.,58032
Utena County,Zembiskio k.,58032
Utena County,zitaiciu k.,58032
Utena County,Antusavos k.,58038
Utena County,Balsiu k.,58038
Utena County,Danilavos k.,58038
Utena County,Devynduoniu k.,58038
Utena County,Gasciunu k.,58038
Utena County,Gudziunai,58038
Utena County,Gudziunu k.,58038
Utena County,Jokubaiciu k.,58038
Utena County,Margininku k.,58038
Utena County,Padruskalnio k.,58038
Utena County,Terespolio k.,58038
Utena County,Tremtiniu k.,58038
Utena County,Vikaiciu k.,58038
Utena County,Aksnenu k.,58047
Utena County,Alksnupiu k.,58047
Utena County,Antanavos k.,58047
Utena County,Bakainiu k.,58047
Utena County,Baliskiu k.,58047
Utena County,Berzeles k.,58047
Utena County,Daskoniu k.,58047
Utena County,Dembnes k.,58047
Utena County,Gojaus k.,58047
Utena County,Grauziu k.,58047
Utena County,Jogniskiu k.,58047
Utena County,Kalnaberzes k.,58047
Utena County,Kaukalniu k.,58047
Utena County,Kutiskiu k.,58047
Utena County,Lazu k.,58047
Utena County,Lomeikiskiu k.,58047
Utena County,Miegenu k.,58047
Utena County,Mociunu k.,58047
Utena County,Paberzes k.,58047
Utena County,Pakruosteles k.,58047
Utena County,Pakruostes k.,58047
Utena County,Pamiskiu k.,58047
Utena County,Pilenu k.,58047
Utena County,Senkoniu k.,58047
Utena County,Spiguciu k.,58047
Utena County,Suriskiu k.,58047
Utena County,Surviliskio k.,58047
Utena County,Surviliskis,58047
Utena County,Trakupiu k.,58047
Utena County,Urbeliu k.,58047
Utena County,Uzupes k.,58047
Utena County,Vaidatoniu k.,58047
Utena County,Vitenu k.,58047
Utena County,zilvyciu k.,58047
Utena County,zirnenkos k.,58047
Utena County,Naujuju Bakainiu k.,58050
Utena County,Naujuju Lazu k.,58050
Utena County,Pakruostes k.,58050
Utena County,Puodziu k.,58050
Utena County,slapaberzes k.,58050
Utena County,Vinsgaliu k.,58050
Utena County,Zacisiu k.,58050
Utena County,Akademija,58053
Utena County,Berzu k.,58053
Utena County,Bokstu k.,58053
Utena County,Dotnuvos glzk. st.,58053
Utena County,Jaunakaimio k.,58053
Utena County,Liepos k.,58053
Utena County,Mantviliskio k.,58053
Utena County,Padotnuvio k.,58053
Utena County,Piliamanto k.,58053
Utena County,Pilioniu k.,58053
Utena County,salcmiriu k.,58053
Utena County,Siponiu k.,58053
Utena County,Vainotiskiu k.,58053
Utena County,zemaiciu k.,58053
Utena County,Ausros k.,58057
Utena County,azuolaiciu k.,58057
Utena County,Dotnuva,58057
Utena County,Gelainiu k.,58057
Utena County,Noreikiu k.,58057
Utena County,Ramenu k.,58057
Utena County,siaudynes k.,58057
Utena County,Urneziu k.,58057
Utena County,Valinavos k.,58057
Utena County,Valuciu k.,58057
Utena County,Apytalaukio k.,58063
Utena County,Bicku k.,58063
Utena County,Galkantu k.,58063
Utena County,Gineitu k.,58063
Utena County,Kujenu k.,58063
Utena County,Lepsynes k.,58063
Utena County,Repengiu k.,58063
Utena County,SB ?Vasariskes?,58063
Utena County,seteniu k.,58063
Utena County,slaitkalnio k.,58063
Utena County,sventybrascio k.,58063
Utena County,Tiskunu k.,58063
Utena County,Vasariskiu k.,58063
Utena County,Zavisines k.,58063
Utena County,Alksnenu k.,58066
Utena County,Budu k.,58066
Utena County,Lanciunavos k.,58066
Utena County,Milzemio k.,58066
Utena County,Pliupu k.,58066
Utena County,Puplaukiu k.,58066
Utena County,Rudziu k.,58066
Utena County,Stasynes k.,58066
Utena County,Stuobriu k.,58066
Utena County,Uzvalkiu k.,58066
Utena County,Anciskio k.,58069
Utena County,Bajoriskio k.,58069
Utena County,Dvariskiu l k.,58069
Utena County,Dvariskiu ll k.,58069
Utena County,Gerdvilu k.,58069
Utena County,Lalu k.,58069
Utena County,Lasongalio k.,58069
Utena County,Likenu k.,58069
Utena County,Okaineliu k.,58069
Utena County,Okainiu k.,58069
Utena County,Osinaukos k.,58069
Utena County,Padegiu k.,58069
Utena County,Pagelupio k.,58069
Utena County,Pauslojo k.,58069
Utena County,Pavermenio k.,58069
Utena County,Petkunu k.,58069
Utena County,Piktagalio k.,58069
Utena County,Ramygolkos k.,58069
Utena County,Ratlankscio k.,58069
Utena County,Reksiu k.,58069
Utena County,sukioniu k.,58069
Utena County,Traku k.,58069
Utena County,Truskava,58069
Utena County,Uzvalkiu k.,58069
Utena County,Uzvarteles k.,58069
Utena County,Uzvermenio k.,58069
Utena County,Vidulaukiu k.,58069
Utena County,Volungiskiu k.,58069
Utena County,Bebrikiu k.,58072
Utena County,cereliu k.,58072
Utena County,Darguziu k.,58072
Utena County,Griniskiu k.,58072
Utena County,Gumbiu k.,58072
Utena County,Jukniu k.,58072
Utena County,Kreiviu k.,58072
Utena County,Kuroniu k.,58072
Utena County,Leliunu k.,58072
Utena County,Margiu k.,58072
Utena County,Mauliu k.,58072
Utena County,Pagiriai,58072
Utena County,Paguiriu k.,58072
Utena County,Runeikiu k.,58072
Utena County,Rykliskiu k.,58072
Utena County,Steponavos k.,58072
Utena County,Vaiskoneliu k.,58072
Utena County,Vaiskoniu k.,58072
Utena County,Valaku k.,58072
Utena County,zilioniu k.,58072
Vilnius County,Alksniakiemio k.,59001
Vilnius County,Antaniskiu k.,59001
Vilnius County,Apusoto k.,59001
Vilnius County,Asminta,59001
Vilnius County,Asmintos k.,59001
Vilnius County,Backininku k.,59001
Vilnius County,Bagreno k.,59001
Vilnius County,ciudiskiu k.,59001
Vilnius County,Davaitbalio k.,59001
Vilnius County,Degimu k.,59001
Vilnius County,Giniunu k.,59001
Vilnius County,Giraitiskiu k.,59001
Vilnius County,Ignacavos k.,59001
Vilnius County,Juodaraiscio k.,59001
Vilnius County,Kalviu k.,59001
Vilnius County,Klebiskio k.,59001
Vilnius County,Liepaloto k.,59001
Vilnius County,Maciunu k.,59001
Vilnius County,Miskapievio Pasados k.,59001
Vilnius County,Molines k.,59001
Vilnius County,Naravu k.,59001
Vilnius County,Naujininku k.,59001
Vilnius County,Pabaliskiu k.,59001
Vilnius County,Paciudiskiu k.,59001
Vilnius County,Paduoblio k.,59001
Vilnius County,Pagarsvio k.,59001
Vilnius County,Pakampiskiu k,59001
Vilnius County,Pakiauliskiu k.,59001
Vilnius County,Patelviskiu k.,59001
Vilnius County,Petraitiskiu k,59001
Vilnius County,Pociunu k.,59001
Vilnius County,Posvencio k.,59001
Vilnius County,Prienai,59001
Vilnius County,Prienlaukio k.,59001
Vilnius County,Rudupio k.,59001
Vilnius County,Saltiniskiu k.,59001
Vilnius County,SB ?Kalnai?,59001
Vilnius County,SB ?Medelynas?,59001
Vilnius County,SB ?saltinelis?,59001
Vilnius County,SB ?Sodzius?,59001
Vilnius County,SB ?Vandenys?,59001
Vilnius County,siauliskiu k.,59001
Vilnius County,Strielciu k.,59001
Vilnius County,Vazatkeimio k.,59001
Vilnius County,Vazatkiemio k.,59001
Vilnius County,zariju k.,59001
Vilnius County,Aukstojo Balbieriskio k.,59015
Vilnius County,azuolu k.,59015
Vilnius County,Balbieriskis,59015
Vilnius County,Dargupio k.,59015
Vilnius County,Geruliu k.,59015
Vilnius County,Gudiskes k.,59015
Vilnius County,Ismanu k.,59015
Vilnius County,Jonaviskiu k.,59015
Vilnius County,Kieliskiu k.,59015
Vilnius County,Kirmeliskiu k.,59015
Vilnius County,Mackiu k.,59015
Vilnius County,Mardosu k.,59015
Vilnius County,Medziuku k.,59015
Vilnius County,Naujojo Balbieriskio k.,59015
Vilnius County,Navasiolkos k.,59015
Vilnius County,Neseikiu k.,59015
Vilnius County,Norkunu k.,59015
Vilnius County,Pabrasciu k.,59015
Vilnius County,Paduoblio k.,59015
Vilnius County,Pramezio k.,59015
Vilnius County,Putriskiu k.,59015
Vilnius County,Ringenu k.,59015
Vilnius County,Rudziakampiu k.,59015
Vilnius County,Sukuriu k.,59015
Vilnius County,Uosos k.,59015
Vilnius County,Vaivos k.,59015
Vilnius County,zagariu k.,59015
Vilnius County,ziegzdziu k.,59015
Vilnius County,ziuroniu k.,59015
Vilnius County,zvyrynu k.,59015
Vilnius County,zydaviskio k.,59015
Vilnius County,Asiukles k.,59021
Vilnius County,Budninku k.,59021
Vilnius County,Budos k.,59021
Vilnius County,Dumiskiu k.,59021
Vilnius County,Griskamurgio k.,59021
Vilnius County,Juozapavo k.,59021
Vilnius County,Kunigiskiu k.,59021
Vilnius County,Medinos k.,59021
Vilnius County,Medvisiu k.,59021
Vilnius County,Melniskiu k.,59021
Vilnius County,Mieleisupio k.,59021
Vilnius County,Naujosios utos k.,59021
Vilnius County,Pabrasciu k.,59021
Vilnius County,Paprudziu k.,59021
Vilnius County,Paslavancio k.,59021
Vilnius County,Pilotiskes k.,59021
Vilnius County,sakaliskiu k.,59021
Vilnius County,Senaucio k.,59021
Vilnius County,Serbentines k.,59021
Vilnius County,Skersabalio k.,59021
Vilnius County,Skirptiskes k.,59021
Vilnius County,Skuiges k.,59021
Vilnius County,Tartupio k.,59021
Vilnius County,Tartupio Maciuliskes k.,59021
Vilnius County,Tartupio Sruogos k.,59021
Vilnius County,utos Sruogos k.,59021
Vilnius County,Uzbaliu k.,59021
Vilnius County,Vartu k.,59021
Vilnius County,Vazgaikiemio k.,59021
Vilnius County,Zaslonos k.,59021
Vilnius County,zemaitkiemio k.,59021
Vilnius County,Budviecio k.,59027
Vilnius County,Elzbietiskio k.,59027
Vilnius County,Ingavangio k.,59027
Vilnius County,Jasenavos k.,59027
Vilnius County,Jiestrakio k.,59027
Vilnius County,Kalveliskiu k.,59027
Vilnius County,Kuisiu k.,59027
Vilnius County,Lankeles k.,59027
Vilnius County,Lesiskio k.,59027
Vilnius County,Liepabudzio k.,59027
Vilnius County,Malbudzio k.,59027
Vilnius County,Meskines k.,59027
Vilnius County,Mieldaziskes k.,59027
Vilnius County,Mieleiskampio k.,59027
Vilnius County,Mikalines k.,59027
Vilnius County,Naraukelio k.,59027
Vilnius County,Naujasodzio k.,59027
Vilnius County,Naujojo Klebiskio k.,59027
Vilnius County,Naujojo Skrynypio k.,59027
Vilnius County,Pagireliu k.,59027
Vilnius County,Pagraizio k.,59027
Vilnius County,Pajiesio k.,59027
Vilnius County,Palaukscioto k.,59027
Vilnius County,Paskrynypio k.,59027
Vilnius County,Paslavancio k.,59027
Vilnius County,Pazarscio k.,59027
Vilnius County,Raudonupio k.,59027
Vilnius County,Rudiskes k.,59027
Vilnius County,Rudos k.,59027
Vilnius County,Sargines k.,59027
Vilnius County,silavoto k.,59027
Vilnius County,siurupio k.,59027
Vilnius County,Skrynupio k.,59027
Vilnius County,Stuomenu k.,59027
Vilnius County,Varnakes k.,59027
Vilnius County,zarstos k.,59027
Vilnius County,Bagotiskes k.,59030
Vilnius County,Banioniskes k.,59030
Vilnius County,Barsukines k.,59030
Vilnius County,Blindziakumpscio k.,59030
Vilnius County,Bubautiskes k.,59030
Vilnius County,Budviecio k.,59030
Vilnius County,Cikabudes k.,59030
Vilnius County,Graizbudes k.,59030
Vilnius County,Grigaliunu k.,59030
Vilnius County,Gustaiciu k.,59030
Vilnius County,Gyviu k.,59030
Vilnius County,Isdageliu k.,59030
Vilnius County,Janaukos k.,59030
Vilnius County,Kampiniu k.,59030
Vilnius County,Keturakiskes k.,59030
Vilnius County,Kikiriskes k.,59030
Vilnius County,Kliniskes k.,59030
Vilnius County,Krasteliskes k.,59030
Vilnius County,Kubelaiskio k.,59030
Vilnius County,Kupriu k.,59030
Vilnius County,Leskavos k.,59030
Vilnius County,Lizdeikiu k.,59030
Vilnius County,Mazuju Zariskiu k.,59030
Vilnius County,Meskynu k.,59030
Vilnius County,Obelines k.,59030
Vilnius County,Pabaliskiu k.,59030
Vilnius County,Papilvio k.,59030
Vilnius County,Pasiekstupio k.,59030
Vilnius County,Patasines k.,59030
Vilnius County,Paviemonio k.,59030
Vilnius County,Pirktavietes k.,59030
Vilnius County,Puziskes k.,59030
Vilnius County,Raguvos k.,59030
Vilnius County,Samaniskes k.,59030
Vilnius County,SB ?Aronija?,59030
Vilnius County,SB ?Ausrine?,59030
Vilnius County,SB ?Dobilas?,59030
Vilnius County,SB ?Draugyste?,59030
Vilnius County,SB ?Kamane?,59030
Vilnius County,SB ?Kedras?,59030
Vilnius County,SB ?Kiminai?,59030
Vilnius County,SB ?Riesutas?,59030
Vilnius County,SB ?Varnenas?,59030
Vilnius County,simeliu k.,59030
Vilnius County,Skriaudziu k.,59030
Vilnius County,smuru k.,59030
Vilnius County,Tarputiskes k.,59030
Vilnius County,Zascenkos k.,59030
Vilnius County,Barauskines k.,59033
Vilnius County,Beleviciu k.,59033
Vilnius County,Byliskiu k.,59033
Vilnius County,ciurliu k.,59033
Vilnius County,Gustaiciu k.,59033
Vilnius County,Juodbudzio k.,59033
Vilnius County,Mauruciu gyv.,59033
Vilnius County,Mauruciu k.,59033
Vilnius County,Mozuriskio k.,59033
Vilnius County,Padreciu k.,59033
Vilnius County,Pagramdines k.,59033
Vilnius County,Pakeklio k.,59033
Vilnius County,Pazeru k.,59033
Vilnius County,Petkeliskiu k.,59033
Vilnius County,SB ?azuolelis?,59033
Vilnius County,SB ?Berzas?,59033
Vilnius County,SB ?Gija?,59033
Vilnius County,SB ?Giluma?,59033
Vilnius County,silenu k.,59033
Vilnius County,Skerdupio k.,59033
Vilnius County,Tarpiskiu k.,59033
Vilnius County,Tulausku k.,59033
Vilnius County,Veiveriai,59033
Vilnius County,Veiveriu k.,59033
Vilnius County,cepeliskiu k.,59037
Vilnius County,Dambravos k.,59037
Vilnius County,Garsvines k.,59037
Vilnius County,Grazuciu k.,59037
Vilnius County,Islauzo k.,59037
Vilnius County,Kazimieravos k.,59037
Vilnius County,Kliokiskes k.,59037
Vilnius County,Kudirku k.,59037
Vilnius County,Lapupio k.,59037
Vilnius County,Laukiskiu k.,59037
Vilnius County,Mogiskes k.,59037
Vilnius County,Pakumprio k.,59037
Vilnius County,Purvininku k.,59037
Vilnius County,Ringalavos k.,59037
Vilnius County,Rutkiskes k.,59037
Vilnius County,Sabalenu k.,59037
Vilnius County,saltupio k.,59037
Vilnius County,Sodybos k.,59037
Vilnius County,Sprindiskes k.,59037
Vilnius County,Trakines k.,59037
Vilnius County,Valengiskiu k.,59037
Vilnius County,Antakalnio k.,59040
Vilnius County,Astuoneliu k.,59040
Vilnius County,Backininkeliu k.,59040
Vilnius County,Balsenu k.,59040
Vilnius County,Buckiemio k.,59040
Vilnius County,Dankstytes k.,59040
Vilnius County,Daugsiagirio k.,59040
Vilnius County,Dvylikiu k.,59040
Vilnius County,Kebliskio k.,59040
Vilnius County,Kudirku k.,59040
Vilnius County,Malinavo k.,59040
Vilnius County,Margininku k.,59040
Vilnius County,Naujininku k.,59040
Vilnius County,Naujuju Vangu k.,59040
Vilnius County,Pagirmuonio k.,59040
Vilnius County,Pakuonio k.,59040
Vilnius County,Pakuonis,59040
Vilnius County,Pasventupio k.,59040
Vilnius County,Patamulsio k.,59040
Vilnius County,Patrakiemio k.,59040
Vilnius County,Posvencio k.,59040
Vilnius County,Seniunu k.,59040
Vilnius County,Vangu k.,59040
Vilnius County,zuvintos k.,59040
Vilnius County,Alsininku k.,59052
Vilnius County,Amerikos k.,59052
Vilnius County,Antapolio k.,59052
Vilnius County,Antaversio k.,59052
Vilnius County,Aukstojos k.,59052
Vilnius County,azuolijos k.,59052
Vilnius County,Bagdoniskiu k.,59052
Vilnius County,Budos k.,59052
Vilnius County,Budu k.,59052
Vilnius County,Buntiskes k.,59052
Vilnius County,Burokiskiu k.,59052
Vilnius County,Butkiskiu k.,59052
Vilnius County,Gedanoniu k.,59052
Vilnius County,Gelioniu k.,59052
Vilnius County,Gineikoniu k.,59052
Vilnius County,Giriotiskiu k.,59052
Vilnius County,Gojaus k.,59052
Vilnius County,Guosteles k.,59052
Vilnius County,Intuponio k.,59052
Vilnius County,Juodupio k.,59052
Vilnius County,Juozapavos k.,59052
Vilnius County,Kermosyno k.,59052
Vilnius County,Kielioniu k.,59052
Vilnius County,Krasausiskiu k.,59052
Vilnius County,Kvedariskiu k.,59052
Vilnius County,Mackoniu k.,59052
Vilnius County,Malinavos k.,59052
Vilnius County,Medzioniu k.,59052
Vilnius County,Noreikiskiu k.,59052
Vilnius County,Paaukstojos k.,59052
Vilnius County,Pageluzes k.,59052
Vilnius County,Pakrovu k.,59052
Vilnius County,Palapiskiu k.,59052
Vilnius County,Pamiskes k.,59052
Vilnius County,Pazelves k.,59052
Vilnius County,Piestuvenu k.,59052
Vilnius County,Pikelioniu k.,59052
Vilnius County,Poliesio k.,59052
Vilnius County,Pramieziu k.,59052
Vilnius County,Radomisliu k.,59052
Vilnius County,Riesutines k.,59052
Vilnius County,Sabaliskiu k.,59052
Vilnius County,Salomenku k.,59052
Vilnius County,Skerdimu k.,59052
Vilnius County,Stakliskiu k.,59052
Vilnius County,Sudvariskiu k.,59052
Vilnius County,Sutraku k.,59052
Vilnius County,Taurieku k.,59052
Vilnius County,Trecioniu k.,59052
Vilnius County,Unkoniu k.,59052
Vilnius County,Ustroniu k.,59052
Vilnius County,Uzuguoscio k.,59052
Vilnius County,Uzukalnio k.,59052
Vilnius County,Virkininku k.,59052
Vilnius County,Akuskoniu k.,59055
Vilnius County,Armanavos k.,59055
Vilnius County,Baudejos k.,59055
Vilnius County,Dobrovoles k.,59055
Vilnius County,Druskeliskiu k.,59055
Vilnius County,Geruliu k.,59055
Vilnius County,Gonciunu k.,59055
Vilnius County,Gripiskiu k.,59055
Vilnius County,Jarmaliskiu k.,59055
Vilnius County,Jaunoniu k.,59055
Vilnius County,Jogalinos k.,59055
Vilnius County,Karkliniskiu k.,59055
Vilnius County,Kristapiskiu k.,59055
Vilnius County,Krusneku k.,59055
Vilnius County,Kvietkines k.,59055
Vilnius County,Lepelioniu k.,59055
Vilnius County,Lielioniu k.,59055
Vilnius County,Margu k.,59055
Vilnius County,Masiu k.,59055
Vilnius County,Popsio k.,59055
Vilnius County,Rudiskiu k.,59055
Vilnius County,Seniavos k.,59055
Vilnius County,Stanuliskiu k.,59055
Vilnius County,Trakeliu k.,59055
Vilnius County,Vilkininku k.,59055
Vilnius County,Vispos k.,59055
Vilnius County,Vydzioniu k.,59055
Vilnius County,Vysniunu k.,59055
Vilnius County,zelkunu k.,59055
Vilnius County,Anglininku k.,59058
Vilnius County,Apusoto k.,59058
Vilnius County,Babiaguros k.,59058
Vilnius County,Balvoniskiu k.,59058
Vilnius County,Benciakiemio k.,59058
Vilnius County,Beniuku k.,59058
Vilnius County,Berzynu k.,59058
Vilnius County,Budos k.,59058
Vilnius County,Dambavos k.,59058
Vilnius County,Dambravos k.,59058
Vilnius County,Daukantu k.,59058
Vilnius County,Dukurnoniu k.,59058
Vilnius County,Dvareliskiu k.,59058
Vilnius County,Grikapedzio k.,59058
Vilnius County,Gudakalnio k.,59058
Vilnius County,Jakniskiu k.,59058
Vilnius County,Jieznas,59058
Vilnius County,Jiezno Kolonijos k.,59058
Vilnius County,Julijanavos k.,59058
Vilnius County,Jundeliskiu k.,59058
Vilnius County,Juodaviskiu k.,59058
Vilnius County,Kadiku k.,59058
Vilnius County,Kamaines k.,59058
Vilnius County,Karveliskiu k.,59058
Vilnius County,Kasoniu k.,59058
Vilnius County,Kermosynu k.,59058
Vilnius County,Kidiku k.,59058
Vilnius County,Kisieliskiu k.,59058
Vilnius County,Kiskeliskiu k.,59058
Vilnius County,Kukiskiu k.,59058
Vilnius County,Kupstines k.,59058
Vilnius County,Kurmoniskiu k.,59058
Vilnius County,Liciskenu k.,59058
Vilnius County,Lingeniskiu k.,59058
Vilnius County,Marginiu k.,59058
Vilnius County,Margu k.,59058
Vilnius County,Medeikoniu k.,59058
Vilnius County,Mediniskiu k.,59058
Vilnius County,Musninku k.,59058
Vilnius County,Navapolio k.,59058
Vilnius County,Nibriu k.,59058
Vilnius County,Padrieziskes k.,59058
Vilnius County,Pakrovu k.,59058
Vilnius County,Patilciu k.,59058
Vilnius County,Paverkniu k.,59058
Vilnius County,Pavieksniu k.,59058
Vilnius County,Peciausku k.,59058
Vilnius County,Pelekoniu k.,59058
Vilnius County,Pikelioniu k.,59058
Vilnius County,Pranapolio k.,59058
Vilnius County,Raipoles k.,59058
Vilnius County,silaiciu k.,59058
Vilnius County,siliniu k.,59058
Vilnius County,Skodiskiu k.,59058
Vilnius County,Slabados k.,59058
Vilnius County,Sobuvos k.,59058
Vilnius County,Sodu k.,59058
Vilnius County,Sokoniu k.,59058
Vilnius County,Steponiskiu k.,59058
Vilnius County,Strazdiskiu k.,59058
Vilnius County,Sundaku k.,59058
Vilnius County,Truncos k.,59058
Vilnius County,Valiuniskiu k.,59058
Vilnius County,Verbyliskiu k.,59058
Vilnius County,Vezioniu k.,59058
Vilnius County,Viluneliu k.,59058
Vilnius County,Vincetavos k.,59058
Vilnius County,Voseliunu k.,59058
Vilnius County,Vosiskiu k.,59058
Vilnius County,zideikoniu k.,59058
